serialnumber,provide_contain,provide_shelter,provide_goods,no,countycode,name,district,areacode,village,address,floor,service_village,contact_person,contact_cellphone,suit_for_weak,person,floorspacebuildingothers,floorspacebuildingfactory,suit_for_flood,suit_for_mudflow,suit_for_eqrthquake,suit_for_tsunami,standing_shelter,longitude,latitude
1,是,是,是,SF220-0002,65000,民生市民活動中心,板橋區,65000010,東丘里,新北市板橋區東丘里民生路一段30-1號1~3樓,民生分館1~3樓,東丘里、九如里、長壽里、居仁里、正泰里、海山里、東安里、民生里、福壽里、富貴里,張美霜(管理人),913953191.0,是,292.0,1170,0.0,是,是,是,是,是,121.476077,25.012755
2,是,是,否,SF220-0003,65000,板橋莊敬市民活動中心　,板橋區,65000010,莊敬里,新北市板橋區莊敬里民生路二段120號1樓,市民活動中心1樓,莊敬里、埤墘里、華江里、介壽里、百壽里,黃素玲(管理人),928206661.0,是,151.0,605,0.0,是,是,是,是,否,121.470779,25.019713
3,是,是,否,SF220-0004,65000,板橋國小,板橋區,65000010,黃石里,新北市板橋區黃石里文化路一段23號,"枋橋樓5樓、體育館1,2樓",留侯里、流芳里、赤松里、黃石里、挹秀里、湳興里、社後里、金華里、自強里、光華里、建國里、光榮里、民權里、民安里、漢生里,王韋欽(組長),926077107.0,是,1112.0,3100,2700.0,是,否,是,否,否,121.458199,25.010806
4,是,是,否,SF220-0005,65000,文德國小,板橋區,65000010,幸福里,新北市板橋區幸福里英士路179號,二聖樓風雨操場、地下室,新翠里、德翠里、新海里、公館里、幸福里、文德里、新生里、金華里、港德里、國光里、漢生里、港尾里,沈淑燕(組長),926156214.0,否,2292.0,5783,6780.0,否,否,是,否,否,121.458694,25.023478
5,是,是,否,SF220-0006,65000,江翠國小,板橋區,65000010,柏翠里,新北市板橋區柏翠里文化路二段413號,人文樓地下室、自在樓地下室、卓越樓地下室,江翠里、純翠里、溪頭里、聯翠里、松翠里、柏翠里、文翠里、青翠里,沈明輝(組長),978207933.0,否,334.0,1114,448.0,否,是,是,是,否,121.474015,25.032202
6,是,是,否,SF220-0007,65000,文聖國小,板橋區,65000010,龍翠里,新北市板橋區龍翠里15鄰文聖街86號,知動教室-至聖樓1樓、故事屋-復聖樓2樓、視聽教室-至聖樓4樓,嵐翠里、文聖里、福翠里、懷翠里、龍翠里、松柏里、港嘴里、松翠里、柏翠里,張思寅(組長),919805572.0,否,595.0,258,4250.0,否,否,是,否,否,121.479805,25.026283
7,是,是,否,SF220-0008,65000,埔墘國小,板橋區,65000010,光仁里,新北市板橋區光仁里永豐街42-8號,綜合大樓4樓活動中心、綜合大樓地下室、視聽教室(八德樓2樓),介壽里、埔墘里、雙玉里、振興里、振義里、廣新里、玉光里、光仁里、西安里、東丘里、民生里、九如里、正泰里、港嘴里、埤墘里、莊敬里,顧琪芳(組長),910019877.0,否,162.0,500,300.0,是,否,是,否,否,121.4742,25.01945
8,是,是,否,SF220-0009,65000,實踐國小,板橋區,65000010,國泰里,新北市板橋區國泰里實踐路93巷51號,松雲樓地下室、竹露樓地下室、荷風樓地下室,民族里、福祿里、福德里、國泰里、後埔里、福丘里,朱廷彩(組長),926666609.0,否,1018.0,3325,1496.0,是,是,是,否,否,121.466392,25.005018
9,是,是,否,SF220-0010,65000,後埔國小,板橋區,65000010,福星里,新北市板橋區福星里重慶路157號,行政大樓5樓活動中心、實踐樓地下1樓韻律教室、行政大樓地下1樓體操室,廣德里、福德里、仁愛里、福星里、大豐里、華興里、鄉雲里、華貴里、華福里、華東里、景星里、重慶里、後埔里、湳興里,杜姿瑩(組長),939906605.0,否,295.0,1180,0.0,是,否,是,否,否,121.462699,25.003346
10,是,是,否,SF220-0011,65000,信義國小,板橋區,65000010,華德里,新北市板橋區華德里四川路2段245巷60號,夢幻樓3-5樓,華德里、信義里、華東里,王辭雅(組長),960713627.0,否,430.0,1224,996.0,否,否,是,否,否,121.45441,24.995579
11,是,是,否,SF220-0012,65000,中山國小,板橋區,65000010,中山里,新北市板橋區中山里大觀路二段59巷31號,中山樓三樓逸辿館、幼兒園-時習樓1樓,中山里、大安里、復興里、聚安里、龍安里、福安里,江乃文(組長),919847963.0,否,386.0,1545,0.0,是,否,是,否,否,121.446165,24.99928
12,是,是,否,SF220-0013,65000,沙崙國小,板橋區,65000010,溪北里,新北市板橋區溪北里篤行路二段132號,"永傳社教中心一樓,低年級圖書室,韻律教室",溪北里、崑崙里、成和里、堂春里、溪福里、溪洲里 ,賴正彰(組長),918533220.0,是,1692.0,1335,10872.0,否,否,是,否,否,121.430535,24.989747
13,是,是,否,SF220-0014,65000,溪洲國小,板橋區,65000010,堂春里,新北市板橋區堂春里金門街289號,活動中心1、2樓綜合球場、視聽教室119教室-欣藝樓1、2樓,溪洲里、溪福里、堂春里,陳俊維(組長),910156264.0,否,1492.0,2970,6000.0,否,是,是,是,否,121.431114,24.987875
14,是,是,否,SF220-0015,65000,重慶國小,板橋區,65000010,五權里,新北市板橋區五權里廣和街31號,體育館2至4樓,五權里、廣福里、和平里、重慶里,方素英(組長),912882369.0,是,788.0,1934,2445.0,是,是,否,是,否,121.462423,24.994453
15,是,是,否,SF220-0017,65000,大觀國小,板橋區,65000010,浮洲里,新北市板橋區浮洲里大觀路一段30號,B2活動中心,湳興里、浮洲里、華中里、僑中里、大觀里、歡園里,黃宗光(組長),922110606.0,是,1392.0,3723,3703.0,是,否,是,否,否,121.44935,25.00861
16,是,是,否,SF220-0018,65000,莒光國小,板橋區,65000010,華翠里,新北市板橋區華翠里莒光路163號,綜合大樓1樓、地下室媽媽教室、桑梓樓1樓137教室                           ,華江里、華翠里、莒光里、忠翠里、港嘴里、永安里,蔡宗廷(組長),987073953.0,否,297.0,445,1490.0,是,否,是,否,否,121.474229,25.025183
17,是,是,否,SF220-0019,65000,國光國小,板橋區,65000010,香社里,新北市板橋區香社里中正路325巷30號,2樓禮堂(活動中心)、1樓圖書館、2樓圖書館   ,社後里、香社里、香雅里、中正里、自立里、光榮里、國光里、港尾里、港德里,陳瑋鴻(組長),921933566.0,是,1045.0,1700,4960.0,是,否,是,否,否,121.45302,25.019164
18,是,是,否,SF220-0020,65000,板橋國中,板橋區,65000010,中正里,新北市板橋區中正里中正路437號,多功能體育館1樓、德馨樓1樓(童軍教室、生活科技教室),新生里、社後里、香社里、香雅里、中正里、自立里、自強里、光華里、建國里、光榮里、國光里、港尾里、金華里、港德里、民權里,盧香如(組長),912261972.0,否,1628.0,1512,10000.0,是,是,是,否,否,121.454159,25.024001
19,是,是,否,SF220-0021,65000,忠孝國中,板橋區,65000010,福星里,新北市板橋區福星里重慶路168號,活動中心-向陽樓二三樓、智慧教室-望德樓1樓,華貴里、華興里、華福里、景星里、留侯里、流芳里、赤松里、黃石里、挹秀里、湳興里、新興里,杜春蘭(組長),922941457.0,是,340.0,869,986.0,是,是,是,是,否,121.461939,25.004557
20,是,是,否,SF220-0022,65000,新埔國中,板橋區,65000010,新海里,新北市板橋區新海里新海路181號,體育館、多功能藝文中心-忠孝樓3樓,新生里、金華里、港德里、公館里、幸福里、文德里、陽明里、新埔里、宏翠里、仁翠里、新翠里、朝陽里、吉翠里、滿翠里、明翠里、德翠里、新海里,蔡東燕(組長),938926021.0,是,1011.0,1781,4529.52,是,否,是,否,否,121.459652,25.024897
21,是,是,否,SF220-0023,65000,中山國中,板橋區,65000010,新民里,新北市板橋區新民里文化路1段188巷56號,朝陽館-活動中心、3F視聽中心、3樓會議室,民權里、民安里、新民里、漢生里、公館里、忠誠里、介壽里、百壽里、華江里、玉光里、光仁里、廣新里、埤墘里、莊敬里、雙玉里、香丘里、西安里,鄭琬齡(組長),917271172.0,是,2280.0,4623,9000.0,否,是,是,是,否,121.464294,25.017677
22,是,是,否,SF220-0024,65000,江翠國中,板橋區,65000010,文化里,新北市板橋區文化里松江街63號,學生活動中心2樓、圖書館,明翠里、宏翠里、滿翠里、朝陽里、吉翠里、仁翠里、江翠里、純翠里、溪頭里、聯翠里、文化里、華江里、松翠里、柏翠里、龍翠里、華翠里、莒光里、忠翠里、松柏里、嵐翠里、文聖里、懷翠里、文翠里、青翠里、埤墘里、莊敬里、永安里,賴建男(組長),926741523.0,是,892.0,1570,4000.0,是,是,是,是,否,121.467616,25.029503
23,是,否,否,SF220-0025,65000,光復高中,板橋區,65000010,富貴里,新北市板橋區富貴里光環路1段7號,化育樓地下室禮堂、春耕樓5樓展覽室、春耕樓5樓展演教室               ,龍翠里、港嘴里、振義里、振興里、光復里、埔墘里、富貴里、長壽里、居仁里、福壽里、福翠里、九如里、正泰里、雙玉里,張瑋育(組長),981175739.0,否,310.0,882,720.0,否,是,否,否,否,121.48138,25.016994
24,是,是,否,SF220-0026,65000,溪崑國中,板橋區,65000010,崑崙里,新北市板橋區崑崙里大觀路三段50巷30號,活動中心2樓、多功能教室1樓      ,崑崙里、成和里、溪北里、溪洲里、溪福里、堂春里,紀虹如(總務主任),932348492.0,是,728.0,891,4050.0,是,否,是,否,否,121.431271,24.998417
25,是,是,否,SF220-0027,65000,重慶國中,板橋區,65000010,重慶里,新北市板橋區重慶里國慶路221號,活動中心3樓、教師會辦公室,鄉雲里、廣德里、大豐里、仁愛里、重慶里、和平里、廣福里、五權里、華德里、信義里、華東里,陳冠樺(組長),939971093.0,否,502.0,797,2427.0,是,是,是,是,否,121.463157,24.998189
26,是,是,否,SF220-0028,65000,海山高中,板橋區,65000010,深丘里,新北市板橋區深丘里漢生東路215號,活動中心1、2樓、寰宇大樓地下室、圖書館地下室,海山里、九如里、正泰里、雙玉里、深丘里、香丘里、長安里、東安里、東丘里、民生里、福丘里、福祿里、民族里、國泰里、福壽里,鄭麗蘭(主任),937254927.0,否,2122.0,8085,812.0,是,否,是,否,否,121.470886,25.010154
27,是,是,否,SF220-0029,65000,大觀國中,板橋區,65000010,浮洲里,新北市板橋區浮洲里僑中一街1號,活力樓地下室、活力樓5樓,湳興里、浮洲里、華中里、僑中里、大觀里、歡園里、大安里、福安里、聚安里、龍安里、中山里、復興里,陳保莉(組長),920255060.0,是,869.0,740,5472.0,是,是,是,是,否,121.448524,25.011251
28,是,是,是,SF220-0030,65000,板橋高中,板橋區,65000010,黃石里,新北市板橋區黃石里文化路一段25號,莊敬堂1樓、行政樓3樓、地下室1樓                                         ,留侯里、流芳里、赤松里、黃石里、挹秀里、湳興里、社後里、金華里、自強里、光華里、建國里、光榮里、民權里、民安里、漢生里,王素昭(組長),926682022.0,否,563.0,1506,1500.0,是,是,是,是,是,121.4591,25.011684
29,是,是,否,SF220-0031,65000,板橋第一運動公園,板橋區,65000010,深丘里,新北市板橋區深丘里漢生東路278號,1樓,海山里、九如里、正泰里、雙玉里、深丘里、香丘里、長安里、東安里、東丘里、民生里、福丘里、福祿里、民族里、國泰里,李宸宇,921617960.0,是,1630.0,0,13040.0,否,否,是,否,否,121.469292,25.010591
30,是,是,否,SF220-0032,65000,板橋第二運動公園,板橋區,65000010,社後里,新北市板橋區社後里民權路117號,1樓,港德里、社後里、國光里、建國里、民權里、民安里、自強里、光榮里、自立里、香社里,李宸宇,921617960.0,是,1120.0,0,8960.0,否,否,是,否,否,121.458337,25.013819
31,是,是,否,SF220-0033,65000,浮洲運動公園,板橋區,65000010,浮洲里,新北市板橋區浮洲里僑中一街124巷與80巷交會處,1樓,湳興里、浮洲里、華中里、僑中里、大觀里、歡園里、大安里、福安里、聚安里、龍安里、中山里、復興里,李宸宇,921617960.0,是,935.0,0,7480.0,否,否,是,否,否,,
32,是,是,否,SF220-0034,65000,新埔國小,板橋區,65000010,新翠里,新北市板橋區新翠里陽明街206號,新埔樓地下室、新自強樓地下室,新翠里、明翠里、陽明里、忠誠里、文德里、幸福里、德翠里、新海里、朝陽里,陳雲蘭(組長),928022350.0,是,1657.0,4729,3803.0,是,是,是,是,否,121.463252,25.026602
33,是,是,否,SF220-0035,65000,海山國小,板橋區,65000010,深丘里,新北市板橋區深丘里漢生東路280號 ,體育館─日暄樓5樓、會議室-日暄樓1樓、霽月樓5F視聽教室(舞台及其下方平台)、日暄樓1F音樂教室、霽月樓519教室,深丘里、海山里、東安里、長安里、香丘里、福丘里、後埔里、國泰里、福祿里、民族里,翁維聰(組長),925166756.0,是,258.0,645,780.0,是,是,是,是,否,121.470863,25.009457
34,是,是,否,SF220-0037,65000,國光市民活動中心,板橋區,65000010,國光里,新北市板橋區國光里國光路76號1樓,活動中心1樓,建國里、國光里、公館里、漢生里、民權里、社後里、港德里,林麗蘋(管理員),955818505.0,否,95.0,381,0.0,是,是,是,是,否,121.46139,25.018497
35,是,是,否,SF220-0038,65000,四維公園市民活動中心,板橋區,65000010,陽明里,新北市板橋區陽明里陽明街166號1樓,活動中心1樓,新翠里、明翠里、陽明里、忠誠里、文德里、幸福里、德翠里、新海里、朝陽里,黃胡亮(管理員),919297412.0,否,74.0,298,0.0,是,是,是,是,否,121.464714,25.023647
36,是,是,否,SF220-0039,65000,音樂公園市民活動中心,板橋區,65000010,福翠里,新北市板橋區福翠里懷德街235巷2號2樓,活動中心2樓,福翠里、港嘴里、龍翠里、文聖里、懷翠里,陳曉青(管理員),920127284.0,否,101.0,404,0.0,是,是,是,是,否,121.480956,25.029121
37,是,是,否,SF220-0040,65000,南雅公園市民活動中心,板橋區,65000010,華興里,新北市板橋區華興里南雅南路2段1-1號1樓,活動中心1樓,華興里、華福里、新興里、湳興里、華貴里、華東里、鄉雲里,張秋梅(管理員),911201668.0,否,85.0,341,0.0,是,是,是,是,否,121.45756,25.003916
38,是,是,否,SF220-0041,65000,五權公園市民活動中心,板橋區,65000010,五權里,新北市板橋區五權里廣權路130號1樓,活動中心1樓,五權里、廣福里、和平里、重慶里、信義里,蔡水民(管理員),925731200.0,否,145.0,582,0.0,是,是,是,是,否,121.465645,24.992993
39,是,是,否,SF220-0042,65000,溪洲公園市民活動中心,板橋區,65000010,溪洲里,新北市板橋區溪洲里溪崑二街113號1樓,活動中心1樓,溪洲里、溪福里、堂春里、溪北里,吳俊昌(管理員),932123520.0,否,94.0,378,0.0,是,是,是,是,否,121.426612,24.988475
40,是,是,否,SF220-0043,65000,新興市民活動中心,板橋區,65000010,新興里,新北市板橋區新興里中興路63號2樓,活動中心2樓,新興里、華興里、挹秀里、黃石里、自強里、湳興里、浮洲里、中山里、華東里、華貴里、福丘里、自強里、社後里、留侯里、赤松里、流芳里、光華里、光榮里、華東里、鄉雲里、華福里,林麗蘋(管理員),955818505.0,否,122.0,491,0.0,是,是,是,是,否,121.455449,25.007754
41,是,是,是,SF220-0044,65000,和平公園市民活動中心,板橋區,65000010,廣德里,新北市板橋區重慶路355號2樓,活動中心2樓,廣德里、和平里、重慶里、廣福里、五權里、大豐里、仁愛里、福德里、福星里、國泰里、後埔里、景星里、信義里,游傃惠(管理員),906769141.0,是,144.0,578,0.0,是,是,是,是,是,121.464812,24.997808
42,是,是,是,SF241-0002,65000,厚德國小體操館地下室大禮堂,三重區,65000020,立德里,新北市三重區立德里自強路2段93號B1,禮堂B1,立德里、六合里、厚德里、永德里、維德里,總務主任蘇育呈,910882858.0,否,100.0,400,0.0,否,是,是,是,否,121.48383,25.069656
43,是,是,否,SF241-0003,65000,永盛市民活動中心,三重區,65000020,永盛里,新北市三重區永盛里車路頭街133號,活動中心1樓,永盛里、永福里、永清里、永安里、溪美里、福隆里、慈福里、慈生里、慈惠里、慈愛里、福樂里、仁華里、永順里、永豐里、永吉里,李書瑛,987075118.0,是,100.0,400,0.0,是,是,是,是,是,121.484839,25.075732
44,是,是,否,SF241-0004,65000,六張市民活動中心,三重區,65000020,福安里,新北市三重區福安里六張街66號,活動中心1樓,福安里、正安里、自強里、雙園里、三安里、信安里、安慶里、尚德里,李書瑛,987075118.0,是,100.0,400,0.0,是,是,是,是,否,121.493807,25.070154
45,是,是,否,SF241-0005,65000,和平市民活動中心,三重區,65000020,立德里,新北市三重區立德里自強路2段90號,活動中心1樓2樓及B1,立德里、六合里、厚德里、培德里、永德里、永煇里　　,李書瑛,987075118.0,是,100.0,400,0.0,是,是,是,是,是,121.48383,25.069656
46,是,是,否,SF241-0006,65000,菜寮市民活動中心,三重區,65000020,菜寮里,新北市三重區菜寮里中寮街57巷18號,活動中心1樓,菜寮里、過田里、永春里、中正里、吉利里、大同里、中民里、平和里、大安里、仁德里、忠孝里、仁義里、光輝里、福利里　,李書瑛,987075118.0,是,100.0,400,0.0,是,是,是,是,否,121.492768,25.057794
47,是,是,否,SF241-0007,65000,正義市民活動中心,三重區,65000020,雙園里,新北市三重區雙園里雙園街1號,活動中心1樓,雙園里、永興里、重新里、正德里、正義里、正安里、自強里、文化里、中央里、錦通里、錦安里、長安里、光華里、長生里、開元里、大德里、長元里、長江里、三安里、福安里、信安里、安慶里,李書瑛,987075118.0,是,100.0,400,0.0,否,是,是,是,否,121.496414,25.067255
48,是,是,否,SF241-0008,65000,過圳市民活動中心,三重區,65000020,過田里,新北市三重區過田里過圳街19號,活動中心1樓,過田里、福祉里、錦田里、重明里、光田里、光陽里、光明里、重陽里,李書瑛,987075118.0,是,50.0,200,0.0,否,是,是,是,是,121.48815,25.060112
49,是,是,否,SF241-0009,65000,碧華國小,三重區,65000020,富福里,新北市三重區富福里五華街160號,活動中心3樓、活動中心2樓、活動中心1樓、室外--操場,富福里、五常里、仁忠里、慈惠里、慈化里、慈祐里、富貴里、碧華里、仁華里、五順里　,總務主任許文華,919124536.0,是,1875.0,2500,10000.0,是,是,是,是,否,121.49468,25.085028
50,是,是,否,SF241-0010,65000,重陽國小,三重區,65000020,六福里,新北市三重區六福里中正北路113號,藝文中心-善德樓4樓、重陽樓-地下室、圖書館-欣學樓2樓、室外--操場,六福里、田中里、三民里、幸福里、培德里　,總務主任邱鈺淇,920095691.0,是,608.0,832,3200.0,是,是,是,是,否,121.484505,25.066307
51,是,是,否,SF241-0011,65000,興穀國小,三重區,65000020,五谷里,新北市三重區五谷里神農街101號,禮堂-圓夢樓5樓、室內球場-興穀樓4樓、室外--中庭,五谷里、頂崁里、谷王里、中興里、德厚里,總務主任黃書卿,920120531.0,是,205.0,474,688.0,是,是,是,是,否,121.474268,25.050579
52,是,是,否,SF241-0012,65000,光興國小,三重區,65000020,光輝里,新北市三重區光輝里正義南路62號,活動中心2樓、活動中心3F、室外--操場,光輝里、同慶里、中民里、平和里、大安里、仁德里、光榮里、福星里、福利里、清和里、永興里、文化里、錦通里、光華里、大德里、忠孝里、仁義里,總務主任盧怡君,919574580.0,否,1533.0,1909,8450.0,是,是,是,是,否,121.498936,25.058805
53,是,是,否,SF241-0013,65000,三重國小,三重區,65000020,奕壽里,新北市三重區奕壽里三和路三段1號,重光樓地下室、崇德樓地下室、室外--運動場,奕壽里、錦安里、長安里、長生里、開元里、長元里、長江里、長泰里、長福里、介壽里、萬壽里、錦江里、龍濱里、龍門里、秀江里、三安里、福安里、順德里、承德里、瑞德里、崇德里、尚德里、中央里,總務主任季信豪,932006462.0,是,2009.0,4783,6500.0,是,是,是,是,否,121.497293,25.070412
54,是,是,否,SF241-0014,65000,五華國小,三重區,65000020,富貴里,新北市三重區富貴里集賢路89號,綜合教室-六藝樓5樓、桌球教室-三民樓地下室、多功能教室-六藝樓4樓、室外--操場,富貴里、五福里、五華里、富華里、富福里、碧華里,總務主任林正祥,939441233.0,是,1536.0,643,10996.0,是,是,是,是,否,121.493449,25.086714
55,是,是,否,SF241-0015,65000,三光國小,三重區,65000020,同安里,新北市三重區同安里大同南路157號,摘星樓五樓R509綜合教室、摘星樓五樓R504韻律教室、日光樓一樓幼兒休息室、室外--操場,同安里、成功里、福民里、光正里、同慶里、永春里、中正里、吉利里、大同里、中民里、平和里、大安里、仁德里、忠孝里、仁義里、光榮里、光輝里、福星里、福利里、清和里、福德里,總務主任林寬政,939567343.0,是,1503.0,470,11080.0,是,是,是,是,否,121.496746,25.056154
56,是,是,否,SF241-0016,65000,修德國小,三重區,65000020,重陽里,新北市三重區重陽里重陽路三段3號,活動中心1樓、夢想樓地下1樓、室外--操場,重陽里、錦田里、三民里、中山里、大園里、國隆里、民生里、正德里、正義里、幸福里　　　,總務主任侯懿真,935020765.0,是,1201.0,3050,3500.0,是,是,是,是,否,121.488903,25.066233
57,是,是,否,SF241-0017,65000,光榮國小,三重區,65000020,奕壽里,新北市三重區介壽路32號,多功能教室-光榮樓3樓、風雨球場,奕壽里、長泰里、長福里、萬壽里、錦江里、龍濱里、介壽里、龍門里、秀江里、順德里、承德里、瑞德里、崇德里,總務主任吳錫昌,936348083.0,是,387.0,200,2695.0,是,是,是,是,否,121.499651,25.070128
58,是,是,否,SF241-0018,65000,厚德國小,三重區,65000020,立德里,新北市三重區立德里忠孝路一段70號,向善樓五樓大禮堂、忠孝樓地下室、室外--操場,立德里、信安里、六合里、厚德里、維德里、尚德里,總務主任蘇育呈,910882858.0,是,850.0,900,5000.0,否,是,是,是,否,121.48873,25.071822
59,是,是,否,SF241-0019,65000,集美國小,三重區,65000020,光明里,新北市三重區光明里集美街10號,大舞台教室、小舞蹈教室、室外--綜合球場,光明里、成功里、福祉里、福民里、過田里、重明里、光田里、光陽里、光正里、同安里、菜寮里、福德里　,總務主任陳冠宇,915990188.0,是,163.0,400,500.0,否,是,是,是,否,121.48948,25.058376
60,是,是,否,SF241-0020,65000,二重國小,三重區,65000020,二重里,新北市三重區二重里大有街10號,活動中心1樓、活動中心3樓、活動中心地下室、室外--外操場,二重里、大有里、田心里、福田里、田安里、博愛里、永發里,總務主任王意惠,983484677.0,是,1382.0,3990,3072.0,是,是,是,是,否,121.47797,25.065198
61,是,是,否,SF241-0021,65000,正義國小,三重區,65000020,正義里,新北市三重區正義里信義西街31號,地下室-星光樓地下室、視聽教室-旭日樓4樓、科任教室-星光樓五樓及曉月樓四樓、室外--操場,正義里、光榮里、福星里、清和里、永興里、中山里、大園里、國隆里、民生里、重新里、正德里、正安里、自強里、文化里、中央里、雙園里、錦通里、錦安里、長安里、光華里、長生里、開元里、長元里、長江里、大德里、安慶里,總務主任鹿秉年,933239723.0,是,738.0,1050,3800.0,是,是,是,是,否,121.496116,25.064444
62,是,是,否,SF241-0022,65000,永福國小,三重區,65000020,永福里,新北市三重區永福里永福街66號,多功能教室-未來樓5樓、韻律教室-未來樓3樓、音樂教室-未來樓2樓、室外--操場,永福里、永清里、永安里、慈福里、慈生里、慈愛里、永吉里、永順里、永豐里、福樂里、仁華里,總務主任鄭博元,911963987.0,是,707.0,626,4402.0,否,是,是,是,否,121.480638,25.077007
63,是,是,否,SF241-0023,65000,三和國中,三重區,65000020,永盛里,新北市三重區永盛里三和路四段216號,自強樓5樓羽球館、和樂樓B1桌球室、室外--操場,永盛里、永福里、永清里、永安里、溪美里、福隆里、五常里、慈福里、慈生里、慈惠里、慈愛里、永吉里、永順里、永豐里、福樂里、五順里,總務主任徐淑芳,920667546.0,是,1155.0,1223,6788.0,是,是,是,是,否,121.486502,25.076579
64,是,是,否,SF241-0024,65000,二重國中,三重區,65000020,福田里,新北市三重區福田里忠孝路三段89號,多功能教室-後棟2樓、教室-教學大樓5樓、室外--操場,福田里、大有里、二重里、田心里、田中里、田安里、六福里、博愛里、永發里　,總務主任張金漢,922358651.0,否,294.0,441,1474.0,是,是,是,是,否,121.480479,25.065712
65,是,是,否,SF241-0025,65000,光榮國中,三重區,65000020,奕壽里,新北市三重區奕壽里介壽路26號,活動中心籃球場、活動中心-地下室、室外--風雨操場,奕壽里、長泰里、長福里、介壽里、萬壽里、錦江里、龍濱里、龍門里、秀江里、順德里、承德里、瑞德里、崇德里,總務主任梁育菱,987256291.0,否,802.0,2799,817.0,是,是,是,是,否,121.499921,25.070456
66,是,是,否,SF241-0026,65000,明志國中,三重區,65000020,重陽里,新北市三重區重陽里中正北路107號,行政大樓3樓會議室、勵志樓2樓桌球教室、室外--操場,重陽里、錦田里、三民里、中山里、大園里、國隆里、民生里、重新里、幸福里　,總務主任陳欣萍,926349338.0,否,151.0,350,500.0,是,是,是,是,否,121.489059,25.063478
67,是,是,否,SF241-0027,65000,格致中學,三重區,65000020,永德里,新北市三重區永德里大智街260號,活動中心一樓、人文教室、室外--操場,永德里、維德里、永盛里、永煇里,學務主任陳耀郎,937392137.0,是,129.0,517,0.0,否,是,是,是,否,121.488727,25.073839
68,是,是,否,SF241-0028,65000,三重商工,三重區,65000020,培德里,新北市三重區培德里中正北路163號,活動中心、體育館、資訊樓地下室、室外--操場、籃球場、田徑場及網球場,培德里、福田里、田中里、六福里、永發里,總務主任謝孟芳,911981250.0,是,3123.0,8296,8389.0,否,是,是,是,否,121.480073,25.069648
69,是,是,否,SF241-0029,65000,穀保家商,三重區,65000020,大有里,新北市三重區大有里中正北路560巷38號,修業樓、進德樓、室外--操場,大有里,總務主任黃玉芬,937032708.0,是,2420.0,3629,12105.0,是,是,是,是,否,121.471146,25.06971
70,是,是,否,SF241-0030,65000,新北高中,三重區,65000020,富貴里,新北市三重區富貴里三信路1號,綜合體育館4樓、至善樓1樓教室、室外--大戶外草坪,富貴里、五福里、仁忠里、慈化里、慈祐里、五華里、富華里、富福里、碧華里、五順里、五常里　,總務主任楊金川,918284210.0,是,276.0,850,500.0,是,是,是,是,否,121.489287,25.087173
71,是,是,否,SF241-0031,65000,金陵女中,三重區,65000020,中興里,新北市三重區中興里重新路五段656號,厚生樓1樓體育館、慈愛堂1樓、室外--操場,中興里、頂崁里、谷王里、德厚里、五谷里,總務主任徐逸鈞,982667026.0,是,827.0,1055,4500.0,是,是,是,是,否,121.4664,25.042508
72,是,是,否,SF241-0032,65000,東海高中,三重區,65000020,二重里,新北市三重區二重里忠孝路三段93巷12號,A棟6樓、A棟5樓、B棟4樓、室外--籃球場,二重里、光陽里、田心里、田安里、博愛里,學務主任高麗娜,921999426.0,是,409.0,1122,1026.0,是,是,是,是,否,121.478958,25.064782
73,是,是,否,SF241-0033,65000,三重高中,三重區,65000020,光明里,新北市三重區光明里集美街212號,行健館、家政教室─工藝大樓1樓、室外--風雨操場,光明里、成功里、福祉里、福民里、重明里、光田里、光正里、同安里、同慶里、菜寮里、永春里、中正里、吉利里、永煇里、福德里　,總務主任葉志強,933747666.0,是,552.0,1800,812.0,否,是,是,是,否,121.48948,25.058376
74,是,是,否,SF241-0034,65000,綜合運動場(防災公園),三重區,65000020,錦田里,新北市三重區錦田里中正北路特2號,三重區綜合運動場,錦田里、大有里、博愛里、福田里、田中里、三民里、過田里、二重里、田心里、田安里、光田里、光陽里、重明里、福祉里、福德里、福民里、成功里、頂崁里、谷王里、德厚里、五谷里、中興里,李書瑛,987075118.0,是,2040.0,0,16320.0,否,是,是,是,否,121.49265,25.060581
75,是,是,否,SF241-0035,65000,碧華國中,三重區,65000020,富貴里,新北市三重區富貴里三信路166號,活動中心1樓、會議室-行政大樓2樓、室外--操場,富貴里、富華里、富福里、碧華里、五華里、慈祐里、慈化里、五福里、仁忠里、五順里、五常里,總務主任黃何歲,932233805.0,是,924.0,1176,5037.0,是,是,是,是,否,121.489048,25.087232
76,是,是,否,SF241-0036,65000,清傳高商,三重區,65000020,谷王里,新北市三重區谷王里五谷王北街141巷1號,禮堂-教學4樓、情境教室、分組教室、室外--操場,谷王里、頂崁里、中興里、德厚里、五谷里,總務主任林夙殷,937032708.0,否,1275.0,366,9467.0,是,是,是,是,否,121.476407,25.053758
77,是,是,是,SF235-0001,65000,中和區公所,中和區,65000030,漳和里,新北市中和區漳和里景平路634之2號,6樓禮堂,新南里、南山里、瓦里、錦昌里、錦和里、德行里、中山里、碧河里、正行里、連河里、連城里、枋寮里、漳和里,張雅婷,910793781.0,是,65.5,262,0.0,是,是,是,是,是,121.4993,24.999388
78,是,是,否,SF235-0002,65000,中和國小,中和區,65000030,漳和里,新北市中和區漳和里中和路100號,迎曦樓地下室表演廳、仁愛樓地下室、明義樓一樓視聽教室     ,中原里、連和里、連城里、力行里、枋寮里、漳和里、廟美里、福真里、福善里、福美里、福祥里、瓦里、福和里、佳和里、安樂里、新南里、南山里、德行里、中山里、碧河里、正行里,金朱慶,958938820.0,是,1669.5,1128,11100.0,是,是,是,是,是,121.501611,24.99986
79,是,是,否,SF235-0003,65000,南山高中,中和區,65000030,枋寮里,新北市中和區枋寮里廣福路41號,自強、行健大樓地下一樓、行健三樓體育館、自強八樓閱覽室,連和里、連城里、力行里、枋寮里、漳和里、廟美里、福真里、福善里、福美里、福祥里、瓦里、福和里、佳和里、安樂里、安平里、中安里、泰安里、宜安里、安順里,吳國松,933168784.0,是,1718.25,6123,1500.0,是,是,是,是,是,121.503448,25.001629
80,是,是,否,SF235-0004,65000,漳和國中,中和區,65000030,枋寮里,新北市中和區枋寮里廣福路39號,信義樓地下室、和平樓地下室,福和里、安樂里、安和里、安平里、中安里、泰安里、秀山里、秀成里、秀福里、秀景里、秀明里、秀峰里、秀仁里、秀水里、宜安里、安順里、秀義里、秀士里,楊曉媚,920113914.0,是,709.5,588,4500.0,是,是,是,是,是,121.505531,25.002673
81,是,是,否,SF235-0005,65000,秀山國小,中和區,65000030,秀山里,新北市中和區秀山里立人街2號,松華樓、幼兒園地下室、勤學樓地下室,安和里、秀山里、秀成里、秀福里、秀景里、秀明里、秀峰里、秀仁里、秀水里、秀義里、秀士里,朱怡盈,934190496.0,是,4198.75,9245,15100.0,是,是,是,是,是,121.520855,24.994286
82,是,是,否,SF235-0006,65000,景新國小,中和區,65000030,景南里,新北市中和區景南里景新街467巷37號,活動中心籃球場、風雨操場,安和里、安平里、中安里、泰安里、秀山里、秀成里、秀福里、秀景里、秀明里、秀峰里、秀仁里、秀義里、東南里、崇南里、景南里、景平里、景新里、秀水里、宜安里、安順里、秀士里、興南里、景本里,陳秉羲,937876764.0,是,867.5,1336,4268.0,是,是,是,是,是,121.514994,24.9893
83,是,是,否,SF235-0007,65000,中和國中,中和區,65000030,忠孝里,新北市中和區忠孝里興南路2段3巷17號,育樂中心1樓、舞蹈教室─小和平樓3樓、演藝廳─小和平樓1樓,頂南里、華新里、東南里、華南里、忠孝里、崇南里、景南里、橫路里、內南里、壽南里、外南里、復興里、和興里、景平里、景新里、景福里、興南里、景本里、福南里、正南里,陳芝仙,937513516.0,是,900.0,1100,5000.0,是,是,是,是,是,121.51206,24.98678
84,是,是,否,SF235-0008,65000,復興國小,中和區,65000030,中興里,新北市中和區中興里復興路301巷6號,體育館-綜合大樓4樓、畢卡索活動中心-4樓、會議室-綜合館2樓,外南里、復興里、和興里、景安里、景文里、福南里、中興里、吉興里,謝旻珊,922715569.0,是,899.625,2226,2745.0,是,是,否,是,是,121.50126,24.990019
85,是,是,否,SF235-0009,65000,華夏科技大學,中和區,65000030,華新里,新北市中和區華新里工專路111號,聚鈺樓2、3樓、教學大樓右側2.3樓,頂南里、華新里、華南里、忠孝里、橫路里、內南里、正南里,李隆盛,939154047.0,是,440.0,1760,0.0,是,是,是,是,是,121.507733,24.980586
86,是,是,否,SF235-0010,65000,錦和高中,中和區,65000030,錦中里,新北市中和區錦中里錦和路163號,樂活館、演藝廳,仁和里、中正里、建和里、力行里、錦和里、錦昌里、灰里、德行里、中山里、碧河里、錦中里、錦盛里、正行里,袁熒助,928895400.0,是,1680.5,2722,8000.0,是,是,是,是,是,121.491089,24.99254
87,是,是,否,SF235-0011,65000,積穗國中,中和區,65000030,嘉新里,新北市中和區嘉新里民安街66號,活動中心-明道樓3樓、大會議室-明道樓3樓、導師會議室-明道樓2樓,平河里、信和里、積穗里、民享里、員山里、嘉穗里、文元里、嘉新里、民安里、安穗里、瑞穗里、明穗里、清穗里、自強里、德穗里、民生里、國光里、壽德里、民有里、員富里、嘉穗里、冠穗里、國華里,張武雄,937469590.0,是,504.75,1619,800.0,是,是,是,是,是,121.47978,25.000399
88,是,是,否,SF235-0012,65000,積穗國小,中和區,65000030,文元里,新北市中和區文元里員山路154號,活動中心、視聽教室,平河里、信和里、仁和里、中正里、建和里、灰里、積穗里、員山里、嘉穗里、文元里、嘉新里、安穗里、錦中里、錦盛里、員富里、嘉慶里,王彥邦,,是,425.0,890,1620.0,是,是,是,是,是,121.481869,24.999283
89,是,是,否,SF235-0013,65000,自強國小,中和區,65000030,自強里,新北市中和區自強里莒光路200號,大禮堂-活動中心3樓、視聽教室-活動中心2樓、活動中心防空避難室,民享里、瑞穗里、明穗里、清穗里、自強里、德穗里、民生里、國光里、壽德里、明德里、民有里、員富里、冠穗里、國華里,林武城,933902824.0,是,5163.0,2411,36482.0,是,是,是,是,是,121.4727,24.999348
90,是,是,否,SF235-0014,65000,自強國中,中和區,65000030,明穗里,新北市中和區明穗里莒光路191號,彩虹廣場、B棟1樓,積穗里、民享里、員山里、嘉新里、民安里、安穗里、瑞穗里、明穗里、清穗里、自強里、德穗里、民生里、國光里、壽德里、明德里、民有里、冠穗里、國華里,蔡世貞,921966355.0,是,695.5,1666,2232.0,是,是,是,是,是,121.471813,24.997742
91,是,是,否,SF235-0015,65000,興南國小,中和區,65000030,忠孝里,新北市中和區忠孝里興南路1段135巷24號,防空避難室-仁愛樓B1、 停車場間防空避難室、和平樓B1、桌球教室管樂教室、忠孝樓B1,東南里、華南里、忠孝里、崇南里、景南里、壽南里、景平里、景新里、景福里、景安里、景文里、興南里、景本里、中興里、吉興里,許義傑,939310208.0,是,1016.5,2371,3390.0,是,是,是,是,是,121.51206,24.98678
92,是,是,否,SF235-0016,65000,光復國小,中和區,65000030,中原里,新北市中和區中原里光環路2段1號,B2體育館-中央梯、B2網球場,中原里,徐秀怡,919518668.0,是,581.625,1551,1551.0,是,是,是,是,否,121.492134,25.008318
93,是,是,否,SF235-0017,65000,錦和國小,中和區,65000030,錦中里,新北市中和區錦中里圓通路292號,大辦室-三民樓一樓、三樓會議室、視聽教室,中正里、建和里、錦和里、錦昌里、錦中里、錦盛里,李靜瑀,923506723.0,是,222.75,466,850.0,是,是,是,是,否,121.489565,24.98947
94,是,是,否,SF235-0018,65000,中和高中,中和區,65000030,嘉慶里,新北市中和區嘉慶里連城路460號,活動中心、行政大樓地下室、至誠樓地下室,平河里、信和里、仁和里、灰里、嘉穗里、文元里、民安里、明德里、嘉慶里,劉添喜,937885389.0,是,2827.5,4471,13678.0,是,是,是,是,否,121.478344,24.993985
95,是,是,否,SF235-0019,65000,竹林中學,中和區,65000030,華新里,新北市中和區華新里華新街143巷12號,3樓 竹林中學活動中心、六樓 校史館-春融科技大樓、7樓 K書中心-春融科技大樓,頂南里、華新里、橫路里、內南里、正南里,王柏堯,911916763.0,是,425.25,1353,696.0,是,是,是,是,否,121.505962,24.980946
96,是,是,否,SF235-0020,65000,山北市民活動中心,中和區,65000030,福美里,新北市中和區福美里莊敬路49巷29弄2號,1樓,中原里、福真里、福善里、福美里、福祥里、佳和里,林綉琪,921292665.0,是,92.75,371,0.0,是,是,是,是,否,121.501682,25.00646
97,是,是,否,SF235-0021,65000,復興大樓,中和區,65000030,外南里,新北市中和區外南里南山路236號6樓,6樓閱覽室,壽南里、復興里、外南里、和興里、景福里、景文里、景安里、福南里、中興里、吉興里,林綉琪,921292665.0,否,25.0,100,0.0,是,是,是,是,否,121.505768,24.988905
98,是,是,否,SF235-0022,65000,鶴齡交誼中心,中和區,65000030,廟美里,新北市中和區廟美里廟美街6巷3號,2樓、4樓,廟美里、新南里、南山里,林綉琪,921292665.0,是,82.5,330,0.0,是,是,是,是,否,121.501207,25.001522
99,是,是,否,SF235-0023,65000,錦和運動公園,中和區,65000030,錦中里,新北市中和區錦中里錦和路350號（錦和路-和城路間）,公園,仁和里、中正里、建和里、力行里、錦和里、錦昌里、灰里、德行里、中山里、碧河里、錦中里、錦盛里、正行里,連雅芬,919948800.0,是,2732.0,0,21856.0,是,是,是,是,是,,
100,是,是,否,SF235-0024,65000,中和公園,中和區,65000030,中安里,新北市中和區中安里中安街6號,公園,福和里、安樂里、安和里、安平里、中安里、泰安里、秀山里、秀成里、秀福里、秀景里、秀明里、秀峰里、秀仁里、秀水里、宜安里、安順里、秀義里、秀士里,王振恩,958010425.0,是,1660.0,0,13280.0,是,是,是,是,是,121.513509,25.003446
101,是,是,否,SF234-0001,65000,民權市民活動中心,永和區,65000040,民族里,新北市永和區民族里民權路60號,4樓,民治里、永元里、永安里、民族里、民權里、潭墘里、潭安里、民本里、智光里、民生里、秀得里、民富里、秀元里,陳冠叡,903866510.0,是,170.0,680,0.0,是,是,是,是,是,121.519921,24.998018
102,是,是,否,SF234-0002,65000,忠孝市民活動中心,永和區,65000040,頂溪里,新北市永和區頂溪里忠孝街26巷8號,4及5樓,文化里、永成里、勵行里、上溪里、河堤里、頂溪里、光復里、復興里、新廍里、網溪里,陳冠叡,903866510.0,是,375.0,1500,0.0,是,是,是,是,是,121.515312,25.016856
103,是,是,否,SF234-0003,65000,網溪國小,永和區,65000040,上林里,新北市永和區上林里竹林路79號,一、群英館2樓二、群英館1樓三、活力館2樓,豫溪里、中興里、竹林里、上林里、正興里、永興里、桂林里、光復里、復興里、中興里、網溪里、勵行里、上林里、桂林里、正興里、永興里,林嘉怡,919439939.0,否,350.0,1000,800.0,是,是,是,是,否,121.51934,25.012936
104,是,是,否,SF234-0004,65000,竹林小學,永和區,65000040,勵行里,新北市永和區勵行里竹林路34號,一、南大樓四樓圖書室二、北四樓自然科教室三、北四樓綜合教室,中興里、勵行里、光復里、復興里、上林里、網溪里、正興里、永興里、桂林里、後溪里,魯文雯,916037132.0,否,154.0,72,1092.0,是,是,是,是,否,121.51731,25.014492
105,是,是,否,SF234-0005,65000,頂溪國小,永和區,65000040,文化里,新北市永和區文化里文化路133號,一、東棟2樓大禮堂二、彩虹樓4樓多功能教室三、彩虹樓1樓幼兒園,文化里、仁愛里、永成里、忠義里、中溪里、上溪里、新生里、大同里、新廍里、下溪里、信義里、後溪里、和平里,蕭宏達,930256676.0,是,408.0,1632,0.0,否,是,是,是,否,121.508896,25.015219
106,是,是,否,SF234-0006,65000,莊敬高職永和校區,永和區,65000040,復興里,新北市永和區復興里博愛街36號,一、體育館二、3樓304訊一莊教室三、3樓305訊三莊教室,光復里、復興里、中興里、網溪里、勵行里、上林里、桂林里、正興里、永興里,李康榮,922499098.0,是,249.0,811,377.0,是,是,是,是,是,121.519286,25.015778
107,是,是,否,SF234-0007,65000,及人小學,永和區,65000040,新廍里,新北市永和區新廍里文化路172號,一、紫光樓1樓A101二、紫光樓1樓A102三、紫光樓1樓A103,新廍里、文化里、仁愛里、永成里、忠義里、河堤里、頂溪里、上溪里、新生里、下溪里、信義里,許柄煇,930383880.0,是,78.0,210,210.0,否,是,是,是,否,121.511756,25.015755
108,是,是,否,SF234-0008,65000,永平高中,永和區,65000040,保安里,新北市永和區保安里永平路205號,一、中正體育館二、綜合大樓3樓活動中心三、圖書館5樓演藝廳,豫溪里、保安里、中溪里、協和里、保平里、新生里、大同里、前溪里、和平里、下溪里、信義里、保順里、仁愛里、忠義里、後溪里,張森菱,922177655.0,是,1744.0,1918,10125.0,是,是,是,是,否,121.50656,25.010208
109,是,是,否,SF234-0009,65000,復興商工,永和區,65000040,得和里,新北市永和區得和里秀朗路1段201號,一、第6教學大樓1樓(601~604)二、第7教學大樓1樓(701~702)三、第3教學大樓1樓(301~304),永安里、大新里、福和里、得和里、店街里、永樂里、永元里、雙和里、安和里、協和里、水源里,馬子俊,988699773.0,是,810.0,740,5000.0,是,是,是,是,否,121.52431,25.004147
110,是,是,否,SF234-0010,65000,永和國小,永和區,65000040,潭墘里,新北市永和區潭墘里秀朗路1段120號,一、至善樓地下室演藝廳二、仁愛樓1樓會議室三、永和樓地下室桌球室,潭墘里、永安里、潭安里、大新里、雙和里、安和里、水源里、店街里、永樂里、得和里、民治里、民權里、保平里、福和里,賴姿璇,956156298.0,是,302.0,727,975.0,是,是,是,是,否,121.52431,25.004147
111,是,是,否,SF234-0011,65000,秀朗國小,永和區,65000040,民權里,新北市永和區民權里得和路202號,一、教學大樓1F-室內羽球場二、教學大樓5F-禮堂三、仁棟2F大辦公室,民權里、永元里、民本里、民生里、秀得里、民富里、秀元里、民樂里、民治里、民族里、秀林里、勵行里、得和里、智光里、秀朗里,楊忠彬,926181720.0,是,550.0,202,4000.0,是,是,是,是,否,121.522726,24.999328
112,是,是,否,SF234-0012,65000,永和國中,永和區,65000040,秀和里,新北市永和區秀和里國中路111號,一、力行體育館二、函詠樓5樓三、韻律教室-自強樓地下室B1,秀和里、河濱里、永福里、福林里、永貞里、秀林里、秀朗里、秀成里、竹林里、豫溪里、光明里、民樂里,呂旭川,937121614.0,是,1094.0,3069,2616.0,是,是,是,是,否,121.523828,25.006559
113,是,是,否,SF234-0013,65000,福和國中,永和區,65000040,秀和里,新北市永和區秀和里永利路71號,一、大韻律教室-綜合大樓地下室二、福和樓地下室三、綜合大樓二樓,福林里、光明里、永貞里、永福里、秀林里、秀朗里、秀成里、大新里、民樂里、福和里、秀和里、河濱里、民生里、秀得里、店街里、民富里、秀元里、永樂里,林曉薇,921600583.0,否,713.0,2022,1671.0,是,是,是,是,否,121.520856,25.003998
114,是,是,否,SF234-0014,65000,智光商工,永和區,65000040,智光里,新北市永和區智光里中正路100號,一、妙然紀念大樓地下室二、視聽教室-妙然紀念大樓4樓三、綜合大樓3樓禮堂,智光里、潭墘里、潭安里、民族里、民本里,黃德寶,916079351.0,否,844.0,1085,4589.0,是,是,是,是,否,121.514273,24.995687
115,是,是,否,SF234-0015,65000,育才小學,永和區,65000040,永貞里,新北市永和區永貞里福和路125巷20號,一、A棟1樓活動室二、圖書館三、B204自然教室,永貞里、河濱里、福林里、光明里、永福里、秀成里、竹林里、秀和里,薛元婷,912720714.0,否,20.0,80,0.0,是,是,是,是,否,121.521642,25.007061
116,是,是,否,SF234-0016,65000,永平國小,永和區,65000040,保安里,新北市永和區保安里保生路25號,一、活動中心三樓二、活動中心地下室三、三民樓地下室,保安里、雙和里、安和里、保順里、水源里、保平里、協和里、前溪里、和平里、大同里、中溪里,蔡宛凌,976233567.0,否,870.0,2235,2499.0,否,是,是,是,否,121.50656,25.010208
117,否,是,否,SF234-0017,65000,仁愛公園,永和區,65000040,保安里,新北市永和區仁愛路、永平路、保安路、保生路間,公園,下溪里、上林里、上溪里、大同里、大新里、中溪里、中興里、仁愛里、文化里、水源里、正興里、民本里、民生里、民治里、民族里、民富里、民樂里、民權里、永元里、永安里、永成里、永貞里、永福里、永樂里、永興里、光明里、光復里、安和里、竹林里、秀元里、秀成里、秀和里、秀林里、秀朗里、秀得里、協和里、和平里、店街里、忠義里、河堤里、河濱里、信義里、保平里、保安里、保順里、前溪里、後溪里、桂林里、得和里、頂溪里、復興里、智光里、新生里、新廍里、福和里、福林里、網溪里、潭安里、潭墘里、豫溪里、勵行里、雙和里,夏斌威,972958932.0,是,4514.0,0,36116.0,是,是,是,是,是,,
118,是,是,是,SF231-0001 ,65000,大豐社福館,新店區,65000060,大豐里,新北市新店區民族路110號,5樓禮堂,國豐里、明德里、大豐里、大同里、江陵里、寶興里、寶安里、信義里、忠孝里、大鵬里、頂城里、下城里、永安里、中興里、新生里、新德里、張北里、五峯里、新安里、忠誠里、中正里、中華里、仁愛里、百忍里、百和里、福德里、百福里、福民里、中山里、和平里、中央里、安和里、吉祥里、寶福里、小城里、香坡里、建國里、復興里、美城里、安昌里、長春里、新和里、永平里,謝麗玉,920080487.0,是,1540.9,6163.67,0.0,是,是,是,是,是,121.537558,24.976931
119,否,是,否,SF231-0002 ,65000,文中廣明市民活動中心,新店區,65000060,文中里,新北市新店區北宜路1段39巷32號,1樓,太平里、美潭里、員潭里、雙坑里、新店里、張南里、國校里、文中里、廣明里、文明里、中興里,張金富,937014321.0,是,45.1,180.66,0.0,是,是,是,是,否,121.547677,24.952092
120,是,是,是,SF231-0003 ,65000,青潭國小,新店區,65000060,美潭里,新北市新店區北宜路2段80號,5樓禮堂,美潭里、員潭里、雙坑里、粗坑里、直潭里、青潭里、文中里、屈尺里,總務主任吳政倫,918479935.0,否,564.0,256,4000.0,是,是,是,否,是,121.547584,24.951865
121,是,是,是,SF231-0004,65000,龜山市民活動中心,新店區,65000060,龜山里,新北市新店區新烏路3段136號,2樓,屈尺里、龜山里、廣興里、直潭里,張金富,937014321.0,是,133.7,535.029,0.0,是,是,是,是,是,121.547415,24.916761
122,是,是,否,SF231-0005,65000,雙城市民活動中心,新店區,65000060,雙城里,新北市新店區安康路3段2號5樓,5樓,雙城里、吉祥里、香坡里,張金富,937014321.0,是,132.4,529.66,0.0,是,是,是,是,否,121.533914,24.960163
123,否,是,是,SF231-0007,65000,康橋高中,新店區,65000060,華城里,新北市新店區華城路800號,活動中心3樓體育館,塗潭里、華城里,總務主任張智能,963391980.0,否,1312.5,1500,7500.0,是,是,是,是,否,121.4978,24.910948
124,否,是,否,SF231-0008 ,65000,新店高中,新店區,65000060,福民里,新北市新店區中央路93號,活動中心1樓,福民里、新生里、中山里、中央里、百福里、和平里、頂城里、中正里,總務主任陳正昌,912257504.0,否,1271.0,1200,7768.0,是,是,是,否,否,121.531806,24.975599
125,否,是,否,SF231-0009,65000,崇光高中,新店區,65000060,中正里,新北市新店區三民路18號,主顧樓3樓禮堂,中正里、中華里、仁愛里、百忍里、福德里、福民里,總務主任張佳裕,911236433.0,否,400.2,526,2150.0,是,是,是,是,否,121.53907,24.97177
126,否,是,否,SF231-0010,65000,及人中學,新店區,65000060,柴埕里,新北市新店區安興路1號,科學大樓2樓展演廳,柴埕里、安和里,總務主任張慧如,958677599.0,否,2749.2,340,21314.0,是,是,是,否,否,121.513557,24.96796
127,否,是,否,SF231-0011,65000,安康高中,新店區,65000060,柴埕里,新北市新店區安興路25號,游藝樓地下室,下城里、柴埕里、永安里、安和里、新和里、永平里、公崙里、德安里,總務主任蔡易仲,932012173.0,否,730.8,1854,2139.0,是,是,是,否,否,121.515384,24.97001
128,否,是,否,SF231-0012 ,65000,耕莘健康管理專科學校,新店區,65000060,百和里,新北市新店區民族路112號,聖母樓地下樓,江陵里、中華里、仁愛里、百忍里、百和里、福德里、百福里、中央里、建國里,許朝昇,922679975.0,否,87.1,348.6,0.0,是,是,是,否,否,121.53548,24.976146
129,否,是,否,SF231-0013  ,65000,景文科技大學,新店區,65000060,公崙里,新北市新店區安忠路99號,商館樓地下1樓,公崙里、安昌里、柴埕里,總務長黃幸玲,,否,1855.8,523.26,13800.0,是,是,是,否,否,121.508976,24.950661
130,否,是,否,SF231-0014,65000,南強工商,新店區,65000060,寶興里,新北市新店區文化路42號,教學大樓1-4樓,寶興里、寶安里、信義里、新安里、寶福里,總務主任蕭傳元,939086994.0,否,715.0,1802,2116.0,是,是,是,否,否,121.545206,24.981195
131,否,是,否,SF231-0016 ,65000,能仁家商,新店區,65000060,文中里,新北市新店區文中路53巷10號,白聖大樓活動中心1樓,張南里、廣明里、文明里,校長洪志旻,918451541.0,否,820.1,1900,2761.0,是,是,是,否,否,121.540431,24.956918
132,否,是,否,SF231-0017,65000,莊敬高職,新店區,65000060,復興里,新北市新店區民生路45號,活動中心,江陵里、寶安里、忠孝里、大鵬里、中山里、和平里、復興里,校長林淑貴,912881228.0,否,55.0,220,0.0,是,是,是,否,否,121.532237,24.985754
133,否,是,否,SF231-0018,65000,中正國小,新店區,65000060,中正里,新北市新店區三民路36號,自強樓地下室,國豐里、明德里、新生里、新德里、忠誠里　,事務組長楊郁文,975606917.0,否,788.0,270,5764.5,是,是,是,否,否,121.536639,24.971738
134,否,是,否,SF231-0019  ,65000,北新國小,新店區,65000060,新安里,新北市新店區寶橋路8號,綜合大樓地下1樓地下避難室,大豐里、大同里、張北里、五峯里、忠誠里　,總務主任洪珮華,936496576.0,否,1111.0,2001,4890.0,是,是,是,否,否,121.543895,24.973708
135,否,是,否,SF231-0020,65000,大豐國小,新店區,65000060,大豐里,新北市新店區民族路108號,活動中心,國豐里、明德里、大豐里、大同里、寶興里、信義里、忠孝里、大鵬里、百和里、建國里、復興里,何文雀,952999254.0,否,3416.0,6164,15000.0,是,是,是,否,否,121.538192,24.977579
136,否,是,否,SF231-0021,65000,安坑國小,新店區,65000060,公崙里,新北市新店區安忠路36號 ,仁愛樓地下室,下城里、公崙里、德安里、日興里、玫瑰里、明城里、小城里、香坡里、安昌里、達觀里,總務主任張晏山,929007568.0,否,618.2,873,3200.0,是,是,是,否,否,121.514157,24.961301
137,是,是,是,SF231-0022,65000,屈尺國小,新店區,65000060,屈尺里,新北市新店區屈尺路55號,春耕樓1樓活動中心,粗坑里、屈尺里、龜山里、廣興里　,校長林錫恩,928365192.0,否,588.2,353,4000.0,是,是,是,否,否,121.546149,24.922512
138,否,是,否,SF231-0023,65000,屈尺國小廣興分校,新店區,65000060,廣興里,新北市新店區廣興路57號,廣興樓,廣興里,分校主任莊淑萍,917224106.0,否,37.5,150,0.0,是,是,是,否,否,121.539626,24.912533
139,否,是,否,SF231-0024,65000,新和國小,新店區,65000060,永安里,新北市新店區安和路3段100號,健康樓地下室小禮堂,永安里、新和里、永平里,總務主任王郁琳,981685252.0,否,570.0,315,3931.0,是,是,是,否,否,121.516634,24.963929
140,否,是,否,SF231-0025,65000,新店國小,新店區,65000060,國校里,新北市新店區新店路2號,迺翁館1樓禮堂,新店里、國校里,總務主任林明瑜,911842382.0,否,1381.3,3172,4707.0,是,是,是,否,否,121.540227,24.95291
141,否,是,是,SF231-0026  ,65000,直潭國小,新店區,65000060,直潭里,新北市新店區直潭路92號,新意樓地下室森活館,太平里、塗潭里、粗坑里、直潭里、青潭里、美城里、華城里,校長吳瑞文,988539098.0,否,102.5,160,500.0,是,是,是,否,否,121.530824,24.937857
142,是,是,是,SF231-0027 ,65000,雙城國小,新店區,65000060,雙城里,新北市新店區安康路3段322號,吉祥樓1樓活動中心,雙城里、日興里、玫瑰里、明城里、吉祥里、小城里、香坡里、長春里、達觀里,總務主任陳致銘,933852134.0,否,367.5,720,1500.0,是,是,是,否,是,121.533914,24.960163
143,否,是,是,SF231-0028  ,65000,雙峰國小,新店區,65000060,雙坑里,新北市新店區北宜路3段66號,望峰樓3樓多功能教室,美潭里、員潭里、雙坑里,總務主任王昭權,988189738.0,否,286.4,351,1590.0,是,是,是,否,否,121.547714,24.952065
144,否,是,否,SF231-0029,65000,龜山國小,新店區,65000060,龜山里,新北市新店區新烏路3段99巷10號,教學樓2樓活動中心,龜山里,總務主任戴彰佑,926617239.0,否,28.3,47,133.0,是,是,是,否,否,121.547415,24.916761
145,否,是,否,SF231-0030,65000,五峰國中,新店區,65000060,五峯里,新北市新店區中興路1段253號,綜合大樓地下室,中興里、新德里、張北里、五峯里、長春里,總務主任曹常昱,919394823.0,否,667.5,500,4340.0,是,是,是,否,否,121.54384,24.965664
146,否,是,否,SF231-0031,65000,文山國中,新店區,65000060,文中里,新北市新店區文中路38號,綜合大樓體育館4樓,新店里、張南里、國校里、文中里、廣明里、文明里、太平里、頂城里、美城里,吳欣倫,919271145.0,否,772.3,862,4455.0,是,是,是,否,否,121.538812,24.956748
147,否,是,否,SF231-0032  ,65000,直潭派出所,新店區,65000060,塗潭里,新北市新店區直潭十街27號,2樓,直潭里、青潭里、塗潭里,陳秋元,,否,75.0,200,200.0,是,是,是,否,否,121.535517,24.941806
148,否,是,是,SF231-0035,65000,廣興里辦公處,新店區,65000060,廣興里,新北市新店區平廣路1段35巷3號,1樓,廣興里,吳進興,955777705.0,否,37.5,150,0.0,否,否,是,否,否,121.53711,24.908273
149,否,是,否,SF231-0036,65000,達觀國中小,新店區,65000060,德安里,新北市新店區僑信路1號,C棟5樓演藝廳,德安里、雙城里、玫瑰里、明城里、吉祥里、小城里、達觀里、日興里、安昌里,總務主任陳玟君,937836246.0,否,392.2,120,2898.0,是,是,否,否,否,121.50003,24.95388
150,否,是,否,SF231-0037,65000,太平防災公園,新店區,65000060,太平里,新北市新店區精忠路10-1號旁,草坪,太平里、美城里、頂城里、下城里、柴埕里、安和里、永安里、新和里、永平里、公崙里、安昌里、德安里、達觀里、明城里、小城里、雙城里、香坡里、日興里、玫瑰里、吉祥里、塗潭里、華城里、青潭里、員潭里、雙坑里、粗坑里、美潭里、屈尺里、龜山里、廣興里、直潭里,謝麗玉,920080487.0,否,1875.0,0,15000.0,是,是,是,否,否,121.532859,24.95915
151,否,是,是,SF231-0038,65000,十四張歷史公園,新店區,65000060,中山里,新北市新店區央北二路及啟文路交叉路口,草坪,新店里、張南里、國校里、文中里、新德里、廣明里、文明里、中興里、新生里、張北里、五峯里、長春里、新安里、忠誠里、中正里、中華里、仁愛里、建國里、百忍里、百和里、福德里、百福里、福民里、中山里、和平里、中央里、國豐里、明德里、大豐里、大同里、江陵里、復興里、寶興里、寶福里、寶安里、信義里、忠孝里、大鵬里,謝麗玉,920080487.0,否,502.0,0,4016.0,是,是,是,是,否,121.526787,24.979746
152,否,是,是,SF231-0039,65000,柴埕市民活動中心,新店區,65000060,柴埕里,新北市新店區安民街79號,6、7樓,柴埕里、安和里、下城里、公崙里、安昌里、德安里,張金富,937014321.0,是,360.625,1111,663.0,是,是,是,是,否,121.51657,24.967379
153,否,是,是,SF231-0040,65000,日興市民活動中心,新店區,65000060,日興里,新北市新店區安康路3段580號,3、4樓,日興里、香坡里、雙城里、德安里、玫瑰里、吉祥里,張金富,937014321.0,是,112.125,381,135.0,是,是,是,是,否,121.533914,24.960163
154,是,是,否,SF242-0001,65000,福壽市民活動中心,新莊區,65000050,信義里,新北市新莊區昌明街1號,活動中心1樓、2樓,和平里、幸福里、頭前里、福基里、昌明里、昌平里、化成里、信義里、仁義里、仁愛里、思賢里、思源里、自強里、自立里、自信里、福興里、昌隆里、昌信里,邱雋弘,958496393.0,是,120.0,480,0.0,是,是,是,是,是,121.457633,25.052214
155,是,是,否,SF242-0002,65000,新泰市民活動中心,新莊區,65000050,忠孝里,新北市新莊區建中街116巷3弄2號,活動中心1樓、2樓,立德里、立言里、海山里、全安里、榮和里、興漢里、文德里、文明里、文聖里、文衡里、全泰里、忠孝里,邱雋弘,958496393.0,是,250.0,1000,0.0,是,是,是,是,是,121.445586,25.036864
156,是,是,否,SF242-0003,65000,四維市民活動中心,新莊區,65000050,南港里,新北市新莊區四維路186巷2號,活動中心1樓、2樓、3樓,南港里、瓊林里、四維里、民本里、萬安里、營盤里、民安里、光華里、光明里、光正里、光和里、八德里、西盛里、丹鳳里、雙鳳里、和鳳里、富國里、國泰里、豐年里、福營里、龍鳳里、裕民里、祥鳳里、富民里、泰豐里、龍福里、成德里、民有里、龍安里,邱雋弘,958496393.0,是,300.0,1200,0.0,是,是,是,是,是,121.421825,25.021171
157,是,是,否,SF242-0004,65000,豐年市民活動中心,新莊區,65000050,泰豐里,新北市新莊區豐年街57號之5,活動中心1樓、2樓、3樓、4樓,瓊林里、全安里、營盤里、丹鳳里、雙鳳里、和鳳里、富國里、國泰里、豐年里、福營里、龍鳳里、裕民里、祥鳳里、富民里、泰豐里、龍福里,邱雋弘,958496393.0,否,100.0,400,0.0,是,是,是,是,是,121.446657,25.029873
158,是,是,否,SF242-0005,65000,瓊泰活動中心,新莊區,65000050,瓊林里,新北市新莊區瓊泰路85號,活動中心B1、1樓、2樓,海山里、瓊林里、營盤里、丹鳳里、雙鳳里、和鳳里、富國里、國泰里、豐年里、福營里、龍鳳里、裕民里,邱雋弘,958496393.0,否,100.0,400,0.0,否,是,是,是,是,121.44314,25.029352
159,是,是,是,SF242-0006,65000,牡丹心市民活動中心,新莊區,65000050,雙鳯里,新北市新莊區雙鳳路75號5樓,活動中心5樓、6樓,瓊林里、營盤里、丹鳳里、雙鳳里、合鳳里、富國里、國泰里、豐年里、福營里、龍鳳里、裕民里、祥鳳里、富民里、泰豐里、龍福里,邱雋弘,958496393.0,是,300.0,1200,0.0,是,是,否,是,是,121.414928,25.027664
160,是,是,否,SF242-0008,65000,全安市民活動中心,新莊區,65000050,全安里,新北市新莊區新莊路527號,活動中心1樓、2樓、3樓、4樓,海山里、全安里、榮和里、興漢里、文德里、文明里、文聖里、文衡里、全泰里、泰豐里、忠孝里,邱雋弘,958496393.0,是,200.0,800,0.0,是,是,是,是,是,121.447891,25.033328
161,是,是,否,SF242-0009,65000,新莊區公所,新莊區,65000050,興漢里,新北市新莊區中正路176號,10樓大禮堂、會議室、1樓,海山里.全安里.榮和里.興漢里.文德里.文明里.文聖里.文衡里.全泰里.忠孝里,顏稟倫,937893406.0,是,200.0,800,0.0,是,是,否,是,是,121.450558,25.035834
162,是,是,否,SF242-0010,65000,福營行政大樓,新莊區,65000050,四維里,新北市新莊區四維路9號,6樓大禮堂,瓊林里、營盤里、丹鳳里、雙鳳里、合鳳里、富國里、國泰里、豐年里、福營里、龍鳳里、裕民里、祥鳳里、富民里、泰豐里、龍福里,顏稟倫,937893406.0,是,200.0,800,0.0,是,是,是,是,是,121.423752,25.024296
163,是,是,否,SF242-0011,65000,裕民行政大樓,新莊區,65000050,裕民里,新北市新莊區裕民街136號,6樓禮堂,瓊林里、營盤里、丹鳳里、雙鳳里、和鳳里、富國里、國泰里、四維里、豐年里、福營里、龍鳳里、裕民里、祥鳳里、富民里、泰豐里、龍福里,顏稟倫,937893406.0,是,300.0,1200,0.0,是,是,是,是,是,121.41778,25.021885
164,是,是,否,SF242-0012,65000,輔仁大學,新莊區,65000050,營盤里,新北市新莊區中正路510號,中美堂1樓、運動場,營盤里、福營里、建安里,張耘齊,972321116.0,否,1544.0,5239,1885.0,否,是,是,是,否,121.435112,25.032953
165,是,是,否,SF242-0013,65000,新莊高中,新莊區,65000050,立基里,新北市新莊區中平路135號,活動中心1樓、圖書館3樓閱覽室、科教大樓韻律教室,立基里、中和里、中泰里、立志里、中信里、中宏里、中全里、立泰里、中平里、立廷里,吳立夫主任,921203172.0,是,933.0,2263.29,2944.0,是,是,是,是,否,121.444658,25.048184
166,是,是,否,SF242-0014,65000,丹鳳高中,新莊區,65000050,龍鳳里,新北市新莊區龍安路72號,翰海樓6樓、星光樓1樓、丹鼎樓5樓,民有里、光正里、光明里、成德里、龍安里、龍鳯里、民安里、裕民里、丹鳯里、雙鳳里、龍福里、祥鳳里,陳政佑主任,920033711.0,是,992.0,1542,4863.0,是,是,否,是,否,121.416169,25.021199
167,是,是,否,SF242-0015,65000,新莊國中,新莊區,65000050,榮和里,新北市新莊區中正路211號,學生活動中心1樓、綜合大樓1樓,榮和里、興漢里、全安里、文衡里、文德里、立人里、文聖里、泰豐里,戴岑熹主任,919611847.0,是,1150.0,1600,6000.0,是,是,是,是,否,121.452488,25.035939
168,是,是,否,SF242-0016,65000,新泰國中,新莊區,65000050,立泰里,新北市新莊區新泰路359號,活動中心(1樓),中華里、中和里、中誠里、中宏里、中全里、中泰里、立志里、立基里、立廷里、立言里、立泰里、思賢里、忠孝里、立德里、立功里、自立里、自強里,許智凱主任,918064112.0,是,466.0,1187,1365.0,是,是,是,是,否,121.444378,25.042595
169,是,是,否,SF242-0017,65000,福營國中,新莊區,65000050,萬安里,新北市新莊區富國路105號,行政大樓3樓第二會議室、行政大樓5樓第一會議室、至善樓3樓圖書館、4樓視聽教室,富民里、民安里、民全里、萬安里、後港里、西盛里、富國里、民本里、四維里、後德里、建安里、建福里、福營里、營盤里、南港里、瓊林里、成德里、龍安里、民有里、八德里,洪福明主任,918399264.0,否,319.0,425,1710.0,否,是,是,是,否,121.422511,25.025324
170,是,是,否,SF242-0018,65000,頭前國中,新莊區,65000050,和平里,新北市新莊區思源路485號,樂活館、至善樓、至美樓、至真樓、大勇樓、專科教室地下室及1樓、風雨操場,思源里、幸福里、昌平里、昌信里、昌隆里、仁愛里、仁義里、信義里、和平里、昌明里、昌信里、自信里、福基里、福興里、頭前里、化成里,何建中主任,920128873.0,是,339.0,756,1200.0,否,是,是,是,否,121.459484,25.055184
171,是,是,否,SF242-0019,65000,中平國中,新莊區,65000050,立廷里,新北市新莊區中平路385號,中平樓3樓、4樓,立廷里、中港里、中原里、中信里、中平里、中隆里,陳皇志主任,935490241.0,是,269.0,328,1500.0,是,是,是,是,否,121.444531,25.053756
172,是,是,否,SF242-0020,65000,新莊國小,新莊區,65000050,立人里,新北市新莊區中正路86號,孫鳳堂1樓、3樓、新采樓2樓,立人里、思源里、文衡里、文聖里、興漢里、榮和里、文德里、文明里、恆安里、思賢里、立德里、中美里,余素苓主任,939525120.0,是,1029.0,1249.6,5742.0,是,是,是,是,否,121.456423,25.036968
173,是,是,否,SF242-0021,65000,民安國小,新莊區,65000050,民全里,新北市新莊區民安路261號,和平樓2樓多功能藝廊,民安里、瓊林里、四維里、成德里、後港里、八德里、西盛里、民有里、後德里、建福里、民全里、光華里、光明里、光正里、光和里、建安里、民本里,劉美玲主任,937579028.0,否,1203.0,877,7875.0,否,是,是,是,否,121.427798,25.021633
174,是,是,否,SF242-0022,65000,國泰國小,新莊區,65000050,營盤里,新北市新莊區中正路386號,國泰樓多功能教室、日新樓B1、2-4樓,忠孝里、國泰里、海山里、福營里、營盤里,彭成君主任,922695002.0,是,577.0,285,4054.0,否,是,是,否,否,121.441712,25.034171
175,是,是,否,SF242-0023,65000,頭前國小,新莊區,65000050,頭前里,新北市新莊區化成路231號,千禧樓2樓大辦公室、4樓綜合教室,化成里、頭前里、福基里,黃琬婷主任,988185088.0,是,315.0,762,1000.0,是,是,是,是,否,121.466129,25.052926
176,是,是,否,SF242-0024,65000,中港國小,新莊區,65000050,立志里,新北市新莊區中港一街142號,第2棟東側地下室、第3棟東側及西側地下室,中泰里、立志里、立基里、立廷里、中宏里、中全里、中和里、中港里、立功里、中華里、立泰里、中誠里,王文政主任,978167272.0,否,564.0,1910,700.0,是,是,是,是,否,121.447166,25.04507
177,是,是,否,SF242-0025,65000,思賢國小,新莊區,65000050,自立里,新北市新莊區自立街229號,信義和平樓2樓圖書館、明禮樓2樓視聽教室,自立里、仁愛里、思賢里、自強里、仁義里、中美里、自信里、思源里、中泰里、中誠里、信義里、化成里、幸福里、中華里,薛國致主任,922129333.0,否,285.0,567,1156.0,否,是,是,是,否,121.456556,25.045562
178,是,是,否,SF242-0026,65000,丹鳳國小,新莊區,65000050,雙鳳里,新北市新莊區新北大道七段437號,勵學樓地下1樓、敦品樓地下1樓、至善樓地下1樓,雙鳳里、富國里、丹鳯里、合鳳里、龍鳳里、龍福里、祥鳳里,吳駿勇主任 ,985846654.0,是,390.0,1022,1080.0,是,是,否,是,否,121.413815,25.024184
179,是,是,否,SF242-0027,65000,豐年國小,新莊區,65000050,國泰里,新北市新莊區瓊泰路116號,活動中心1、2樓、平安樓4樓視聽教室,國泰里、海山里、豐年里、泰豐里、瓊林里、全安里,蔡蓓詩主任,932345248.0,否,678.0,517.9245283019,4399.0,是,是,是,是,否,121.443332,25.030931
180,是,是,否,SF242-0028,65000,光華國小,新莊區,65000050,光明里,新北市新莊區龍安路452號,八德樓6樓、地下室,光華里、光明里、民安里、民本里、瓊林里、光和里、光正里、光榮里、成德里、民全里、民有里、西盛里,黃勺珍主任,963061522.0,是,1015.0,2400,3325.0,否,是,是,是,否,121.425204,25.017902
181,是,是,否,SF242-0029,65000,榮富國小,新莊區,65000050,中平里,新北市新莊區中和街193號,行政大樓2樓會議室、迎曦樓四樓簡易多功能活動中心、行政大樓5樓視聽教室,中信里、中平里、中港里、中隆里、中原里、中宏里、中全里,何姿香主任,931864545.0,否,484.0,736,2400.0,是,是,是,是,否,121.447398,25.051432
182,是,是,否,SF242-0030,65000,新泰國小,新莊區,65000050,忠孝里,新北市新莊區公園一路91號,新泰樓5樓視聽教室、科技樓-大辦公室,忠孝里、立言里、立德里、立功里、營盤里、全泰里,陳文斌主任,932921284.0,是,1797.0,4417,5550.0,是,是,是,是,否,121.443787,25.037841
183,是,是,否,SF242-0031,65000,裕民國小,新莊區,65000050,裕民里,新北市新莊區裕民街123號,教學大樓1樓、集賢樓活動中心,裕民里、南港里、合鳳里、龍鳳里、萬安里、龍安里、龍福里,蕭琳臻主任,952703133.0,否,632.0,1331,2400.0,是,是,否,是,否,121.417818,25.021278
184,是,是,否,SF242-0032,65000,昌隆國小,新莊區,65000050,昌隆里,新北市新莊區昌隆街63號,迎曦樓151、152、153教室,幸福里、信義里、和平里、中誠里、昌明里、昌信里、中港里、仁愛里、仁義里、自強里、自立里、自信里、昌隆里,康志偉主任,921884783.0,否,520.0,232,3702.0,否,是,是,是,否,121.45505,25.051019
185,是,是,否,SF242-0033,65000,興化國小,新莊區,65000050,福興里,新北市新莊區五工二路50巷2號,教學大樓3樓科任教室、4樓大禮堂、1樓家長會辦公室,福基里、福興里,吳喜信主任,931061073.0,是,599.0,360,4075.0,是,是,是,是,否,121.461637,25.065916
186,是,是,否,SF242-0034,65000,中信國小,新莊區,65000050,中原里,新北市新莊區中信街168號,慈愛樓1樓、勵學樓1樓、靜思樓1樓,中原里、中信里、中榮里、中隆里、昌平里、中平里,陳中淋主任,939878607.0,是,1084.0,770,7137.0,否,是,是,是,否,121.447991,25.056275
187,是,是,否,SF242-0035,65000,昌平國小,新莊區,65000050,昌平里,新北市新莊區昌平街200號,積極樓B1體能教室及舞蹈教室、關懷樓B1桌球室、負責樓B1知動教室,昌平里、昌信里、昌明里、福基里、和平里、中隆里、福興里、昌隆里,馮嬿霓主任,927680417.0,是,535.0,540,3200.0,是,是,是,是,否,121.455581,25.056404
188,是,是,否,SF242-0036,65000,恆毅高級中學,新莊區,65000050,立人里,新北市新莊區中正路108號,活動中心1樓,恆安里、立人里、文德里.榮和里.中美里.興漢里.文明里,涂菁美主任,975398386.0,是,648.0,1696,1797.0,是,是,是,是,否,121.417351,25.022665
189,是,是,是,SF242-0037,65000,新莊體育場(防災公園),新莊區,65000050,立德里,新北市新莊區公園路11號,公園,立德里、中美里、立人里、榮和里、興漢里、文聖里、全泰里、立言里、立泰里、立功里、中和里、中華里,鄒宜辰,,是,8450.0,0,67600.0,是,是,是,是,是,121.448185,25.039698
190,是,是,是,SF242-0038,65000,頭前運動公園(防災公園),新莊區,65000050,頭前里,新北市新莊區頭前路、頭前街口,公園,頭前里、化成里、信義里、和平里、福基里,吳金純,920672079.0,是,133.0,0,1069.0,是,是,是,是,是,121.462074,25.05252
191,是,是,否,SF236-0001,65000,清和市民 活動中心,土城區,65000130,清和里,新北市土城區青雲路368號1樓,活動中心1樓,清和里、清化里,劉友坤 ,922824243.0,是,30.0,120,0.0,是,是,是,否,否,121.458661,24.973802
192,是,是,否,SF236-0002,65000,清化市民 活動中心,土城區,65000130,清和里,新北市土城區青雲路368號4樓,活動中心4樓,清化里、清和里,劉友坤 ,922824243.0,否,30.0,120,0.0,是,是,否,否,否,121.458661,24.973802
193,是,是,否,SF236-0003,65000,青雲、柑林市民活動中心,土城區,65000130,青雲里,新北市土城區清水路141巷18號B1,活動中心B1,青雲里、柑林里,劉友坤 ,922824243.0,否,50.0,200,0.0,否,是,否,否,否,121.458501,24.98237
194,是,是,否,SF236-0004,65000,青山市民 活動中心,土城區,65000130,青山里,新北市土城區明德路1段74之1號1樓,活動中心1樓,青山里、清水里、清溪里、永富里,劉友坤 ,922824243.0,是,18.0,72,0.0,是,是,是,否,否,121.464836,24.985918
195,是,是,否,SF236-0005,65000,永富市民 活動中心,土城區,65000130,青山里,新北市土城區明德路1段74之1號2樓,活動中心2樓,清水里、永富里、青山里,劉友坤 ,922824243.0,否,25.0,100,0.0,是,是,否,否,否,121.464836,24.985918
196,是,是,是,SF236-0006,65000,廷寮市民 活動中心,土城區,65000130,廷寮里,新北市土城區永豐路240之1號,活動中心1樓,廷寮里、永豐里、金城里,劉友坤 ,922824243.0,是,80.0,320,0.0,是,是,是,是,是,121.467199,24.980803
197,是,是,否,SF236-0007,65000,清水高中,土城區,65000130,永富里,新北市土城區明德路1段72號,1.綜合體育館3樓2.體育館地下室3.至美樓地下室,永富里、永豐里、金城里、清水里、清和里、清化里、清溪里、峯廷里、平和里、廷寮里、延壽里、安和里、延吉里、延和里、青山里、延祿里,總務主任李均凱,920618469.0,是,2041.0,6367,3600.0,是,是,是,是,否,121.464836,24.985918
198,是,是,否,SF236-0008,65000,中正國中,土城區,65000130,青雲里,新北市土城區金城路2段247號,1.至善1樓編號136~139教室(4間教室)2.多功能活動中心-德馨樓4樓3.無,中正里、柑林里、青雲里,事務組長宋子龍,958102183.0,是,671.0,353,4670.0,是,是,是,是,否,121.464359,24.985777
199,是,是,否,SF236-0009,65000,安和國小,土城區,65000130,安和里,新北市土城區延和路23號,1.教學大樓5樓2.教學大樓4樓3.教學大樓3樓,安和里、延和里、延壽里、平和里、延祿里、峯廷里、延吉里,總務主任陳文慶,912833850.0,是,2293.0,8482,1385.0,是,是,是,是,否,121.464774,24.988807
200,是,是,否,SF236-0010,65000,清水國小,土城區,65000130,清溪里,新北市土城區金城路2段356號,1.至善樓地下室右側(下樓左轉)-學生活動區2.至善樓地下室左側(下樓右轉)-儲藏區3.語文故事屋-維揚樓5樓,清溪里、柑林里、永豐里、峯廷里、平和里、廷寮里、延壽里、安和里、青雲里、延吉里、延和里、金城里、延祿里、,事務組長蔣易珊,912853283.0,是,1010.0,903,6281.0,是,是,是,是,否,121.464359,24.985777
201,是,是,是,SF236-0011,65000,土城區公所,土城區,65000130,埤塘里,新北市土城區金城路1段101號,區公所禮堂7樓,埤塘里、土城里、員林里、員仁里、長風里、員福里,劉友坤 ,922824243.0,是,162.0,200,900.0,是,是,否,是,是,121.464166,24.986135
202,是,是,否,SF236-0012,65000,廣福市民 活動中心,土城區,65000130,廣福里,新北市土城區學府路1段99巷底1樓,活動中心1樓,"廣福里、埤林里
瑞興里、復興里
學成里、廣興里",劉友坤 ,922824243.0,是,50.0,200,0.0,是,是,是,否,否,121.449518,24.982162
203,是,是,否,SF236-0013,65000,廣興市民 活動中心,土城區,65000130,廣福里,新北市土城區學府路1段99巷底2樓,活動中心2樓,廣興里、廣福里,劉友坤 ,922824243.0,否,50.0,200,0.0,是,是,否,否,否,121.449518,24.982162
204,是,是,否,SF236-0014,65000,員林市民 活動中心,土城區,65000130,員林里,新北市土城區員林街15號1樓,活動中心1樓,"員林里、員福里
埤塘里、土城里
長風里、員信里",劉友坤 ,922824243.0,是,77.0,140,340.0,是,是,是,否,否,121.442984,24.978282
205,是,是,否,SF236-0015,65000,新北高工,土城區,65000130,學府里,新北市土城區學府路1段241號,1.志清堂1樓2.圖書館6樓,學府里、明德里、學士里、樂利里、日新里、日和里、貨饒里、裕生里、中正里,總務主任林聰明,905879206.0,是,2580.0,4118.94,12410.0,是,是,是,是,否,121.449518,24.982162
206,是,是,否,SF236-0016,65000,土城國小,土城區,65000130,埤塘里,新北市土城區興城路17號,1.地下室-美育樓2.地下室-群英樓3.無,"員仁里、土城里
長風里、員信里
埤塘里、大安里",總務主任陳詩裕,975787253.0,是,963.0,1152,5400.0,否,是,是,是,否,121.441935,24.972383
207,是,是,否,SF236-0017,65000,廣福國小,土城區,65000130,廣福里,新北市土城區學府路1段127號,1.至誠樓2樓大辦公室2.至善樓2樓205會議室3.至誠樓5樓視聽中心,"瑞興里、復興里
埤林里、學成里
日新里、貨饒里
樂利里、廣福里
學府里、裕生里
中正里、學士里
明德里、廣興里",總務主任簡志明,928846391.0,是,533.0,510,3252.0,是,是,是,是,否,121.449518,24.982162
208,是,是,否,SF236-0018,65000,樂利國小,土城區,65000130,日新里,新北市土城區裕生路65號,1.綜合教室-思賢樓5樓2.會議室-力行樓2樓3.視聽教室-弘道樓3樓,"日新里、裕生里
貨饒里、日和里
埤林里、瑞興里
樂利里、學府里
復興里、學成里
學士里、明德里",總務主任陳良仁,931094392.0,是,505.0,775,2500.0,是,是,是,是,否,121.447559,24.985602
209,是,是,否,SF236-0019,65000,裕德高中,土城區,65000130,日和里,新北市土城區擺接堡路1號,1.一樓演藝廳(含閱覽室)2.地下一樓-風雨操場3.八樓活動中心,"日和里、員林里
員福里",總務主任簡嘉良,972720798.0,是,984.0,2519,2843.0,否,是,是,是,否,121.439585,24.982977
210,是,是,否,SF236-0020,65000,福瑞斯特高中,土城區,65000130,員仁里,新北市土城區城林路2號,1.禮堂2.校史室-禮堂2樓3.無,員仁里、員信里,總務主任鄧再智,932122113.0,否,1404.0,1870,7500.0,否,是,是,是,否,121.437438,24.975626
211,是,是,是,SF236-0021,65000,永寧市民 活動中心,土城區,65000130,永寧里,新北市土城區永寧路32巷10弄10號,活動中心2樓,永寧里、大安里,劉友坤 ,922824243.0,是,30.0,120,0.0,是,是,否,是,是,121.429188,24.961655
212,是,是,否,SF236-0022,65000,祖田市民 活動中心,土城區,65000130,祖田里,新北市土城區中央路4段283之1號2樓,活動中心2樓,祖田里、頂新里、頂福里,劉友坤 ,922824243.0,否,50.0,200,0.0,否,是,是,是,否,121.443011,24.980879
213,是,是,否,SF236-0023,65000,沛陂市民 活動中心,土城區,65000130,沛陂里,新北市土城區三民路23巷8弄9號,活動中心1、2樓,沛陂里、永寧里、頂埔里,劉友坤 ,922824243.0,是,50.0,200,0.0,是,是,是,否,否,121.419376,24.963598
214,是,是,是,SF236-0024,65000,頂埔市民 活動中心,土城區,65000130,頂埔里,新北市土城區中央路4段55之12號,活動中心1樓,頂埔里、沛陂里、頂福里、頂新里、祖田里,劉友坤 ,922824243.0,是,60.0,240,0.0,是,是,是,是,是,121.443011,24.980879
215,是,是,否,SF236-0025,65000,土城國中,土城區,65000130,永寧里,新北市土城區永寧路18號,1.綜合大樓4樓2.綜合大樓1樓閱覽室3.群英樓1樓編號110、B111、B112等3教室,大安里、永寧里、沛陂里,總務主任劉明志,928558311.0,是,1346.0,2190.37,6396.0,是,是,是,是,否,121.430171,24.962415
216,是,是,否,SF236-0026,65000,頂埔國小,土城區,65000130,頂福里,新北市土城區中央路4段205號,1.體育館2.無3.無   ,頂福里、頂埔里、頂新里、祖田里,總務主任李沂婕,912545252.0,是,412.0,788,1720.73,是,是,是,是,否,121.443011,24.980879
217,否,是,否,SF236-0027,65000,土城綜合 體育場(防災公園),土城區,65000130,中正里,新北市土城區裕民路193之1號,無,青山里、清和里、清化里、永豐里、永富里、金城里、廷寮里、峯廷里、延吉里、青雲里、清溪里、清水里、安和里、延和里、延壽里、平和里、延祿里、員仁里、埤塘里、日和里、明德里、學士里、瑞興里、復興里、廣興里、員林里、員信里、員福里、日新里、裕生里、樂利里、廣福里、土城里、學成里、埤林里、貨饒里、柑林里、中正里、學府里、長風里、頂埔里、祖田里、頂新里、頂福里、沛陂里、永寧里、大安里,劉友坤 ,922824243.0,否,899.0,0,7194.0,否,否,是,否,否,121.453689,24.984274
218,是,是,否,SF236-0028,65000,宏國德霖科技大學,土城區,65000130,清化里,新北市土城區青雲路380巷1號,1.體育館4樓2.無3.無,清化里、清和里,總務助理張永宗,933820070.0,是,270.0,800,560.0,是,是,否,否,否,121.45838,24.972919
219,是,是,是,SF238-0001,65000,樹林區公所,樹林區,65000070,樹東里,新北市樹林區樹東里鎮前街93號,3樓禮堂,保安里、樹德里、樹西里、樹東里、圳福里、樹福里、文林里,陳岱琪（課長）,933913650.0,是,215.0,863,0.0,是,否,是,否,是,121.424488,24.990042
220,是,是,否,SF238-0002,65000,樹林高中,樹林區,65000070,和平里,新北市樹林區和平里中華路8號,活動中心；仁愛樓地下室；至善樓地下室,樹東里、大同里、和平里、彭厝里、彭福里、樹北里、彭興里,李寶鳳(總務主任),933209679.0,是,2896.0,2990,17195.0,是,否,是,否,是,121.422463,24.982937
221,是,是,否,SF238-0003,65000,柑園國中,樹林區,65000070,柑園里,新北市樹林區柑園里柑園街2段125號,林長壽紀念館1樓；表藝教室1樓,東園里、西園里、南園里、北園里、柑園里,馮紹華(總務主任),933739095.0,是,1082.0,1241,6179.0,是,否,是,否,是,121.38851,24.956152
222,是,是,否,SF238-0004,65000,文林國小,樹林區,65000070,潭底里,新北市樹林區潭底里千歲街59號,活動中心2樓禮堂；懷恩樓-地下室桌球教室、劍道教室；教師大辦公室,圳安里、保安里、潭底里、圳福里、文林里、圳民里,謝聖國(總務主任),922318556.0,是,1738.0,4703,4508.0,是,否,是,否,是,121.424467,24.995857
223,是,是,否,SF238-0005,65000,樹林國小,樹林區,65000070,樹西里,新北市樹林區樹西里育英街176號,羽球館；展演中心；視聽中心,保安里、潭底里、樹德里、樹西里、樹人里、坡內里、樹興里、樹福里、文林里、育英里,陳貞君(總務主任),960723265.0,是,1162.0,1955,5395.0,是,否,是,否,是,121.423441,24.990236
224,是,是,否,SF238-0006,65000,武林國小,樹林區,65000070,金寮里,新北市樹林區金寮里保安街2段151號,千禧樓1樓；千禧樓地下室,三多里、三福里、三興里、圳安里、潭底里、獇寮里、光興里、金寮里,劉叔玫(總務主任),937370898.0,是,1066.0,2612,3310.0,是,否,是,否,是,121.416381,25.000594
225,是,是,否,SF238-0007,65000,大同國小,樹林區,65000070,大同里,新北市樹林區大同里大同街43號,活動中心1樓；活動中心2樓,大同里、彭厝里、和平里、彭福里、東陽里、彭興里、中華里、太順里,蕭斯文(總務主任),926191135.0,是,1470.0,2220,7325.0,是,否,是,否,是,121.417521,24.981311
226,是,是,否,SF238-0008,65000,山佳國小,樹林區,65000070,山佳里,新北市樹林區山佳里中山路3段5號,後村堂1樓；地下室-至真樓B1,東山里、山佳里,張修藻(總務主任),928558069.0,是,654.0,995,3250.0,是,是,是,否,是,121.39262,24.97212
227,是,是,否,SF238-0009,65000,三多國小,樹林區,65000070,三福里,新北市樹林區三福里三福街52號,禮堂-感恩樓3、4樓；韻律教室-勵學樓5樓,三多里、三福里、三興里、獇寮里、光興里、金寮里、圳生里、三龍里,蔡宗聖(總務主任),922841155.0,是,839.0,1071,4583.0,是,否,是,否,是,121.406436,25.016364
228,是,是,否,SF238-0010,65000,育德國小,樹林區,65000070,中山里,新北市樹林區中山里佳園路1段34號,活動中心；學務處地下室,樂山里、山佳里、中山里,柳依辰(總務主任),921457845.0,是,785.0,1040,4200.0,是,否,是,否,是,121.39262,24.97212
229,是,是,否,SF238-0011,65000,柑園國小,樹林區,65000070,柑園里,新北市樹林區柑園里柑園街1段353號,中正堂；日新樓地下室,東園里、西園里、南園里、北園里、柑園里,劉時享(總務主任),920833492.0,是,625.0,1055,2900.0,是,否,是,否,是,121.388355,24.955751
230,是,是,否,SF238-0012,65000,彭福國小,樹林區,65000070,和平里,新北市樹林區和平里忠孝街30號,和平樓韻律教室443、444教室(4F)；518多功能教室,和平里、彭厝里、彭福里、彭興里、太順里,梁文懋(總務主任),926749697.0,是,209.0,210,1263.0,是,否,是,否,是,121.42252,24.982824
231,是,是,否,SF238-0013,65000,育林國小,樹林區,65000070,樹南里,新北市樹林區樹南里復興路395號,地下室；1樓地板教室,樹南里、樹人里、坡內里、東昇里、育英里、樹興里,廖致舜(總務主任),989815923.0,是,178.0,389,648.0,是,是,是,否,是,121.42071,24.986862
232,是,是,否,SF238-0014,65000,育林國中,樹林區,65000070,樹南里,新北市樹林區樹南里復興路395號,紅棟5樓活動中心；B棟地下1樓,樹南里、樹人里、坡內里、東昇里、育英里、樹興里,陳宏祺(總務主任),936122268.0,是,627.0,408,4200.0,是,否,是,否,是,121.42071,24.986862
233,是,是,否,SF238-0015,65000,三多國中,樹林區,65000070,獇寮里,新北市樹林區獇寮里三多路101號,宏觀樓4樓大會議室；綠意樓5樓體適能教室；宏觀樓3樓韻律教室,三多里、三福里、三興里、圳安里、獇寮里、光興里、金寮里、圳民里、圳生里、三龍里,陳信龍(總務主任),918018245.0,是,912.0,729,5842.0,是,否,是,否,是,121.414039,25.005866
234,是,是,否,SF238-0016,65000,桃子腳國中小,樹林區,65000070,南園里,新北市樹林區南園里學勤路555號,K棟2樓表藝廳及音樂教室；E棟音樂教室、生科教室、家政教室；E棟國小自然教室、準備室、美術教室,東園里、西園里、南園里、北園里、柑園里,黃國政(總務主任),989516651.0,是,960.0,840,6000.0,是,否,是,否,是,121.381598,24.950166
235,是,是,否,SF238-0017,65000,三多市民活動中心,樹林區,65000070,三福里,新北市樹林區三福里福與街17號1樓,1樓,三福里、三多里、三龍里、三興里,胡博亦（助理員),989897862.0,是,125.0,500,0.0,是,是,是,否,是,121.40447,25.016207
236,是,是,否,SF238-0019,65000,東陽市民活動中心,樹林區,65000070,東陽里,新北市樹林區東陽里鎮前街467號,1樓,樹德里、樹西里、樹東里、樹北里、東山里、東陽里、圳福里、中華里、太順里,胡博亦（助理員),989897862.0,是,78.0,315,0.0,是,是,是,否,是,121.412484,24.982141
237,是,是,否,SF238-0020,65000,樂山市民活動中心,樹林區,65000070,樂山里,新北市樹林區樂山里中和街38號2樓,3樓,樂山里、中山里,胡博亦（助理員),989897862.0,是,61.0,245,0.0,是,是,是,否,是,121.389858,24.973637
238,是,是,否,SF238-0021,65000,樹林體育場,樹林區,65000070,樹東里,新北市樹林區樹東里水源街81號,防災公園,保安里、樹德里、樹西里、樹東里、圳福里、樹福里、文林里,胡博亦（助理員),989897862.0,是,1093.0,0,8747.0,是,是,是,否,是,121.425713,24.982387
239,是,是,否,SF238-0022,65000,山佳市民活動中心,樹林區,65000070,山佳里,新北市樹林區山佳里新興街3-3號,1樓及2樓,東山里、樂山里、山佳里、忠山里,胡博亦（助理員),989897862.0,是,124.0,499,0.0,是,是,否,否,是,121.400027,24.972614
240,是,是,是,SF247-0001,65000,蘆洲區公所,蘆洲區,65000140,保和里,新北市蘆洲區三民路95號,區公所7樓,光華里、保佑里、鷺江里、保和里、仁復里、得勝里、仁愛里、中華里、仁德里、福安里,黃正翰,916310471.0,是,185.0,740,0.0,是,是,是,是,是,121.473778,25.0847
241,是,是,否,SF247-0002,65000,永平市民活動中心,蘆洲區,65000140,永樂里,新北市蘆洲區永平街1號4樓,永平市場4樓,正義里、南港里、永樂里、永康里、光明里、長安里、成功里、永德里,莊尚修,975157162.0,否,151.0,604,0.0,是,是,是,是,是,121.459174,25.090359
242,是,是,否,SF247-0003,65000,長安市民活動中心,蘆洲區,65000140,忠義里,新北市蘆洲區長安街96號4樓,長安活動中心4樓,中路里、忠義里、九芎里、中華里、光明里、長安里、永安里、延平里,莊尚修,975157162.0,否,124.0,494,0.0,是,是,是,是,是,121.46194,25.080733
243,是,是,否,SF247-0004,65000,重陽市民活動中心,蘆洲區,65000140,樓厝里,新北市蘆洲區集賢路221巷11號,重陽活動中心1樓,樓厝里、信義里、玉清里、復興里,莊尚修,975157162.0,是,59.0,234.5,0.0,是,是,是,是,是,121.483695,25.085719
244,是,是,否,SF247-0005,65000,民生市民活動中心,蘆洲區,65000140,得仁里,新北市蘆洲區民生街129巷14號,民生活動中心1樓,溪墘里、樹德里、得仁里、民和里,莊尚修,975157162.0,否,21.0,82.5,0.0,是,是,是,是,是,121.472836,25.078414
245,是,是,否,SF247-0006,65000,水湳市民活動中心,蘆洲區,65000140,水湳里,新北市蘆洲區民族路426巷17號,水湳活動中心1樓,水湳里、復興里、水河里、忠孝里,莊尚修,975157162.0,是,34.0,137,0.0,是,是,是,是,是,121.473051,25.092713
246,是,是,否,SF247-0008,65000,得仁市民活動中心,蘆洲區,65000140,得仁里,新北市蘆洲區中山一路415號6樓,得仁市民活動中心6樓,中路里、得勝里、九芎里、得仁里、民和里、永安里、延平里,莊尚修,975157162.0,是,53.0,210,0.0,否,是,否,否,是,121.469027,25.076702
247,是,是,否,SF247-0009,65000,財團法人新北市基督徒蘆洲禮拜堂,蘆洲區,65000140,仁德里,新北市蘆洲區三民路26巷71弄2號B1地下室,三民路26巷71弄2號B1地下室,樓厝里、恆德里、玉清里、仁德里、仁義里,羅金蓮,980641872.0,否,75.0,300,0.0,否,是,是,是,否,121.478907,25.083352
248,是,是,否,SF247-0010,65000,成功國小,蘆洲區,65000140,成功里,新北市蘆洲區長安街311號,演藝廳-成真樓5樓、集賢廳-永康樓5樓,永樂里、永康里、忠義里、長安里、延平里、成功里、永德里,張哲源,928027900.0,否,419.25,570,2210.0,是,是,否,是,否,121.457458,25.085673
249,是,是,否,SF247-0011,65000,鷺江國中 ,蘆洲區,65000140,正義里,新北市蘆洲區長樂路235號,創新樓B1樓(教室編號B132、B133)、慈悲樓1樓(教室編號174),正義里、南港里、永樂里、保新里,黃瓊慧,922150052.0,是,658.5,282,4700.0,是,是,是,是,否,121.462465,25.087248
250,是,是,否,SF247-0012,65000,三民高中 ,蘆洲區,65000140,保和里,新北市蘆洲區三民路96號,逸仙堂四樓禮堂、雙聖樓、四維樓,保佑里、鷺江里、保和里、信義里、水河里、仁愛里、忠義里、忠孝里、福安里、永安里,李振瑋,955563798.0,否,5011.0,19229,1632.0,是,是,是,是,否,121.472326,25.086634
251,是,是,否,SF247-0013,65000,蘆洲國中,蘆洲區,65000140,中原里,新北市蘆洲區中正路265號,活動中心1樓、活動中心地下1樓、忠孝樓三樓會議室,中原里、中路里、光華里、保佑里、永康里、九芎里、光明里、成功里、永德里,何美珍,911177716.0,否,1112.5,2700,3500.0,否,是,否,否,否,121.466382,25.087088
252,是,是,否,SF247-0014,65000,仁愛國小,蘆洲區,65000140,水湳里,新北市蘆洲區民族路488號,"第一棟B1-動動館及舞蝶館,第三棟B1-棒棒堂、第四棟B1-妙妙屋",水湳里、復興里、水河里、仁愛里、保新里、忠孝里,丁贊仁,958901513.0,否,498.125,260,3465.0,否,是,否,否,否,121.470993,25.091454
253,是,是,否,SF247-0015,65000,忠義國小,蘆洲區,65000140,正義里,新北市蘆洲區光榮路99號,地下室籃球場、306音樂教室(行政大樓3樓)、517音樂教室(第一排教學大樓5樓),正義里、中原里、南港里、保新里,郭雅婷,937195159.0,否,957.0,1912,3832.0,否,是,是,是,否,121.463854,25.089298
254,是,是,否,SF247-0016,65000,鷺江國小,蘆洲區,65000140,鷺江里,新北市蘆洲區民族路7號,活動中心(鷺江樓5樓)、八德樓地下室,樓厝里、鷺江里、仁復里、信義里、仁德里、仁義里、福安里,吳美玲,926667166.0,否,938.75,1330,4846.0,是,是,是,是,否,121.476132,25.084352
255,是,是,否,SF247-0017,65000,蘆洲國小,蘆洲區,65000140,保和里,新北市蘆洲區中正路100號,活動中心(彩虹樓5樓)、演藝廳(彩虹樓4樓)、新和平樓地下室,中原里、光華里、保和里、仁復里、得勝里、中華里,張福仁,935592220.0,是,1903.25,1986,11250.0,是,是,是,是,否,121.465985,25.089025
256,是,是,否,SF247-0018,65000,徐匯中學,蘆洲區,65000140,溪漧里,新北市蘆洲區中山一路1號,自強樓1樓禮堂、依納爵樓8樓活動中心,恆德里、溪墘里、樹德里,蔡瑪莉,933235185.0,否,838.0,953,4800.0,是,是,是,是,否,121.479975,25.080267
257,是,是,否,SF247-0019,65000,永安兒童公園市民活動中心,蘆洲區,65000140,恆德里,新北市蘆洲區永安北路二段42之6號,永安兒童公園市民活動中心1樓,恆德里、玉清里、仁義里,莊尚修,975157162.0,否,22.0,87,0.0,是,是,是,是,是,121.481855,25.081663
258,是,是,否,SF247-0020,65000,溪墘湧蓮市民活動中心 ,蘆洲區,65000140,溪墘里,新北市蘆洲區信義路65號,溪墘湧蓮市民活動中心1F,溪墘里、樹德里、得仁里、民和里,莊尚修,975157162.0,否,51.0,203,0.0,是,是,是,是,是,121.476051,25.079572
259,是,是,否,SF247-0021,65000,蘆洲柳堤防災公園,蘆洲區,65000140,正義里,新北市蘆洲區光榮路及長樂路口,室外,正義里、南港里、永樂里、永康里、成功里,黃正翰,916310471.0,是,200.0,0,1600.0,是,是,是,是,是,121.462546,25.088568
260,是,是,否,SF247-0022,65000,仁愛市民活動中心,蘆洲區,65000140,水湳里,新北市蘆洲區民權路143號1樓,仁愛市民活動中心1樓,水湳里、水河里、保佑里、保新里、忠孝里、仁愛里,莊尚修,975157162.0,是,167.0,667,0.0,是,是,是,是,是,121.471279,25.091017
261,是,是,是,SF221-0001,65000,汐止區公所行政中心,汐止區,65000110,秀峰里,新北市汐止區新台五路一段268號,行政中心11樓禮堂,禮門里、智慧里、秀峰里、新昌里、白雲里、自強里、文化里、福安里、秀山里,徐延平,963107104.0,是,158.0,632.45,0.0,是,是,是,是,是,121.658984,25.063841
262,是,是,否,SF221-0002,65000,東方科學園區,汐止區,65000110,文化里,新北市汐止區新台五路一段90號,園區1樓,智慧里、復興里、白雲里、文化里,徐延平,963107104.0,否,500.0,2000,0.0,是,是,是,是,否,121.648233,25.06048
263,是,是,否,SF221-0003,65000,崇德橋東市民活動中心,汐止區,65000110,崇德里,新北市汐止區茄苳路82號,活動中心1樓,崇德里、橋東里、新昌里、仁德里、建成里,徐延平,963107104.0,是,100.0,403,0.0,是,是,是,是,否,121.667029,25.070489
264,是,是,否,SF221-0004,65000,康福市民活動中心,汐止區,65000110,康福里,新北市汐止區福德三路9號,活動中心1樓,興福里、康福里,徐延平,963107104.0,是,140.0,563,0.0,是,是,是,是,否,121.638746,25.070035
265,是,是,否,SF221-0005,65000,橫科市民活動中心,汐止區,65000110,橫科里,新北市汐止區橫科路119號,活動中心1樓,橫科里、福山里、宜興里、東勢里,徐延平,963107104.0,是,74.0,296,0.0,是,是,是,是,是,121.620148,25.050522
266,是,否,否,SF221-0006,65000,保長坑訓練中心,汐止區,65000110,保新里,新北市汐止區大同路三段469號,D棟及J棟1樓,保新里、東山里、保長里、長安里,徐延平,963107104.0,是,1075.0,800,7000.0,是,是,是,是,是,121.679534,25.071299
267,是,否,否,SF221-0007,65000,厚德山光市民活動中心,汐止區,65000110,厚德里,新北市汐止區樟樹1路137巷26號2樓,活動中心2樓,厚德里、山光里、樟樹里、湖光里、忠孝里、湖蓮里,徐延平,963107104.0,是,227.0,909,0.0,是,是,是,是,否,121.635376,25.061369
268,是,否,是,SF221-0008,65000,翠柏新村安養中心-服務大樓,汐止區,65000110,長青里,新北市汐止區永春一路5號,服務大樓5樓禮堂,長青里、烘內里、八連里,徐延平,963107104.0,是,203.0,812,0.0,是,是,是,是,否,121.602401,25.112396
269,是,是,否,SF221-0009,65000,青山國中小,汐止區,65000110,自強里,新北市汐止區莊敬街33號,體育館,自強里、文化里、復興里、大同里,徐延平,963107104.0,是,2255.0,2071,13907.0,是,是,是,是,否,121.656845,25.060713
270,是,是,否,SF221-00010,65000,金龍國小,汐止區,65000110,北峰里,新北市汐止區明峰街201號,卓越樓5F,金龍里、北峰里、北山里、忠山里、湖興里、湖蓮里、湖光里,徐延平,963107104.0,否,1934.0,4502,6478.0,是,是,是,是,否,121.627219,25.06872
271,是,是,否,SF221-00011,65000,崇德國小,汐止區,65000110,茄苳里,新北市汐止區茄苳路158號,禮堂-崇光堂1樓、會議室-螢光樓4樓,崇德里、茄苳里、東山里,徐延平,963107104.0,否,675.0,1700,2000.0,是,是,是,是,否,121.669,25.069433
272,是,是,否,SF221-00012,65000,樟樹國小,汐止區,65000110,厚德里,新北市汐止區樟樹一路141巷2號,勵學樓5樓綜合教室,厚德里、山光里、樟樹里、湖光里、忠孝里、湖蓮里,徐延平,963107104.0,否,1068.0,480,7585.0,否,是,是,是,否,121.641687,25.066528
273,是,是,否,SF221-00013,65000,汐止國小,汐止區,65000110,智慧里,新北市汐止區大同路二段313號,勤學堂2樓,江北里、智慧里、大同里、禮門里、義民里、復興里、仁德里、忠孝里、山光里、拱北里,徐延平,963107104.0,否,872.0,790,5400.0,是,是,是,是,否,121.65525,25.066922
274,是,是,否,SF221-00014,65000,白雲國小,汐止區,65000110,福山里,新北市汐止區民權街2段90號,明心樓1F故事屋,福山里、宜興里、東勢里、橫科里,徐延平,963107104.0,是,204.0,422,792.0,否,是,是,是,否,121.619457,25.04989
275,是,是,否,SF221-00015,65000,汐止國中,汐止區,65000110,禮門里,新北市汐止區大同路二段394號,教學大樓7樓教室,仁德里、義民里、信望里、禮門里、江北里、大同里、城中里、建成里,徐延平,963107104.0,否,376.0,1242,530.0,是,是,是,是,否,121.658391,25.066949
276,是,是,否,SF221-00016,65000,秀峰高中,汐止區,65000110,秀峰里,新北市汐止區忠孝東路201號,體育館1樓,義民里、信望里、橋東里、秀峰里、新昌里、福安里、秀山里、白雲里,徐延平,963107104.0,是,1708.0,6425,817.0,是,是,是,是,否,121.660087,25.065634
277,是,是,否,SF221-00017,65000,北港國小,汐止區,65000110,拱北里,新北市汐止區汐萬路二段279號,新大樓5樓活動中心,拱北里、烘內里、鄉長里、八連里、湖興里、江北里,徐延平,963107104.0,否,1300.0,1249,7906.0,是,是,是,是,否,121.645075,25.089142
278,是,是,否,SF221-00018,65000,樟樹國際實創中學,汐止區,65000110,忠孝里,新北市汐止區樟樹二路135號,信義樓5樓,樟樹里、忠孝里、北峰里、北山里、福山里、宜興里、中興里、厚德里、金龍里、福德里、興福里、康福里、忠山里、環河里、東勢里、山光里,徐延平,963107104.0,否,634.0,275,4530.0,是,是,是,是,否,121.639704,25.065826
279,是,是,否,SF221-00019,65000,秀峰國小,汐止區,65000110,秀山里,新北市汐止區仁愛路90號,一樓多功能教室,秀山里、秀峰里、福安里、信望里、白雲里、自強里,徐延平,963107104.0,是,942.0,306,6928.0,否,是,是,是,否,121.661556,25.062576
280,是,是,否,SF221-00020,65000,長安國小,汐止區,65000110,長安里,新北市汐止區長興街一段80號,五守樓地下室,長安里、橋東里、保安里、保長里、拱北里、鄉長里、崇德里、建成里、城中里、保新里、烘內里,徐延平,963107104.0,否,785.0,889,4508.0,是,是,是,是,否,121.6707,25.079384
281,是,是,否,SF221-00021,65000,保長國小,汐止區,65000110,保安里,新北市汐止區大同路三段553號,綠意樓四樓-樂活館,保安里、茄苳里、保長里、東山里、崇德里、保新里,徐延平,963107104.0,否,410.0,794,1701.0,否,是,是,是,否,121.680275,25.071925
282,是,是,否,SF221-00022,65000,北峰國小,汐止區,65000110,中興里,新北市汐止區環河街1號,體育館2樓,福德里、環河里、中興里、興福里、康福里、樟樹里、北峰里、北山里、橫科里,徐延平,963107104.0,是,1745.0,4483,5007.27,是,是,是,是,否,121.632833,25.063819
283,是,是,是,SF221-00023,65000,東山國小,汐止區,65000110,東山里,新北市汐止區汐平路二段76號,小禮堂-勤學樓2樓,東山里,徐延平,963107104.0,否,82.0,80,500.0,否,否,是,否,是,121.699725,25.059847
284,是,是,否,SF221-00024,65000,汐止綜合運動場(防災公園),汐止區,65000110,秀峰里,新北市汐止區忠孝東路9號,,禮門里、智慧里、秀峰里、新昌里、白雲里、自強里、文化里、福安里、秀山里,徐延平,963107104.0,是,1001.0,0,8008.0,是,是,是,是,是,121.666603,25.075861
285,是,是,否,SF221-00025,65000,忠山市民活動中心,汐止區,65000110,忠山里,新北市汐止區忠山里忠三街8號,1樓,忠山里,徐延平,963107104.0,是,247.0,469.51,1046.4,是,是,是,是,否,121.624411,25.078356
286,是,是,否,SF221-00026,65000,王母救世宮,汐止區,65000110,保長里,新北市汐止區保長里長興街二段50巷50號,1樓,保長里,徐延平,963107104.0,是,20.0,0,160.0,是,是,是,是,否,121.676694,25.08202
287,是,是,否,SF239-0002,65000,北鶯市民活動中心,鶯歌區,65000080,北鶯里,新北市鶯歌區仁愛路55號,區公所5樓,鶯歌區(該地區所包含之每一里別),謝孟儒,921101362.0,是,37.0,37,0.0,是,是,是,是,是,121.354363,24.955933
288,是,是,是,SF239-0003,65000,西鶯市民活動中心,鶯歌區,65000080,西鶯里,新北市鶯歌區中正一路203號,活動中心1、2樓,鶯歌區(該地區所包含之每一里別),謝孟儒,970006820.0,是,207.0,829,0.0,是,是,是,是,是,121.353554,24.957222
289,是,是,否,SF239-0005,65000,中湖市民活動中心,鶯歌區,65000080,中湖里,新北市鶯歌區中湖街25號,活動中心1樓,中湖里、大湖里、鳳鳴里、鳳祥里、鳳福里、東湖里,謝孟儒,970006820.0,是,119.0,478,0.0,是,是,是,是,是,121.348664,24.972935
290,是,是,否,SF239-0006,65000,新北市立尖山國民中學,鶯歌區,65000080,尖山里,新北市鶯歌區國中街1號,圖書館5樓、表藝教室4樓、音樂教室5樓、風雨操場,尖山里、南靖里,總務主任凌玉芳  ,911089901.0,是,312.0,441,1620.0,是,是,是,是,否,121.341852,24.945335
291,是,是,否,SF239-0007,65000,新北市立鳳鳴國民中學,鶯歌區,65000080,鳳鳴里,新北市鶯歌區永和街33號,行政大樓三樓會議室、行政大樓五樓視聽中心、操場,鳳鳴里、鳳福里.鳳祥里、大湖里,總務主任呂經偉,939769136.0,是,991.0,719,6500.0,是,是,是,是,否,121.331769,24.967073
292,是,是,否,SF239-0008,65000,新北市立鶯歌國民中學,鶯歌區,65000080,同慶里,新北市鶯歌區尖山埔路108號,活動中心、視聽教室(新明樓1樓)、情境教室(新明樓1樓)、操場、籃球場、內集合場,建德里、中鷹里、北鷹里、同慶里、東鶯里、永昌里,總務主任黃健忠,922980236.0,是,1688.0,2905.18,7700.0,是,是,是,是,否,121.344826,24.95041
293,是,是,否,SF239-0009,65000,新北市立鶯歌高級工商職業學校,鶯歌區,65000080,二橋里,新北市鶯歌區中正三路154號,活動中心1、2樓、行政大樓5樓會議室、行政大樓9樓禮堂、操場,二橋里,校長陳書筆,933023332.0,是,1514.0,3836.92,4440.24,是,是,是,是,否,121.335003,24.939285
294,是,是,否,SF239-0010,65000,新北市鶯歌區中湖國民小學,鶯歌區,65000080,中湖里,新北市鶯歌區中湖街25號,禮堂、樂馨樓地下室、操場    ,中湖里、東湖里,總務主任李若水,966010939.0,是,499.0,742,2516.4,是,是,是,是,否,121.348664,24.972935
295,是,是,否,SF239-0011,65000,新北市鶯歌區二橋國民小學,鶯歌區,65000080,二橋里,新北市鶯歌區中正三路106號,活動中心-行政大樓5樓、圖書館+健康中心-行政大樓1樓、行政大樓地下室、操場、籃球場、風雨操場,二甲里、二橋里,總務主任謝家維,912019725.0,是,1372.0,2409,6160.0,是,是,是,是,否,121.337806,24.940944
296,是,是,否,SF239-0012,65000,新北市鶯歌區建國國民小學,鶯歌區,65000080,建國里,新北市鶯歌區育英街2號,交通安全情境教室-向陽樓4F、樂活教室-向陽樓5F、桌球教室-向陽樓B1、操場,建國里、西鶯里、南鶯里'中鶯里,校長林建能,937013008.0,是,560.0,640,3200.0,是,是,是,是,否,121.34658,24.954965
297,是,是,否,SF239-0013,65000,新北市鶯歌區昌福國民小學,鶯歌區,65000080,永昌里,新北市鶯歌區永明街22號,體育館-健康樓4樓、多功能教室-健康樓三樓、操場  ,永昌里、同慶里,校長林烈群,919953142.0,是,1065.0,1082,6360.0,是,是,是,是,否,121.339162,24.955644
298,是,是,否,SF239-0014,65000,新北市鶯歌區永吉國民小學,鶯歌區,65000080,永吉里,新北市鶯歌區德昌二街2號,校舍一樓(本校單一棟，無棟名)、校舍二樓(本校單一棟，無棟名)、校舍三樓(本校單一棟，無棟名)、操場,永吉里、鳳祥里,林詩雯,928567033.0,是,2097.0,7921,936.0,是,是,是,是,否,121.332913,24.958766
299,是,是,否,SF239-0015,65000,新北市鶯歌區鳳鳴國民小學,鶯歌區,65000080,鳳鳴里,新北市鶯歌區永和街120號,明德樓5樓、仁愛樓B1、演藝廳、操場,鳳鳴里、大湖里、鳳福里、鳳祥里,總務主任石銘華,911955117.0,是,492.0,730,2480.0,是,是,是,是,否,121.334975,24.968371
300,是,是,否,SF239-0016,65000,新北市鶯歌區鶯歌國民小學,鶯歌區,65000080,同慶里,新北市鶯歌區尖山埔路106號,活動中心、體育器材室含掃具室、智圓樓地下停車場、操場,建德里、中鶯里、北鶯里、同慶里、東鶯里、永昌里,吳嘉龍,918903376.0,是,2250.0,5700,6600.0,是,是,是,是,否,121.345764,24.951181
301, 是,是,是,SF237-0001,65000,有木國小,三峽區,65000090,有木里,新北市三峽區有木里有木里131號,行政教學樓3樓、 E棟宿舍樓2樓、 田徑場,有木里,王來因,922897400.0,是,650.0,200,4800.0,是,是,是,是,是,121.43274,24.86278
302, 是,是,否,SF237-0002,65000,長青市民活動中心,三峽區,65000090,永館里,新北市三峽區永館里中山路69號,1樓,三峽里、秀川里、八張里、弘道里、中埔里、永館里、鳶山里,王來因,922897400.0,是,166.0,666,0.0,是,是,是,是,否,121.367063,24.93487
303, 是,是,是,SF237-0003,65000,竹崙市民活動中心,三峽區,65000090,竹崙里,新北市三峽區竹崙里竹崙146號,1樓,竹崙里,王來因,922897400.0,是,94.0,377,0.0,是,是,是,是,是,121.434898,24.908778
304, 是,是,否,SF237-0004,65000,建安國小,三峽區,65000090,安坑里,新北市三峽區安坑里建安67號,行政樓2樓風雨教室、教學樓2樓螢光劇場、教學樓1樓Happy Go遊戲室、操場,安坑里、成福里,王來因,922897400.0,是,277.0,250,1725.0,是,是,是,是,否,121.447352,24.926561
305, 是,是,否,SF237-0005,65000,大有市民活動中心,三峽區,65000090,插角里,新北市三峽區插角里插角25之1號,1樓,有木里、插角里,王來因,922897400.0,是,148.0,592,0.0,是,是,是,是,否,121.40447,24.872573
306, 是,是,否,SF237-0006,65000,五寮市民活動中心,三峽區,65000090,五寮里,新北市三峽區五寮里五寮路89之7號,1樓,五寮里,王來因,922897400.0,是,137.0,550,0.0,是,是,是,是,否,121.35932,24.85684
307, 是,是,否,SF237-0007,65000,明德高級中學,三峽區,65000090,大埔里,新北市三峽區大埔里中正路2段399號,體健館、排球館、 田徑場,二鬮里、大埔里、添福里、金圳里、五寮里,王來因,922897400.0,是,1181.0,1727,6000.0,是,是,是,是,否,121.542621,24.97027
308, 是,是,否,SF237-0008,65000,成福國小,三峽區,65000090,溪東里,新北市三峽區溪東里溪東路213號,活動中心2樓、視聽教室、操場,溪東里、溪南里、溪北里、成福里、安坑里,王來因,922897400.0,否,112.0,200,500.0,是,是,是,是,否,121.405689,24.933202
309, 是,是,否,SF237-0009,65000,台北榮家,三峽區,65000090,嘉添里,新北市三峽區嘉添里白雞127號,中正紀念堂2樓集會堂,添福里、嘉添里、竹崙里,王來因,922897400.0,否,617.0,2220,500.0,是,是,是,是,否,121.393706,24.910247
310, 是,是,否,SF237-0010,65000,三峽國小,三峽區,65000090,永館里,新北市三峽區永館里中山路16號,活動中心1樓、3樓、操場、綜合球場,永館里、秀川里、鳶山里、三峽里、八張里、中埔里、弘道里,王來因,922897400.0,是,1283.0,1869,6533.0,是,是,是,是,否,121.36755,24.935
311, 是,是,否,SF237-0011,65000,中園國小,三峽區,65000090,中埔里,新北市三峽區中埔里弘園街22號,圖書館c棟5樓、社教中心c棟1樓、操場,中埔里、弘道里、八張里、三峽里,王來因,922897400.0,是,761.0,570,4956.0,是,是,是,是,否,121.367185,24.927828
312, 是,是,否,SF237-0012,65000,介壽國小,三峽區,65000090,介壽里,新北市三峽區介壽里大同路1號,至美樓4樓活動中心、晉學樓4樓表演教室甲-、風雨操場,礁溪里、介壽里、中正里、溪南里、溪北里、安溪里、溪東里,王來因,922897400.0,是,150.0,192,817.0,是,是,是,是,否,121.378115,24.929527
313, 是,是,是,SF237-0013,65000,大埔國小,三峽區,65000090,大埔里,新北市三峽區大埔里大埔路130號,多功能教室1-樂學樓1樓、圖書館-樂學樓2樓、3樓、操場、風雨操場、籃球場,五寮里、大埔里、金圳里、二鬮里、插角里、有木里,王來因,922897400.0,是,564.0,226,4071.0,是,是,是,是,是,121.366464,24.905743
314, 是,是,否,SF237-0014,65000,大成國小,三峽區,65000090,成福里,新北市三峽區成福里成福路251巷2號,自然教室-後棟大樓1樓、活動教室-前棟大樓2樓、英語教室-後棟大樓1樓、操場,竹崙里、成福里、溪東里、安坑里,王來因,922897400.0,是,283.0,100,2071.0,是,是,是,是,否,121.427503,24.924215
315, 是,是,否,SF237-0015,65000,安溪國小,三峽區,65000090,安溪里,新北市三峽區安溪里中華路42號,行政大樓-5樓綜合教室、4樓視聽教室、風雨操場,礁溪里、安溪里、介壽里,王來因,922897400.0,是,72.0,127,321.0,是,是,是,是,否,121.372221,24.931222
316, 是,是,否,SF237-0016,65000,民義國小,三峽區,65000090,嘉添里,新北市三峽區嘉添里白雞路40號,校園東側迎曦樓1樓綜合教室、校園西側耕讀樓2樓圖書會議室、耕讀樓2樓圖書室、風雨操場,嘉添里、添福里、中正里、插角里,王來因,922897400.0,否,102.0,56,709.0,是,是,是,是,否,121.376084,24.911702
317, 是,是,否,SF237-0017,65000,三峽國中,三峽區,65000090,鳶山里,新北市三峽區鳶山里復興路238號,學生活動中心2樓、綜合活動教室(二)-和平樓地下室、跆拳道教室-至善樓地下室、操場,永館里、龍埔里、龍恩里、龍學里、鳶山里、秀川里,王來因,922897400.0,是,1568.0,1858,8836.0,是,是,是,是,否,121.364827,24.938814
318, 是,是,否,SF237-0018,65000,安溪國中,三峽區,65000090,中正里,新北市三峽區中正里大同路135號,活動中心4樓綜合球場、活動中心地下1樓、操場,礁溪里、介壽里、安溪里、中正里、大埔里、嘉添里、金圳里、二鬮里,王來因,922897400.0,是,1000.0,500,7000.0,是,是,是,是,否,121.372762,24.926568
319, 是,是,否,SF237-0019,65000,龍埔國小,三峽區,65000090,龍埔里,新北市三峽區龍埔里大學路6號,F棟桌球室地下1樓、F棟韻律教室地下1樓、操場,龍埔里、龍學里、龍恩里、溪北里、溪南里,王來因,922897400.0,是,767.0,267,5600.0,是,是,是,是,否,121.37093,24.939629
320, 是,是,否,SF237-0020,65000,北大高級中學,三峽區,65000090,龍學里,新北市三峽區龍學里大義路277號,1樓羽球場、1樓閱覽室、操場,龍學里、龍恩里、龍埔里,王來因,922897400.0,是,325.0,300,2000.0,是,是,是,是,否,121.376106,24.948608
321, 是,是,否,SF237-0021,65000,北大國小,三峽區,65000090,龍埔里,新北市三峽區龍埔里國光街100號,體育館、社區教室,龍埔里、龍學里、龍恩里,王來因,922897400.0,是,341.0,1362,0.0,否,是,是,是,否,121.372987,24.939198
322,是,是,是,SF224-0001,65000,瑞芳區公所,瑞芳區,65000120,龍鎮里,新北市瑞芳區龍鎮里逢甲路82號,3樓禮堂,龍鎮里.龍興里.龍山里.龍安里,吳佳洲,921929438.0,否,116.0,462,0.0,是,是,是,是,是,121.809859,25.10889
323,是,是,否,SF224-0002,65000,瑞芳國小,瑞芳區,65000120,龍川里,新北市瑞芳區龍川里中山路2號,活動中心 千禧樓地下室,龍潭里.龍川里.龍興里.龍安里.東和里,楊惠珍,960660411.0,是,798.0,890,4600.0,是,是,是,是,否,121.804954,25.107368
324,是,是,是,SF224-0003,65000,瑞龍市民活動中心,瑞芳區,65000120,龍興里,新北市瑞芳區龍興里明燈路三段2號,3樓,龍潭里.龍川里.龍興里.龍鎮里,賴怡安,933297776.0,是,582.0,2326,0.0,是,是,是,是,是,121.808896,25.10777
325,是,是,否,SF224-0004,65000,瑞芳高工,瑞芳區,65000120,龍安里,新北市瑞芳區龍安里瑞芳街60號,中正堂2樓 體育館3樓,龍安里.龍山里,蔡須全,932381187.0,是,1246.0,2273,5424.0,是,是,是,是,否,121.804682,25.110733
326,是,是,否,SF224-0005,65000,瑞芳國中,瑞芳區,65000120,新峰里,新北市瑞芳區新峰里三爪子坑路1號,活動中心1樓 生活自理教室1樓,爪峯里.新峰里,江文傑,919912209.0,是,1827.0,1660,11295.0,是,是,是,是,否,121.814521,25.107445
327,是,是,否,SF224-0006,65000,濂洞國小,瑞芳區,65000120,濂洞里,新北市瑞芳區濂洞里洞頂路101巷80號,活動中心 圖書室 多功能教室,濂洞里.濂新里.南雅里,李治民,918677906.0,是,229.0,465,900.0,是,是,是,是,否,121.860068,25.12235
328,是,是,否,SF224-0007,65000,鼻頭國小,瑞芳區,65000120,鼻頭里,新北市瑞芳區鼻頭里鼻頭路99號,禮堂 圖書室 英語教室,南雅里、鼻頭里,吳紀暉,933229227.0,是,166.0,463,400.0,是,是,是,是,否,121.923493,25.128628
329,是,是,否,SF224-0008,65000,吉慶國小,瑞芳區,65000120,吉安里,新北市瑞芳區吉安里大埔路95號,禮堂1樓 創意樓4.5樓 ,上天里.吉安里.吉慶里,剛慶嚴,922336549.0,是,374.0,515,1961.0,是,是,是,是,否,121.76436,25.101274
330,是,是,否,SF224-0009,65000,猴硐國小,瑞芳區,65000120,弓橋里,新北市瑞芳區弓橋里九芎橋路69-1號,藝文教室1樓 自然教室1樓 多功能教室2樓 ,弓橋里.侯硐里.光復里.碩仁里,林憲輝,930778218.0,是,83.0,180,300.0,是,是,是,是,否,121.833936,25.096538
331,是,是,否,SF224-0010,65000,九份國小,瑞芳區,65000120,永慶里,新北市瑞芳區永慶里崙頂路145號,禮堂 八德樓2樓視聽教室 圖書館,崇文里.永慶里.頌德里.基山里.福住里,左志方,922185543.0,是,339.0,464,1782.0,是,是,是,是,否,121.846323,25.107276
332,是,是,否,SF224-0011,65000,瑞濱市民活動中心,瑞芳區,65000120,瑞濱里,新北市瑞芳區瑞濱里建基路一段4-2號,1.2樓,深澳里.海濱里.瑞濱里,胡長安,953699991.0,是,116.0,462,0.0,是,是,是,是,否,121.817685,25.127158
333,是,是,否,SF224-0012,65000,勸濟堂,瑞芳區,65000120,銅山里,新北市瑞芳區銅山里祈堂路53號,3.4樓,銅山里.石山里.新山里.瓜山里,陳嶽生,987011206.0,是,176.0,202,0.0,是,是,是,是,否,121.85601,25.108292
334,是,是,否,SF224-0013,65000,瓜山國小,瑞芳區,65000120,瓜山里,新北市瑞芳區瓜山里五號路306巷,禮堂 第二圖書館 淘金教室,銅山里.石山里.新山里.瓜山里,馮大明,936853120.0,是,233.0,810,242.0,是,是,是,是,否,121.84961,25.101286
335,是,是,否,SF224-0014,65000,深澳市民活動中心,瑞芳區,65000120,深澳里,新北市瑞芳區深澳里深澳路67-1號,1樓活動中心,深澳里.海濱里.瑞濱里,賴孟宏,932261334.0,否,113.0,453,0.0,是,是,是,是,否,121.817485,25.128968
336,是,是,否,SF224-0015,65000,威遠廟,瑞芳區,65000120,濂新里,新北市瑞芳區濂新里明里路7-1號,1樓,濂新里,黃瑞聰,910280345.0,是,83.0,331,0.0,是,是,是,否,否,121.863709,25.122203
337,是,是,否,SF224-0016,65000,傑魚市民活動中心,瑞芳區,65000120,傑魚里,新北市瑞芳區傑魚里傑魚坑路245巷2-1號2樓,2樓,傑魚里.東和里,周清標,932925920.0,是,232.0,927,0.0,是,是,是,是,是,121.793384,25.110485
338,是,是,否,SF224-0017,65000,東和市民活動中心,瑞芳區,65000120,東和里,新北市瑞芳區東和里中山路20號,1.2樓,東和里.龍潭里,周樹木,935035876.0,是,162.0,380,0.0,是,是,是,否,否,121.804286,25.106377
339,是,是,否,SF224-0018,65000,爪峰市民活動中心,瑞芳區,65000120,爪峯里,新北市瑞芳區爪峯里三爪子坑路279-2號,3樓,新峰里.爪峯里,簡明慧,932072431.0,是,162.0,648,0.0,是,是,是,是,否,121.80862,25.105373
340,是,是,否,SF224-0019,65000,福住第二市民活動中心,瑞芳區,65000120,福住里,新北市瑞芳區福住里佛堂巷7號,1樓,福住里,蘇進益,935788690.0,是,54.0,215,0.0,是,是,是,是,否,121.842174,25.106762
341,是,是,否,SF224-0020,65000,新山市民活動中心,瑞芳區,65000120,新山里,新北市瑞芳區新山里金光路241號之1,1樓,新山里,吳苓芳,912247628.0,否,41.0,165,0.0,是,是,是,是,否,121.84963,25.109262
342,是,是,否,SF224-0021,65000,瑞濱國小,瑞芳區,65000120,瑞濱里,新北市瑞芳區瑞濱里瑞濱路34號,活動中心2樓 風雨操場3樓 綜合教室,深澳里.海濱里.瑞濱里,王喬木,920112974.0,是,266.0,763,600.0,是,是,是,是,否,121.819121,25.119604
343,否,是,否,SF224-0022,65000,瑞芳棒球場,瑞芳區,65000120,柑坪里,新北市瑞芳區明燈路1段201巷,棒球場,柑坪里、龍鎮里、,林泓廷,919628699.0,是,951.0,0,10700.0,是,是,是,是,否,121.809044,25.107371
344,是,是,否,SF224-0023,65000,海濱市民休閒場地,瑞芳區,65000120,海濱里,新北市瑞芳區濱二路68-1號,1樓,瑞濱里、海濱里,鄧麗華,919918389.0,是,54.0,218.3,0.0,是,是,是,是,否,121.839942,25.114005
345,是,是,是,SF251-0001,65000,長庚市民活動中心,淡水區,65000100,長庚里,新北市淡水區中山路72巷1弄10號,活動中心1樓,樹興里、竿蓁里、鄧公里、中興里、長庚里、清文里、草東里、永吉里、民安里、幸福里、學府里,吳書嫺,919337212.0,是,74.0,296,0.0,否,是,是,否,是,121.443191,25.17113
346,是,是,是,SF251-0002,65000,民生市民活動中心,淡水區,65000100,民生里,新北市淡水區民生路27號,活動中心6樓,竹圍里、福德里、民權里、民生里、坪頂里,吳書嫺,919337212.0,是,72.0,290,0.0,否,是,是,否,是,121.461554,25.138047
347,是,是,否,SF251-0004,65000,中興市民活動中心,淡水區,65000100,中興里,新北市淡水區水源街1段29號,活動中心1樓,中興里、幸福里、鄧公里、協元里、長庚里、清文里、草東里、永吉里、民安里、幸福里,吳書嫺,919337212.0,是,57.0,228,0.0,否,是,是,否,否,121.442523,25.172495
348,是,是,否,SF251-0005,65000,淡海市民活動中心,淡水區,65000100,大庄里,新北市淡水區淡海路111號,活動中心1樓,沙崙里、油車里、大庄里,吳書嫺,919337212.0,是,149.0,596,0.0,是,是,是,是,否,121.4217,25.182487
349,是,是,否,SF251-0006,65000,竿蓁市民活動中心,淡水區,65000100,竿蓁里,新北市淡水區中正東路1段3巷6號,活動中心2樓,八勢里、竿蓁里、坪頂里,吳書嫺,919337212.0,是,193.0,772,0.0,是,是,是,是,否,121.445062,25.168781
350,是,是,是,SF251-0007,65000,新興市民活動中心,淡水區,65000100,新義里,新北市淡水區大義街18號,活動中心3樓,新義里、新民里、新春里、正德里、北新里、水碓里、新興里,吳書嫺,919337212.0,是,446.0,1787,0.0,是,是,是,否,是,121.443054,25.178396
351,是,是,否,SF251-0008,65000,淡水國小,淡水區,65000100,協元里,新北市淡水區中山路160號,明德樓3樓、明德樓地下室、忠孝樓地下室、操場,協元里、清文里、草東里、永吉里、新生里、文化里、新義里,譚怡君,932144599.0,    是,664.0,1024,3270.0,是,是,是,是,否,121.441363,25.173376
352,是,是,否,SF251-0009,65000,鄧公國小,淡水區,65000100,學府里,新北市淡水區學府路99號,世紀樓五樓禮堂、風雨操場、群英、集思、勤學樓的地下室、操場,學府里、鄧公里、幸福里、竿蓁里、中興里、長庚里、樹興里,陳信安,921900273.0,是,974.0,2650,2500.0,是,是,是,否,否,121.449293,25.171313
353,是,是,否,SF251-0010,65000,竹圍國小,淡水區,65000100,八勢里,新北市淡水區中正東路2段145號,本棟-地下室、風雨操場、操場,八勢里、竹圍里、民生里、民權里,陳月玲,920635120.0,是,800.0,1700,3000.0,是,是,是,是,否,121.445062,25.168781
354,是,是,否,SF251-0011,65000,育英國小,淡水區,65000100,埤島里,新北市淡水區埤島里14號,觀山樓2樓綜合教室、圖書館、操場,埤島里、義山里、興仁里、忠山里,林文安,953907923.0,是,357.25,485,1890.0,是,是,是,否,否,121.45161,25.196259
355,是,是,否,SF251-0012,65000,興仁國小,淡水區,65000100,興仁里,新北市淡水區興仁路101巷10號,地下室-教學大樓地下室、學生活動中心-教學大樓五樓、操場,興仁里、義山里、賢孝里、屯山里、蕃薯里、中和里,陳曉音,918973963.0,是,671.0,1187,3000.0,是,是,是,否,否,121.451097,25.21748
356,是,是,否,SF251-0013,65000,坪頂國小,淡水區,65000100,坪頂里,新北市淡水區坪頂路757號,D棟校舍(幼兒園)地下室、A棟校舍二樓禮堂、D棟校舍二樓圖書館、前操場,坪頂里、樹興里,王昱媞,937937821.0,是,413.0,154,3000.0,是,是,是,是,否,121.483894,25.158093
357,是,是,否,SF251-0014,65000,忠山國小,淡水區,65000100,忠山里,新北市淡水區行忠路899號,明智館教學大學2樓、操場,忠山里、忠寮里、蕃薯里、義山里、水源里,蔡誌晴,921577531.0,是,212.0,100,1500.0,是,否,是,是,否,121.479981,25.200448
358,是,是,否,SF251-0015,65000,水源國小,淡水區,65000100,水源里,新北市淡水區北新路2段15號,行政大樓2樓禮堂、專科教室2樓韻律教室、行政大樓3樓樂活教室、操場,水源里、忠寮里,黃孟嬌,919286706.0,是,495.0,180,3600.0,是,否,是,是,否,121.444278,25.177624
359,是,是,否,SF229-0016,65000,屯山國小,淡水區,65000100,屯山里,新北市淡水區淡金路五段111號,觀山樓地下室、長虹樓彩虹教室、風雨操場,屯山里、賢孝里、興仁里、中和里,李孟夙,922409243.0,是,155.375,342,563.0,是,是,是,否,否,121.456364,25.237342
360,是,是,否,SF251-0017,65000,淡水商工,淡水區,65000100,埤島里,新北市淡水區商工路307號,朝陽館1樓、學生宿舍、操場,埤島里、忠寮里、北投里、水源里,顏祺晃,927941376.0,是,2508.0,6059,7952.0,是,是,是,是,否,121.454026,25.18676
361,是,是,否,SF251-0018,65000,天生國小,淡水區,65000100,油車里,新北市淡水區淡海路72巷26號,行政大樓地下室1樓、學生活動中心-教學大樓五樓、操場,沙崙里、油車里、大庄里,盧欣暐,913860319.0,是,797.0,550,5284.0,是,是,是,是,否,121.424287,25.181561
362,是,是,否,SF251-0019,65000,新興國小,淡水區,65000100,新興里,新北市淡水區新興街123號,觀海樓地下1樓、摘星樓星光威秀展演空間、望月樓一樓(桌球教室)、操場,新興里、新春里、新民里、新義里、沙崙里、崁頂里、水碓里,曾昭輝,914030321.0,是,724.0,1650,2500.0,是,是,是,是,否,121.440027,25.179684
363,是,是,否,SF251-0020,65000,文化國小,淡水區,65000100,文化里,新北市淡水區真理街6號,5樓活動中心、真理樓地下室、操場,文化里、新生里、民安里,徐文玲,932345248.0,是,432.0,530,2400.0,是,是,是,否,否,121.437546,25.173705
364,是,是,否,SF251-0021,65000,中泰國小,淡水區,65000100,中和里,新北市淡水區北勢子5號,小集會場所-豔陽樓2樓、圖書館-晨曦樓3樓、操場,中和里、蕃薯里、屯山里、賢孝里,張之晧,935822892.0,是,497.0,616,2750.0,是,否,是,是,否,121.484378,25.224224
365,是,是,否,SF251-0022,65000,竹圍國小自強分校,淡水區,65000100,福德里,新北市淡水區自強路33號,1樓,福德里,呂幸宜,953620265.0,是,207.0,330,1000.0,是,否,是,是,否,121.46285,25.127008
366,是,是,否,SF251-0023,65000,竹圍高中,淡水區,65000100,八勢里,新北市淡水區竹林路35號,至真樓4樓活動中心、綜合大樓地下一樓停車場、至美樓地下一樓柔道場、大操場,八勢里、竹圍里、民生里、民權里、福德里,林義舜,953850920.0,是,1695.0,2400,8765.0,是,否,是,是,否,121.461718,25.146035
367,是,是,否,SF251-0024,65000,正德國中,淡水區,65000100,正德里,新北市淡水區北新路109號,5樓綜合教室、風雨操場、地下停車場、運動場,正德里、北新里、崁頂里、水碓里、北投里,王啓浩,933436218.0,是,1598.0,4206,4380.0,是,是,是,是,否,121.446853,25.178483
368,是,是,否,SF251-0025,65000,淡水國中,淡水區,65000100,文化里,新北市淡水區真理街10號,誠正樓地下室(為學生桌球課程場地)、中正堂1樓(為學生雨天室內活動場地)、二校區操場、籃球場、中庭廣場、二校區操場、籃球場、中庭廣場,文化里、油車里、新民里、新生里,王心郁,932210527.0,是,1608.0,2812,7240.0,是,是,是,是,否,121.436724,25.174719
369,是,是,否,SF251-0026,65000,新市國小,淡水區,65000100,北投里,新北市淡水區中山北路2段200號,多功能教室-A棟2樓、幼兒園-B棟一樓、操場,北投里、埤島里、崁頂里、新春里,洪壽嶸,921281079.0,是,1220.0,880,8000.0,是,是,是,否,否,121.528371,25.087222
370,否,是,否,SF251-0027,65000,水源里活動中心,淡水區,65000100,水源里,新北市淡水區北新路2段15號,活動中心1樓,水源里,郭哲銘,912905356.0,否,72.0,288,0.0,是,是,是,是,否,121.444278,25.177624
371,否,是,否,SF251-0028,65000,樹興里活動中心,淡水區,65000100,樹興里,新北市淡水區樹林口14之2號,活動中心1樓,樹興里,陳健宏,918131071.0,否,59.0,236,0.0,是,否,否,是,否,121.479026,25.168091
372,否,是,否,SF251-0029,65000,興音寺,淡水區,65000100,樹興里,新北市淡水區興福寮1之6號,1-3樓,樹興里,陳健宏,918131071.0,否,50.0,200,0.0,是,否,否,是,否,121.48835,25.163997
373,否,是,否,SF251-0030,65000,真聖宮,淡水區,65000100,樹興里,新北市淡水區興福寮6之1號,1樓,樹興里,陳健宏,918131071.0,否,50.0,200,0.0,是,否,否,是,否,121.49217,25.165542
374,是,是,否,SF251-0032,65000,公八防災公園,淡水區,65000100,崁頂里,新北市淡水區中山北路二段381巷2號,公園綠地,中和里、屯山里、賢孝里、興仁里、蕃薯里、義山里、忠山里、崁頂里、埤島里、水碓里、新興里、北投里、水源里、忠寮里、樹興里、坪頂里、福德里、竹圍里、民生里、八勢里、竿蓁里、鄧公里、中興里、長庚里、清文里、草東里、協元里、永吉里、民安里、新生里、文化里、油車里、沙崙里、新義里、新春里、新民里、正德里、北新里、民權里、幸福里、學府里、大庄里,吳書嫺,919337212.0,否,1087.0,0,8700.0,否,否,是,否,否,121.4427,25.187149
375,是,否,否,SF251-0033,65000,前山營區 ,淡水區,65000100,福德里,新北市淡水區自立路17 號,1樓,福德里、民權里,吳書嫺,919337212.0,否,60.0,200,0.0,是,是,是,是,否,121.462494,25.129598
376,是,否,否,SF251-0034,65000,后山營區,淡水區,65000100,福德里,新北市淡水區自強路419號,1樓,福德里、民權里,吳書嫺,919337212.0,否,60.0,200,0.0,是,是,是,是,否,121.46567,25.134157
377,是,是,否,SF251-0035,65000,真理大學,淡水區,65000100,文化里,新北市淡水區真理街32號,交誼廳,文化里、新生里、協元里、新民里、油車里,廖忠山,932118440.0,是,118.0,473,0.0,是,是,是,是,否,121.434601,25.175558
378,是,是,否,SF251-0036,65000,淡江大學,淡水區,65000100,中興里,新北市淡水區英專路151號,學生活動中心,中興里、幸福里、鄧公里、學府里、北新里、正德里,陳玥合,978035334.0,是,211.0,842,0.0,是,是,是,是,否,121.447099,25.173829
379,是,是,否,SF251-0037,65000,臺北基督學院,淡水區,65000100,福德里,新北市淡水區自強路51號,體育館1樓,福德里、民權里、竹圍里,王建智,955127991.0,是,156.0,625,0.0,是,是,是,是,否,121.461543,25.131283
380,是,是,否,SF251-0038,65000,聖約翰科技大學,淡水區,65000100,賢孝里,新北市淡水區淡金路四段499號,百齡堂,賢孝里、興仁里、屯山里、蕃薯里、中和里,郭淳汯,918182634.0,是,1000.0,4000,0.0,是,是,是,是,否,121.451673,25.226984
381,是,是,否,SF251-0039,65000,樹興里辦公處,淡水區,65000100,樹興里,新北市淡水區樹林口42之3號,1樓,樹興里,陳健宏,918131071.0,是,44.0,177,0.0,是,是,是,是,否,121.470438,25.168484
382,是,是,否,SF251-0040,65000,義山市民活動中心,淡水區,65000100,義山里,新北市淡水區奎柔山路1號、3號,地下1樓,義山里、忠山里、忠寮里、蕃薯里、興仁里,吳書嫺,919337212.0,是,162.0,482,338.52,是,是,是,是,否,121.474412,25.206675
383,否,是,否,SF251-0041,65000,淡江高中,淡水區,65000100,文化里,新北市淡水區真理街26號,體育館,文化里、協元里、新生里、新民里,邱文賓,928566351.0,是,2890.0,4500,14122.0,是,是,是,是,否,121.43583,25.17506
384,是,是,否,SF248-0001,65000,更新市民活動中心,五股區,65000150,更寮里,新北市五股區更寮里更洲路47號,1樓,興珍里、更寮里、集福里,李典倫,986079181.0,是,65.0,260,0.0,是,是,是,是,是,121.457261,25.079366
385,是,是,否,SF248-0003,65000,成功市民活動中心,五股區,65000150,成功里,新北市五股區成功里西雲路163號,2樓,成州里、成功里、成德里、六福里、成泰里,李典倫,986079181.0,是,100.0,400,0.0,是,是,是,是,是,121.44234,25.098822
386,是,是,否,SF248-0004,65000,成州市民活動中心,五股區,65000150,成州里,新北市五股區成州里西雲路267號,1樓,集福里、成州里、成功里、成德里、六福里、集賢里、成泰里,李典倫,986079181.0,是,75.0,300,0.0,是,是,是,是,是,121.449355,25.098099
387,是,是,否,SF248-0005,65000,新北市五股區立體停車場,五股區,65000150,五股里,新北市五股區五股里工商路3號,1樓,興珍里、更寮里、五股里、五福里、德音里,里幹事徐豐郁,916240757.0,是,550.0,2200,0.0,是,是,否,是,是,121.439278,25.08296
388,是,是,否,SF248-0006,65000,成州國民小學,五股區,65000150,成州里,新北市五股區成州里成泰路三段493號,禮堂1樓、操場及風雨操場,集福里、觀音里、成州里、成功里、五龍里、陸一里、成德里、六福里、集賢里,事務組長楊擎政,922298743.0,是,370.25,337,2294.0,是,是,是,是,否(備援),121.450517,25.099771
389,是,是,否,SF248-0007,65000,更寮國民小學,五股區,65000150,興珍里,新北市五股區興珍里四維路2號,樂群館2樓、操場,興珍里、更寮里,總務主任李聖文,910069063.0,是,288.0,425,1456.0,是,是,否,是,否(備援),121.467318,25.07092
390,是,是,否,SF248-0008,65000,五股國民小學,五股區,65000150,五股里,新北市五股區五股里成泰路二段49號,多功能教學大樓、1樓大會議室、2樓教室、3 樓體育館、操場及球場,五龍里、五股里、五福里、陸一里、民義里、福德里,事務組長呂雅萍,910371229.0,是,856.0,2453,1947.0,是,是,否,是,否(備援),121.437361,25.082653
391,是,是,否,SF248-0009,65000,德音國民小學,五股區,65000150,水碓里,新北市五股區水碓里明德路2號,維心樓113活動教室、維心樓114樂齡中心、風雨操場,德音里、貿商里、德泰里、民義里、水碓里、福德里,總務主任程麗華,921459263.0,是,118.0,120,704.0,是,是,否,是,否(備援),121.43455,25.071372
392,是,是,否,SF248-0010,65000,五股國民中學,五股區,65000150,五股里,新北市五股區五股里成泰路二段49巷15號,忠孝樓1樓飛鏢教室、813教室、風雨操場,五股里、五福里、貿商里、德泰里、水碓里,總務主任劉怡君,988658044.0,是,214.25,93,1535.0,是,否,否,是,否(備援),121.435723,25.083273
393,是,是,否,SF248-0011,65000,憲訓中心,五股區,65000150,德音里,新北市五股區德音里成泰路一段175號,生活區A棟3樓,德音里、貿商里、德泰里、水碓里,作訓科士官長簡世坪,917789687.0,否,686.0,2745,0.0,是,是,否,是,否(備援),121.434894,25.075847
394,是,是,是,SF248-0012,65000,公民會館,五股區,65000150,成泰里,新北市五股區成泰里御史路1巷59號,1樓,觀音里、五龍里、陸一里、民義里、成泰里、福德里,李典倫,986079181.0,是,182.0,731.23,0.0,是,是,是,是,是,121.440248,25.090328
395,是,是,否,SF248-0013,65000,觀音市民活動中心,五股區,65000150,觀音里,新北市五股區觀音里凌雲路三段17之2號,1樓,觀音里、集賢里,李典倫,986079181.0,是,149.0,599.41,0.0,是,是,是,是,是,121.429996,25.107677
396,是,是,否,SF248-0014,65000,防災體健公園,五股區,65000150,成德里,新北市五股區成德里成泰路三段與成州八路交叉,1樓,五股里、水碓里、成功里、成泰里、五福里、集賢里、集福里、成德里、德音里、五龍里、民義里、福德里、貿商里、里興珍、觀音里、陸一里、六福里、更寮里、德泰里、成州里,李典倫,986079181.0,是,1330.0,0,10642.0,是,是,是,是,是,,
397,是,是,否,SF249-0001,65000,龍米市民活動中心,八里區,65000230,龍源里,新北市八里區龍米路1段223號,1樓、3樓,龍源里、米倉里,陳盈臻,908627920.0,是,125.0,400,200.0,是,是,是,否,是,121.449138,25.138261
398,是,是,是,SF249-0003,65000,大崁老人活動中心,八里區,65000230,大崁里,新北市八里區大崁里中山路1段21號,1樓、2樓、3樓,大崁里、埤頭里、頂罟里,陳盈臻,908627920.0,是,100.0,400,,是,是,是,否,是,121.42386,25.158981
399,是,是,否,SF249-0004,65000,大埤頂市民活動中心,八里區,65000230,大崁里,新北市八里區中山路1段95號,1樓,大崁里、埤頭里、頂罟里,陳盈臻,908627920.0,是,70.0,280,,是,是,是,否,是,121.44421,25.169489
400,是,是,否,SF249-0005,65000,文化活動中心,八里區,65000230,舊城里,新北市八里區中山路2段251號1樓,1樓,舊城里、訊塘里、荖阡里,陳盈臻,908627920.0,是,100.0,400,,是,是,是,否,是,121.397711,25.077472
401,是,是,是,SF249-0006,65000,長坑市民活動中心,八里區,65000230,長坑里,新北市八里區中華路三段190號,1樓、2樓、3樓,下罟里、長坑里,陳盈臻,908627920.0,是,100.0,400,,是,是,是,否,是,121.389672,25.128335
402,是,是,否,SF249-0008,65000,八里國小,八里區,65000230,舊城里,新北市八里區中山路二段338號,朝陽樓B1、觀海樓B1、至善樓B1、運動場,舊城里、訊塘里,林炳宏總務主任,919589707.0,是,1151.0,1665,5886.0,是,是,是,否,否,121.403031,25.149515
403,是,是,否,SF249-0009,65000,大崁國小,八里區,65000230,大崁里,新北市八里區忠八街2號,B棟4樓綜合教室、B棟5樓風雨操場、操場,大崁里,呂立琪總務主任,935757748.0,是,956.0,942,5768.0,是,是,是,是,否,121.419406,25.160305
404,是,是,否,SF249-0010,65000,米倉國小,八里區,65000230,米倉里,新北市八里區龍米路2段129巷1號,朝陽樓2樓(大禮堂)、朝陽樓地下1樓(樂活館)、操場,米倉里,蔡佳玲總務主任,921083060.0,否,688.0,580,4350.0,是,是,是,是,否,121.458458,25.114582
405,是,是,否,SF249-0011,65000,長坑國小,八里區,65000230,長坑里,新北市八里區中華路三段236號,活動中心1樓、視聽教室2樓、籃球場,長坑里、下罟里,鍾榮進總務主任,918337371.0,否,242.0,220,1500.0,是,是,是,是,否,121.389328,25.126274
406,是,是,否,SF249-0012,65000,八里國中,八里區,65000230,荖阡里,新北市八里區荖阡坑路15號,活動中心、B1地下室空間、操場,荖阡里、長坑里、下罟里,陳俊傑總務主任,932080495.0,是,499.0,861.5,2275.0,是,是,是,是,否,121.400251,25.1404
407,是,是,否,SF249-0013,65000,聖心女中,八里區,65000230,龍源里,新北市八里區龍米路一段263號,聖心樓地下一樓風雨操場、操場司令台、行政大樓一樓小禮堂、操場,龍源里、米倉里,陳瑞璋總務主任,932000039.0,否,940.0,660,6200.0,是,是,是,是,否,121.449423,25.137398
408,是,是,否,SF249-0014,65000,商港公園,八里區,65000230,訊塘里,新北市八里區商港一路和商港八路交叉口,公園,訊塘里、舊城里、荖阡里,陳盈臻,908627920.0,是,1324.0,,5299.0,否,是,是,否,否,121.399935,25.150816
409,是,是,否,SF249-0015,65000,八里區公所文康活動中心 ,八里區,65000230,頂罟里,新北市八里區八里大道22號,1樓,埤頭里、頂罟里,陳盈臻,908627920.0,是,70.0,280,,是,是,是,否,是,121.406459,25.153317
410,是,是,否,SF249-0016,65000,聖心國小,八里區,65000230,龍源里,新北市八里區龍米路一段261號,活動中心1F、音樂教室2F、操場,龍源里,翁志弘總務主任,936706841.0,是,204.0,348,936.0,是,是,是,是,否,121.450368,25.134217
411,是,是,是,SF243-0001,65000,泰山區公所,泰山區,65000160,同榮里,新北市泰山區明志路1段322號,5樓展演廳,同榮里、同興里、福泰里、福興里,陳俊佑,980216198.0,是,53.0,214,0.0,是,是,是,是,是,121.424919,25.043431
412,是,是,否,SF243-0002,65000,泰山國中,泰山區,65000160,山腳里,新北市泰山區泰林路二段498號,學生活動中心、體育室,大科里、山腳里、黎明里,陳美蓮,,否,1052.0,1895.3,4661.0,是,是,否,是,否,121.42452,25.064008
413,是,是,否,SF243-0003,65000,黎明市民活動中心,泰山區,65000160,黎明里,新北市泰山區黎明路23號,活動中心1樓,黎明里、大科里,施呈林,980464588.0,否,21.0,86,0.0,是,是,否,是,否,121.420974,25.062742
414,是,是,否,SF243-0004,65000,泰山國小,泰山區,65000160,山腳里,新北市泰山區泰林路二段255號,學生活動中心,大科里、山腳里、黎明里、楓樹里,薛政宏,916913590.0,否,1305.0,1220,8000.0,是,是, 是,是,否,121.431285,25.062342
415,是,是,是,SF243-0005,65000,泰山體育館,泰山區,65000160,同榮里,新北市泰山區公園路54號,館內1及3樓,同榮里、同興里、義學里、義仁里、全興里,蔣雅淇,920235693.0,是,1280.0,2000,6240.0,是,是, 是,是,否,121.426599,25.055339
416,是,是,否,SF243-0006,65000,同榮國小,泰山區,65000160,同榮里,新北市泰山區公園路30號,教學大樓前棟及後棟地下一樓地上五樓,同榮里、義學里、義仁里,田聖山,936954268.0,否,1957.0,13584,3662.0,是,是, 是,是,否,121.429121,25.054367
417,是,是,否,SF243-0007,65000,義學國小,泰山區,65000160,義仁里,新北市泰山區民生路30號,人文樓與科技樓連接處下方的地下禮堂、人文樓與科技樓三樓連接廣場、人文樓與科技樓四樓連接廣場,明志里、義學里、義仁里、同榮里,張子韻,987875136.0,否,773.0,800,4585.0,是,是, 是,是,否,121.430493,25.05241
418,是,是,否,SF243-0008,65000,明志國小,泰山區,65000160,泰友里,新北市泰山區新生路2號,體育館-綜合大樓3F,明志里、新明里、泰友里、貴和里,張雅婷,912705418.0,否,1024.0,1346,5510.0,是,是, 是,是,否,121.427453,25.045245
419,是,是,否,SF243-0009,65000,義學國中,泰山區,65000160,義仁里,新北市泰山區民生路33號,專科大樓二樓-藝文教室一、專科大樓三樓-藝文教室五、專科大樓三樓-體健教室,義學里、義仁里、全興里,陳信全,978126508.0,否,573.0,240,4110.0,是,是, 是,是,否,121.430621,25.052138
420,是,是,否,SF243-0010,65000,泰山高中,泰山區,65000160,同榮里,新北市泰山區辭修路7號,四維堂禮堂,同榮里、同興里、福興里、全興里,劉宗鑫,963376996.0,否,570.0,1050,2471.0,是,是, 是,是,否,121.427988,25.058151
421,是,是,否,SF243-0011,65000,明志科技大學,泰山區,65000160,貴子里,新北市泰山區工專路84號,體育館3樓,貴子里、貴賢里、貴和里,邱明誌,921858959.0,否,1803.0,1230,11972.0,是,否, 是,是,是,121.419338,25.042631
422,是,是,否,SF243-0012,65000,黎明技術學院,泰山區,65000160,黎明里,新北市泰山區泰林路三段22號,體育館,大科里、黎明里、山腳里,陳佳記,953166619.0,否,1081.0,2292,4064.0,是,是, 是,是,否,121.419616,25.065895
423,是,是,否,SF243-0013,65000,明志市民活動中心,泰山區,65000160,明志里,新北市泰山區明志路二段426號,活動中心1、4、5樓,明志里、新明里、泰友里,陳春祈,937029602.0,否,20.0,80,0.0,是,否, 是,是,否,121.424712,25.043812
424,是,是,否,SF243-0014,65000,貴和市民活動中心,泰山區,65000160,貴和里,新北市泰山區明志路三段365號,活動中心1樓,貴和里、貴賢里、貴子里,余碧玉,916385922.0,否,76.0,304,0.0,是,是, 是,是,是,121.421725,25.034884
425,是,是,否,SF243-0015,65000,楓樹福泰市民活動中心,泰山區,65000160,楓樹里,新北市泰山區楓江路26巷26號,活動中心1、2樓及地下室,楓樹里、福泰里、山腳里,鄭美玲,920263993.0,否,201.0,806,0.0,是,是, 是,是,是,121.434895,25.061662
426,是,是,否,SF243-0016,65000,義仁市民活動中心,泰山區,65000160,義仁里,新北市泰山區明志路二段177號,活動中心1、2樓,義學里、義仁里、泰友里、明志里,許火炎,935128797.0,否,55.0,220,0.0,是,是, 是,是,否,121.427674,25.049867
427,是,是,否,SF243-0017,65000,山腳市民活動中心,泰山區,65000160,山腳里,新北市泰山區福德街14號,活動中心1樓、2樓,山腳里、福泰里、楓樹里,王國超,953318318.0,否,62.0,248,0.0,是,是, 是,是,是,121.432334,25.062661
428,是,是,是,SF244-0001,65000,林口區公所,林口區,65000170,西林里,新北市林口區仁愛路一段378號,區公所4樓,林口里、西林里,李宜聰,986677087.0,是,120.0,480,0.0,是,是,否,是,是,121.388524,25.076741
429,是,是,否,SF244-0002,65000,林口國民小學,林口區,65000170,菁湖里,新北市林口區林口路76號,永愛樓3樓、竹林樓-4樓,菁湖里、中湖里,陳筠樺,938829598.0,是,302.0,1208,0.0,是,是,是,是,否,121.389893,25.080842
430,是,是,是,SF244-0003,65000,嘉寶國民小學,林口區,65000170,嘉寶里,新北市林口區嘉溪雅坑22號,教學1樓教室,嘉寶里、下福里,楊雅玉,923615672.0,否,109.0,436,0.0,是,否,是,是,是,121.339328,25.108345
431,是,是,是,SF244-0004,65000,興福國民小學,林口區,65000170,下福里,新北市林口區下福里20鄰10-1號,活動中心 2 樓,下福里、瑞平里,廖淑珍,935333771.0,是,236.0,943,0.0,是,是,是,是,是,121.295876,25.120417
432,是,是,是,SF244-0005,65000,瑞平國民小學,林口區,65000170,太平里,新北市林口區太平里後坑34之1,3樓禮堂,嘉寶里、下福里、瑞平里、太平里,陳姿蓉,923615672.0,是,68.0,270,0.0,是,是,是,否,是,121.349226,25.128313
433,是,是,否,SF244-0006,65000,醒吾高級中學,林口區,65000170,東林里,新北市林口區粉寮路一段75巷80號,誠品樓4樓,東林里,許哲瑋,,否,190.0,760,0.0,是,是,是,否,否,121.395821,25.079696
434,是,是,否,SF244-0007,65000,林口國民中學,林口區,65000170,湖南里,新北市林口區民治路25號,活動中心1、3樓教室,西林里、仁愛里,邱于真,937842163.0,否,415.0,1659,0.0,是,是,是,是,否,121.376896,25.076858
435,是,否,否,SF244-0008,65000,麗園國民小學,林口區,65000170,麗園里,新北市林口區忠孝路591號,活動中心2樓,麗園里、東勢里,鄭至真,988385195.0,否,320.0,1280,0.0,是,是,是,是,否,121.376195,25.068589
436,是,是,否,SF244-0009,65000,麗林國民小學,林口區,65000170,麗林里,新北市林口區公園路46號,活動中心1樓、、活動中心地下室,麗林里、仁愛里,張娟娟,983365395.0,是,484.0,1935,1653.0,是,是,是,是,否,121.367903,25.068715
437,是,是,是,SF244-0010,65000,南勢國民小學,林口區,65000170,南勢里,新北市林口區南勢街215號,人文樓、創新樓,南勢里,陳彥勳,935522336.0,是,341.0,1364.12,0.0,是,是,是,是,是,121.3589,25.075227
438,是,是,否,SF244-0011,65000,林口高中,林口區,65000170,東勢里,新北市林口區仁愛路二段173號,活動中心1樓、活動中心3樓,西林里,陳志煒,913177386.0,是,415.0,1659,0.0,是,是,是,是,否,121.381002,25.073639
439,是,否,否,SF244-0012,65000,崇林國民中學,林口區,65000170,麗園里,新北市林口區文化一路一段20號,地下室(桌球教室+跆拳道教室+舞蹈教室)+3樓活動中心,東勢里、麗園里、麗林里,張萬億,935522336.0,是,813.0,3250,0.0,是,是,否,是,否,121.370276,25.068112
440,是,否,否,SF244-0013,65000,頭湖國民小學,林口區,65000170,湖南里,新北市林口區民權路101號,語藝樓,湖南里、頂福里,鄭伊琳,912901510.0,否,100.0,400,0.0,是,是,是,是,否,121.372859,25.082737
441,是,是,否,SF244-0014,65000,佳林國民中學,林口區,65000170,中湖里,新北市林口區中山路268號,多功能教學資源中心,湖南里、中湖里、菁湖里,黃義勝,919353534.0,是,213.0,853,0.0,是,是,是,是,否,121.384227,25.08033
442,是,是,否,SF244-0015,65000,湖南市民活動中心,林口區,65000170,湖南里,新北市林口區民權路165號,1-2樓,湖南里、中湖里,張俊穎,937421339.0,是,139.0,556.93‬,0.0,是,是,是,是,否,121.374172,25.0844
443,是,是,否,SF244-0016,65000,麗林市民活動中心,林口區,65000170,麗林里,新北市林口區公園路59號,3樓,麗林里,張俊穎,937421339.0,是,276.0,1104.18,0.0,是,是,是,是,否,121.367623,25.068816
444,是,是,否,SF244-0017,65000,林口西林市民活動中心,林口區,65000170,林口里,新北市林口區中正路100號,3樓,林口里、東林里,張俊穎,937421339.0,否,65.0,259.47,0.0,是,是,是,是,否,121.393971,25.077322
445,是,是,否,SF244-0018,65000,湖北市民活動中心,林口區,65000170,湖北里,新北市林口區後湖17-6號,1-2樓,湖北里、太平里、嘉寶里、頂福里,張俊穎,937421339.0,否,125.0,499.23,0.0,是,是,是,是,否,121.384898,25.107509
446,是,是,否,SF244-0020,65000,師範大學林口校區,林口區,65000170,林口里,新北市林口區仁愛路一段2號,體育館1F、B1,林口里,鄭國輝,937890776.0,否,629.0,2517,0.0,是,,否,是,否,121.397844,25.067902
447,是,是,否,SF244-0021,65000,麗園市民活動中心,林口區,65000170,麗園里,新北市林口區忠孝路569巷17號,2樓,麗園里,張俊穎,937421339.0,否,75.0,300,0.0,是,是,是,是,否,121.373776,25.068979
448,是,是,否,SF244-0022,65000,東勢市民活動中心,林口區,65000170,東勢里,新北市林口區麗園一街35號,3樓,東勢里,張俊穎,937421339.0,是,268.0,1072.35,0.0,是,是,是,是,否,121.377252,25.068776
449,是,是,否,SF244-0023,65000,南勢市民活動中心,林口區,65000170,南勢里,新北市林口區南勢二街154號,1-2樓,南勢里,張俊穎,937421339.0,是,198.0,792.77,0.0,是,是,是,是,否,121.359019,25.073835
450,是,是,否,SF244-0024,65000,太平市民活動中心,林口區,65000170,太平里,新北市林口區汕頭32號,1樓,太平里、瑞平里,張俊穎,937421339.0,否,77.0,276.91,21.0,是,是,是,是,否,121.366376,25.135256
451,是,是,否,SF244-0025,65000,仁愛市民活動中心,林口區,65000170,仁愛里,新北市林口區文化一路一段137號,2樓,仁愛里、南勢里,張俊穎,937421339.0,是,195.0,779.63,0.0,是,是,是,是,否,121.37391,25.071967
452,是,是,否,SF244-0026,65000,新北特殊教育學校,林口區,65000170,湖南里,新北市林口區文化北路一段425號,活動中心、學生宿舍4樓、國中小中庭,南勢里、湖南里,黃維齡,939082318.0,是,1118.0,4471,0.0,是,是,是,是,否,121.365938,25.078446
453,是,是,否,SF244-0027,65000,林口防災公園,林口區,65000170,仁愛里,新北市林口區文化一路口跟仁愛路口交界處,公園內部,仁愛里,黎麗芳,910573387.0,否,1961.0,0,15692.0,是,是,是,是,是,121.375404,25.072826
454,是,是,否,SF244-0028,65000,下福市民活動中心,林口區,65000170,下福里,新北市林口區下福里11鄰下福139-13號,1樓,下福里,張俊穎,937421339.0,是,251.0,1006.73,0.0,是,是,是,是,否,121.295876,25.120417
455,是,是,否,SF244-0029,65000,新林國小,林口區,65000170,南勢里,新北市林口區三民路101號,1樓,南勢里,徐淳鈴,981000295.0,是,225.0,900,0.0,是,是,是,是,否,121.359475,25.069577
456,是,是,否,SF244-0030,65000,東湖國小-社福大樓,林口區,65000170,西林里,新北市林口區佳林路200號,社福大樓4樓,西林里,余雅筑,937421339.0,是,80.0,320,0.0,是,是,是,是,否,121.382006,25.075913
457,是,是,是,SF222-0001,65000,深坑區公所,深坑區,65000180,深坑里,新北市深坑區深坑街10號5樓,5樓禮堂,深坑、埔新、賴仲、土庫、昇高、阿柔、萬順、萬福8里,辛旻翰,970893663.0,是,75.0,400,0.0,是,是,是,是,是,121.615966,25.002523
458,是,是,否,SF222-0002,65000,深坑國中,深坑區,65000180,深坑里,新北市深坑區文化街41號,情境教室-弘藝樓2樓、國樂教室-弘藝樓3樓、風雨操場,深坑里、埔新里、昇高里、土庫里等,汪以竣,921235126.0,是,264.0,540,1041.0,是,是,是,是,否,121.618263,25.001741
459,是,是,否,SF222-0003,65000,深坑國小,深坑區,65000180,深坑里,新北市深坑區文化街45號,禮堂1樓及運動場,深坑里、埔新里、阿柔里等,吳玉瑩,928066192.0,是,632.0,364,4328.0,是,是,是,是,否,121.616875,25.001803
460,是,是,否,SF222-0004,65000,東南科技大學,深坑區,65000180,萬福里,新北市深坑區北深路3段152號,中山樓1樓(夢初體育館),深坑里、萬順里、萬福里等,吳正士,933221814.0,是,916.0,817,5699.0,是,是,是,是,否,121.621039,25.004469
461,是,是,否,SF222-0005,65000,深坑第二市民活動中心,深坑區,65000180,深坑里,新北市深坑區北深路2段166號,1樓,深坑里、埔新里、萬福里等,孟霆,986871725.0,是,103.0,213,200.0,是,是,是,是,否,121.640888,25.011227
462,是,是,否,SF222-0007,65000,土庫第一市民活動中心,深坑區,65000180,土庫里,新北市深坑區北深路1段83巷8弄36號,3樓,土庫里、賴仲里、昇高里等,高建發,912379149.0,是,150.0,400,200.0,是,是,是,是,是,121.640943,25.011136
463,是,是,否,SF222-0008,65000,阿柔市民活動中心,深坑區,65000180,阿柔里,新北市深坑區阿柔洋66號旁,1樓,阿柔里、昇高里、萬順里等,孟霆,986871725.0,是,100.0,200,200.0,否,是,是,是,否,121.6066,24.998873
464,是,是,否,SF222-0009,65000,昇高市民活動中心,深坑區,65000180,昇高里,新北市深坑區旺耽路25號,1、2、3樓,昇高里、阿柔里、賴仲里等,潘淑妙,958282477.0,是,204.0,617,200.0,是,是,是,是,是,121.61262,25.001305
465,是,是,是,SF223-0001,65000,石碇綜合大樓,石碇區,65000190,豐林里,新北市石碇區豐林里楓子林32-1號,5樓,石碇里、潭邊里、隆盛里、烏塗里、彭山里、豐田里、永定里、中民里、光明里、豐林里、永安里、格頭里,宋芷蓉,983902262.0,是,112.0,450,0.0,是,是,是,是,是,121.642452,25.009091
466,是,是,是,SF223-0002,65000,永定國小,石碇區,65000190,永定里,新北市石碇區永定里靜安路一段245號,風雨操場-教學樓3樓、視聽教室-教學樓2樓、校史室-里民活動中心2樓,豐田里、永定里、中民里、光明里,張瑋綺(學輔主任),916815097.0,否,330.0,520,1600.0,是,是,是,是,是,121.688007,25.007796
467,是,是,是,SF223-0003,65000,雲海國小,石碇區,65000190,格頭里,新北市石碇區格頭里坑內巷1號,教學大樓1樓體育教室,永安里、格頭里,張育嘉(總務主任),963282089.0,否,247.0,90,1800.0,是,是,是,是,是,121.631874,24.951813
468,是,是,否,SF223-0004,65000,石碇國小,石碇區,65000190,石碇里,新北市石碇區石碇里石碇西街15號,多元學習中心-第一棟1樓、茶藝教室-第一棟2樓,石碇里、潭邊里、隆盛里、烏塗里、彭山里、豐林里、永安里、格頭里,王永賢(訓育組長),928831454.0,否,105.0,120,600.0,是,是,是,是,否,121.658956,24.990263
469,是,是,否,SF223-0005,65000,石碇高中,石碇區,65000190,隆盛里,新北市石碇區隆盛里八分寮45號,風雨操場、韻律教室-至樸樓2樓,石碇里、潭邊里、隆盛里、烏塗里、永定里、中民里、光明里、豐林里,蔡育萃(事務組長),981020700.0,是,729.0,759,4320.0,是,是,是,是,否,121.64197,25.012651
470,是,是,是,SF223-0007,65000,石碇區公所,石碇區,65000190,潭邊里,新北市石碇區潭邊里碇坪路一段37號,5樓,石碇里、潭邊里、隆盛里、烏塗里、彭山里、豐田里、永定里、中民里、光明里、豐林里、永安里、格頭里,宋芷蓉,983902262.0,是,50.0,200,0.0,是,是,是,是,是,121.657929,24.991504
471,是,是,否,SF223-0008,65000,和平國小,石碇區,65000190,隆盛里,新北市石碇區隆盛里靜安路一段5號,活動中心-後棟1樓,石碇里、潭邊里、隆盛里、烏塗里、永定里、中民里、光明里、豐林里,黃富聰(教務主任),917293909.0,否,101.0,180,450.0,是,是,是,是,否,121.641724,25.011662
472,是,是,否,SF223-0009,65000,彭山市民活動中心,石碇區,65000190,彭山里,新北市石碇區彭山里崩山33之3號,1樓,豐田里、彭山里,許建長,935249877.0,是,125.0,500,0.0,是,是,是,是,否,121.677094,24.965245
473,是,是,是,SF232-0001,65000,坪林區公所,坪林區,65000200,坪林里,新北市坪林區坪林里坪林街101號,1-4樓,坪林里、水德里、上德里、石里、大林里、粗窟里、漁光里,吳俐璇,988172215.0,是,50.0,200,0.0,是,是,是,是,是,121.711784,24.93614
474,是,是,否,SF232-0002,65000,坪林國小,坪林區,65000200,坪林里,新北市坪林區坪林里坪林街114號,風雨教室(1樓),坪林里、水德里、石里、大林里、粗窟里、漁光里,黃秀玲,910999248.0,是,52.0,88,240.0,是,是,是,是,是,121.71088,24.936238
475,是,是,否,SF232-0003,65000,坪林國中,坪林區,65000200,坪林里,新北市坪林區坪林里國中路4號,室內體育館一樓、操場,粗窟里、大林里、坪林里、水德里,林學正 ,928075873.0,是,613.0,1454,2000.0,是,是,是,是,是,121.712825,24.938007
476,否,是,否,SF232-0005,65000,石倉庫,坪林區,65000200,石里,新北市坪林區石里石27之1號,1樓,石里,鐘清良,935916489.0,否,10.0,40,0.0,是,是,是,是,否,121.710526,24.935179
477,否,是,否,SF232-0006,65000,樹梅嶺倉庫,坪林區,65000200,上德里,新北市坪林區上德里樹梅嶺11號,1樓,上德里,陳金山,921912556.0,否,10.0,40,0.0,是,是,是,是,否,121.696956,24.955382
478,否,是,否,SF232-0007,65000,新昇倉庫,坪林區,65000200,上德里,新北市坪林區上德里大粗坑11之1號,1樓,上德里,陳金山,921912556.0,否,10.0,40,0.0,是,是,是,是,否,121.724262,24.951378
479,是,是,是,SF232-0008,65000,安養堂,坪林區,65000200,大林里,新北市坪林區大林里魚堀33-17號,1-3樓,大林里,吳俐璇,988172215.0,是,28.0,114,0.0,是,是,是,是,是,121.7047,24.932047
480,是,是,否,SF232-0009,65000,坪林市民活動中心,坪林區,65000200,坪林里,新北市坪林區坪林里坪碇路6號,1樓,坪林里、水德里、上德里、石里、大林里、粗窟里、漁光里,陳淑珠,952384117.0,是,62.0,250,0.0,是,是,是,是,是,121.711963,24.938749
481,是,是,是,SF252-0001,65000,新北市三芝區公所,三芝區,65000210,埔頭里,新北市三芝區中山路一段32號,5樓禮堂,埔頭里、八賢里、錫板里、後厝里、古庄里、新庄里、埔坪里、茂長里、橫山里、福德里、圓山里、店子里、與華里,鍾孟勳,932292789.0,是,60.0,240,0.0,是,是,是,是,是,121.501115,25.25784
482,是,是,否,SF252-0002,65000,新北市三芝區埔坪市民活動中心,三芝區,65000210,埔坪里,新北市三芝區民生街31號,3樓,埔坪里、福德里、埔頭里、八賢里、錫板里、後厝里、古庄里、新庄里、橫山里、圓山里、店子里、與華里,鍾孟學,978286229.0,是,90.0,360,0.0,是,是,是,是,否,121.503569,25.256406
483,是,是,否,SF252-0003,65000,三芝國小,三芝區,65000210,埔頭里,新北市三芝區育英街22號,1.養品樓3樓.2.公共親子中心-養品樓1樓3.視聽教室-求三樓4樓,茂長里、埔頭里、古庄里、後厝里、埔坪里,周青霈,912271869.0,是,533.0,632,3000.0,是,是,是,是,否,121.501634,25.257878
484,是,是,否,SF252-0004,65000,三芝國中,三芝區,65000210,埔坪里,新北市三芝區淡金路一段38號,1.活動中心2.至善樓地下室3.風雨集合場,古庄里、錫板里、茂長里、福德里,陳永隆,936930373.0,是,694.0,1144,3260.0,是,是,是,是,否,121.501344,25.259483
485,否,是,否,SF252-0006,65000,新北市三芝區圓山市民活動中心,三芝區,65000210,圓山里,新北市三芝區木屐寮32號,1樓,圓山里,林天聖,902158763.0,是,24.0,81,0.0,是,是,是,否,否,121.529559,25.22167
486,否,是,否,SF252-0007,65000,橫山國小,三芝區,65000210,橫山里,新北市三芝區大坑86號,1.市民活動中心2.圖書館3.教師宿舍,橫山里,陳瑩霓,958262518.0,是,260.0,246,1580.0,是,是,是,否,否,121.530399,25.259085
487,否,是,否,SF252-0008,65000,新北市三芝區八賢市民活動中心,三芝區,65000210,八賢里,新北市三芝區八連溪41號,1樓,八賢里,吳韋葶,955826385.0,是,45.0,180,0.0,是,是,是,否,否,121.513151,25.236925
488,否,是,否,SF252-0009,65000,興華國小,三芝區,65000210,興華里,新北市三芝區田心子5號,風雨教室-1樓、興華競技場-2樓、圖書館-2樓,興華里、店子里,劉中生,939339570.0,是,279.0,290,1650.0,是,是,是,否,否,121.500242,25.204916
489,是,是,否,SF252-0010,65000,馬偕醫學院,三芝區,65000210,埔坪里,新北市三芝區中正路三段46號,1樓活動中心(體育館),埔頭里、八賢里、錫板里、後厝里、古庄里、新庄里、埔坪里、茂長里、橫山里、福德里、圓山里、店子里、與華里,林信華,963114876.0,是,3657.0,8764,11726.0,是,是,是,是,否,121.496695,25.252917
490,是,是,是,SF253-0001,65000,石門區公所,石門區,65000220,尖鹿里,新北市石門區尖鹿里中山路66號,3樓禮堂,石門里、尖鹿里、富基里、山溪里、草里里,陳柏倫,905352956.0,是,312.0,848,800.0,是,是,是,否,是,121.567861,25.291212
491,是,是,否,SF253-0002,65000,乾華國小,石門區,65000220,茂林里,新北市石門區茂林里茂林社區74號,禮堂大樓2樓(禮堂)、教學大樓2樓(圖書館)、綜合大樓2樓(校史室)、操場、籃球場,乾華里、茂林里,江明言,919881683.0,否,658.0,735,3800.0,是,是,是,是,是,121.592858,25.268227
492,是,是,否,SF253-0003,65000,石門區體育館,石門區,65000220,石門里,新北市石門區石門里中央路1-9號,體育館1-2樓,德茂里、富基里、老梅里、石門里、尖鹿里、山溪里、乾華里、茂林里、草里里,李幸玫,910291035.0,是,325.0,1300,0.0,是,是,是,否,是,121.565619,25.291369
493,是,是,否,SF253-0004,65000,石門實驗國民中學,石門區,65000220,石門里,新北市石門區石門里中央路1-9號,西棟2樓(視聽教室)、東棟1樓(扶助學習教室)、操場、籃球場,石門里、尖鹿里,李幸玫,910291035.0,否,285.0,240,1800.0,否,是,否,否,否,121.565619,25.291369
494,是,是,否,SF253-0005,65000,老梅實驗小學,石門區,65000220,老梅里,新北市石門區老梅里老梅路10號,三德樓(地下室)、三德樓3樓(視聽教室)、雙十樓1樓(藝文教室)、操場、籃球場,老梅里,江凱繽,921163311.0,否,431.0,444,2562.0,否,是,是,否,否,121.546595,25.288688
495,是,是,否,SF253-0006,65000,草里市民活動中心,石門區,65000220,草里里,新北市石門區草里里阿里老坑路33-1號,3樓,草里里,陳欣儒,915892088.0,是,78.0,189,251.0,是,是,是,否,否,121.60669,25.281084
496,是,是,否,SF253-0007,65000,茂林市民活動中心,石門區,65000220,茂林里,新北市石門區茂林里茂林社區1-1號,1-2樓,茂林里、乾華里,陳欣儒,915892088.0,否,110.0,192,500.0,是,是,是,是,否,121.592366,25.270068
497,是,是,否,SF253-0008,65000,富基市民活動中心,石門區,65000220,富基里,新北市石門區富基里楓林37-6號,1樓,富基里、德茂里,陳欣儒,915892088.0,否,69.0,136,280.0,是,是,是,是,否,121.542779,25.28875
498,是,是,否,SF253-0009,65000,尖鹿市民活動中心,石門區,65000220,尖鹿里,新北市石門區尖鹿里中央路9-3號,1樓,尖鹿里,陳欣儒,915892088.0,否,25.0,100,0.0,否,是,否,否,否,121.57531,25.28024
499,是,是,否,SF253-0010,65000,山溪市民活動中心,石門區,65000220,山溪里,新北市石門區山溪里老崩山6-5號,1樓,山溪里,陳欣儒,915892088.0,是,55.0,220,0.0,否,是,否,否,否,121.556551,25.276891
500,是,是,否,SF253-0011,65000,老梅市民活動中心,石門區,65000220,老梅里,新北市石門區老梅里老梅路43號,1-3樓,老梅里、德茂里,陳欣儒,915892088.0,是,162.0,648,0.0,是,是,否,否,否,121.545195,25.289433
501,是,是,否,SF253-0012,65000,石門國小,石門區,65000220,尖鹿里,新北市石門區尖鹿里中央路9號,明德樓地下室(高爾夫練習場)、明德樓3樓(體適能教室)、新民樓3樓(視聽教室)、操場,尖鹿里,陳彥羽,921630240.0,否,505.0,522,3000.0,是,是,是,否,否,121.566713,25.291948
502,是,是, 否,SF253-0013,65000,石門市民活動中心,石門區,65000220,石門里,新北市石門區石門里中山路34號,社福大樓3樓(活動中心),石門里,陳欣儒,915892088.0,是,34.0,137,0.0,是,是,是,否,是,121.566429,25.290163
503,是,是,是,SF208-0001,65000,運動休閒廣場,金山區,65000270,五湖里,新北市金山區五湖里南勢53號,1樓廣場及地下1樓,五湖里、重和里、兩湖里、六股里、三界里,邱國源,927399239.0,是,702.0,2210.47,1200.0,是,是,是,是,是,121.613225,25.213932
504,是,是,否,SF208-0003,65000,金美國小,金山區,65000270,金美里,新北市金山區金美里16鄰忠孝一路111號,舊大樓地下室1樓、大禮堂(新大樓5樓),金美里,游文傑(訓育組長),952214033.0,否,745.0,1483,3000.0,是,是,是,否,是,121.637305,25.217517
505,是,是,否,SF208-0004,65000,金山高中 ,金山區,65000270,美田里,新北市金山區美田里15鄰文化二路2號,禮堂1樓、舞蹈教室1樓、2樓高中部多功能教室,美田里、和平里、大同里、磺港里,李耿豪(幹事),955825688.0,否,520.0,1182,1800.0,是,是,是,否,是,121.636935,25.224669
506,是,是,否,SF208-0005,65000,金山國小,金山區,65000270,美田里,新北市金山區美田里2鄰中山路234號,智慧樓4樓多功能教室、活力樓4樓教師辦公室、活力樓4樓視聽教室,美田里、和平里、大同里,蔡因茵(事務組長),912272302.0,否,291.0,839.2,658.0,是,是,是,否,是,121.636519,25.222963
507,是,是,否,SF208-0006,65000,三和國小,金山區,65000270,重和里,新北市金山區重和里11鄰六股林口38號,活動中心2樓、活動中心1樓、圖書館,重和里,盧群惠(總務主任),958977089.0,否,156.0,331.79,599.31,是,是,否,是,是,121.602477,25.218034
508,是,是,否,SF208-0007,65000,中角國小,金山區,65000270,萬壽里,新北市金山區重和里2鄰海興路49號,操場、下校區1樓衝浪學院、風雨教室2樓,萬壽里、西湖里、永興里,陳育瑩(訓育組長),989886936.0,否,218.0,375,1000.0,是,是,是,是,是,121.600914,25.21272
509,否,是,否,SF208-0010,65000,獅頭山公園,金山區,65000270,磺港里,新北市金山區磺港里磺港路171-2號,磺港路,豐漁里、磺港里,林惠美,933240665.0,否,500.0,0,4000.0,是,是,是,是,否,121.64753,25.227062
510,否,是,否,SF208-0011,65000,公館崙公園,金山區,65000270,五湖里,新北市金山區五湖里龜子山路,龜子山路,五湖里,邱國源,927399239.0,否,81.0,0,650.0,是,是,是,是,否,121.637981,25.21732
511,是,是,否,SF208-0012,65000,朝天宮,金山區,65000270,重和里,新北市金山區重和里11鄰六股林口38-3號,廟內大廳,重和里,陳德福(主任委員),932086252.0,否,75.0,300,0.0,是,是,是,是,否,121.603389,25.219445
512,是,是,否,SF208-0013,65000,聖德宮,金山區,65000270,三界里,新北市金山三界里區5鄰三界壇路72號,廟內大廳,三界里、兩湖里、六股里,嚴璧山(主任委員),927516996.0,否,187.0,750,0.0,是,是,否,是,否,121.619908,25.231106
513,是,是,否,SF208-0014,65000,六三市民活動中心,金山區,65000270,三界里,新北市金山區三界里3鄰三界壇路101-1號,1樓活動中心,三界里、六股里、兩湖里、清泉里、萬壽里、西湖里、永興里,李玉惠,913370186.0,否,45.0,183.62,0.0,是,是,是,是,是,121.621156,25.230099
514,是,是,否,SF208-0015,65000,萬壽市民活動中心,金山區,65000270,萬壽里,新北市金山區萬壽里海興路116號,1樓活動中心,萬壽里、西湖里、永興里、清泉里,廖明玉,928513018.0,否,73.0,295.68,0.0,是,是,是,是,是,121.631839,25.238188
515,是,是,是,SF208-0016,65000,金山區公所,金山區,65000270,金美里,新北市金山區金美里中正路11號,4樓會議室,金美里,林詩耘,975209196.0,是,99.0,397.08,0.0,是,是,是,是,是,121.636436,25.22224
516,是,是,否,SF208-0017,65000,清泉市民活動中心,金山區,65000270,清泉里,新北市金山區清泉里清水路49號,1樓活動中心,清泉里、萬壽里、西湖里、永興里,李佳彥,911646790.0,否,50.0,202.46,0.0,是,是,是,是,是,121.629365,25.233909
517,是,是,否,SF208-0019,65000,法鼓文理學院,金山區,65000270,西湖里,新北市金山區西湖里法鼓路670號,揚生館-多功能球場、游心場,西湖里,楊明堂(校安中心主任),934015925.0,否,150.0,1504,0.0,是,是,是,是,否,121.61468,25.243433
518,是,是,否,SF208-0020,65000,美田市民活動中心,金山區,65000270,美田里,新北市金山區美田里中山路236號2樓,2樓活動中心,金美里、美田里,李佳彥,911646790.0,是,24.0,99.165,0.0,是,是,否,是,否,121.636151,25.223393
519,是,是,否,SF207-0001,65000,萬里國小,萬里區,65000280,萬里里,新北市萬里區萬里里瑪鋉路18號,瑪鋉館、春雨樓2樓、多功能教室、操場,雙興里、溪底里、崁脚里、中幅里、萬里里、北基里,陳佩儀,911321317.0,是,897.0,1095,4992.0,是,是,是,否,是,121.68899,25.176632
520,是,是,是,SF207-0002,65000,萬里區行政大樓,萬里區,65000280,萬里里,新北市萬里區萬里里瑪鋉路123號,國際會議廳5樓、1樓大廳,萬里里、北基里、龜吼里、野柳里、中幅里,陳佳卉,958586505.0,是,214.0,856,0.0,是,是,是,否,是,121.689187,25.178248
521,是,是,否,SF207-0003,65000,野柳活動中心,萬里區,65000280,野柳里,新北市萬里區野柳里港東路1-5號,活動中心1樓,野柳里、磺潭里、大鵬里,張永耀,928112088.0,是,216.0,866,0.0,是,是,是,否,是,121.68766,25.203846
522,是,是,否,SF207-0004,65000,崁腳活動中心,萬里區,65000280,崁腳里,新北市萬里區崁脚里崁脚路55-1號,活動中心1樓,崁脚里、溪底里、雙興里、中幅里,郭清標,937184166.0,否,30.0,120,0.0,否,是,是,是,是,121.64863,25.15971
523,是,是,否,SF207-0005,65000,仁愛之家,萬里區,65000280,龜吼里,新北市萬里區龜吼里玉田路61號,文康禮堂2樓、中正堂餐廳1樓,大鵬里、磺潭里、野柳里、龜吼里,蔡湟霖,922702059.0,是,269.0,812,535.0,否,否,是,是,是,121.682001,25.19356
524,是,是,否,SF207-0006,65000,崁腳國小,萬里區,65000280,崁腳里,新北市萬里區崁脚里崁脚路59號,活動中心、教室大樓2樓多功能教室、操場,崁脚里、溪底里、雙興里、中幅里,蔡惟中,910333729.0,否,161.0,398,500.0,否,是,是,是,是,121.64863,25.15971
525,是,是,否,SF207-0007,65000,大坪國小,萬里區,65000280,雙興里,新北市萬里區雙興里大坪路1號,開心館第一教學大樓1樓、自然教室第一教學大樓1樓、音樂教室第一教學大樓1樓、操場,萬里里、北基里、龜吼里、崁脚里、溪底里、雙興里,謝誩品,920275555.0,否,240.0,274,1380.0,否,是,是,是,是,121.640057,25.166178
526,否,是,否,SF207-0008,65000,中華商業海事職業學校,萬里區,65000280,北基里,新北市萬里區北基里瑪鋉路15號,操場,北基里、萬里里、中幅里,陳稚璽,919871946.0,否,775.0,0,6200.0,否,是,是,是,否,121.68314,25.175783
527,否,是,否,SF207-0009,65000,獅頭路瑪鋉公園,萬里區,65000280,萬里里,中萬里加投瑪鋉港口小段269-20地號,公園廣場1樓,萬里里,郭東陽,937193173.0,否,225.0,0,1800.0,是,是,是,否,否,121.68985,25.179852
528,否,是,否,SF207-0010,65000,磺潭社區親水公園,萬里區,65000280,磺潭里,新北市萬里區磺潭里員潭路,公園廣場1樓,大鵬里、磺潭里,張慶傳,919561373.0,否,225.0,0,1800.0,是,是,是,是,否,121.646604,25.197556
529,否,是,否,SF207-0011,65000,鎮北宮,萬里區,65000280,龜吼里,新北市萬里區龜吼里玉田路4-2號,寺廟廣場1樓,龜吼里美崙,陳詠裕,966552117.0,否,175.0,0,1400.0,是,是,是,是,否,121.679721,25.1887
530,否,是,否,SF207-0012,65000,基督教芥菜種營地,萬里區,65000280,龜吼里,新北市萬里區龜吼里玉田路25號,營地廣場1樓,龜吼里玉田,黃宗能,932232402.0,否,200.0,0,1600.0,是,是,是,是,否,121.678967,25.191878
531,是,是,否,SF207-0013,65000,大鵬國小,萬里區,65000280,大鵬里,新北市萬里區大鵬里萬里加投14號,1樓綜合教室、1樓多功能教室、韻律教室、操場,大鵬里、野柳里、龜吼里、磺潭里,蕭書凡,936273567.0,否,691.0,264,5000.0,否,是,是,否,是,121.650866,25.208821
532,是,是,否,SF207-0014,65000,野柳國小,萬里區,65000280,野柳里,新北市萬里區野柳里港東路167號,海風樓4樓、海石樓3樓、海石樓1樓、上操場、下操場,大鵬里、野柳里、龜吼里,吳炯霖,937334021.0,否,658.0,1884.07,1500.0,是,是,是,否,是,121.689355,25.206326
533,是,是,否,SF207-0015,65000,萬里國中,萬里區,65000280,萬里里,新北市萬里區萬里里獅頭路24號,活動中心1樓、操場,萬里里、北基里、雙興里、中幅里,劉偉君,920455159.0,否,1355.0,420,10000.0,是,是,是,是,是,121.692864,25.179367
534,是,是,否,SF207-0016,65000,頂寮活動中心,萬里區,65000280,大鵬里,新北市萬里區大鵬里頂社路18-6號,活動中心1樓,大鵬里、磺潭里,曾秋芳,937874862.0,是,69.0,277,0.0,是,是,是,否,是,121.656281,25.209563
535,是,是,是,SF226-0001,65000,平溪市民活動中心,平溪區,65000240,石底里,新北市平溪區石底里公園街17號,活動中心2樓,石底里、平溪里、嶺腳里、東勢里,李碩軒,988560529.0,是,103.0,388,50.0,是,是,是,否,是,121.735425,25.0248
536,是,否,否,SF226-0002,65000,平溪國中,平溪區,65000240,石底里,新北市平溪區石底里靜安路2段295號,活動中心、演藝廳、餐廳,石底里、平溪里、嶺腳里、東勢里,尤毓蓁,921071628.0,是,754.0,1240,3550.0,是,是,是,否,否,121.74258,25.025541
537,是,否,否,SF226-0003,65000,菁桐國小,平溪區,65000240,菁桐里,新北市平溪區菁桐里菁桐街45號,活動中心、餐廳、會議室,菁桐里、白石里,葉翁誠,989789673.0,否,491.0,1063,1800.0,是,是,是,否,否,121.727681,25.023591
538,是,否,否,SF226-0004,65000,平溪國小,平溪區,65000240,平溪里,新北市平溪區平溪里平溪街56號,仰山軒、校史室─1樓、專科教室─2樓,平溪里、石底里,林尚億,978276031.0,是,485.0,445,2988.0,是,是,是,否,否,121.736817,25.027084
539,是,否,否,SF226-0005,65000,十分國小,平溪區,65000240,十分里,新北市平溪區十分里十分街157號,視聽教室─行政樓2樓、圖書室─藝文樓2樓、親子中心/銀髮俱樂部─藝文樓1樓,十分里、南山里、新寮里、望古里、平湖里,陳昌維,926722955.0,是,233.0,330,1200.0,是,是,是,否,否,121.777697,25.043478
540,是,是,否,SF226-0006,65000,菁桐市民活動中心,平溪區,65000240,菁桐里,新北市平溪區菁桐里菁桐街65-1號,活動中心1樓,菁桐里、薯榔里,黃肯中,966665027.0,是,32.0,127,,是,是,是,否,否,121.724747,25.024001
541,是,否,否,SF226-0007,65000,白石市民活動中心,平溪區,65000240,白石里,新北市平溪區白石里靜安路2段241號,活動中心1、2樓,白石里、薯榔里,李碩軒,988560529.0,否,46.0,184,,是,是,是,否,否,121.724524,25.02227
542,是,是,否,SF226-0008,65000,嶺腳市民活動中心,平溪區,65000240,嶺腳里,新北市平溪區嶺腳里嶺腳寮14號,活動中心1樓,嶺腳里、東勢里、望古里,李碩軒,988560529.0,是,30.0,119,,是,是,是,否,否,121.747071,25.035297
543,是,否,否,SF226-0009,65000,平湖市民活動中心,平溪區,65000240,平湖里,新北市平溪區平湖里大湖10號,活動中心1樓,平湖里、南山里、十分里、新寮里,黃肯中,966665027.0,否,30.0,121,,是,是,是,否,否,121.781288,25.025617
544,是,是,是,SF226-0010,65000,老人文康活動中心,平溪區,65000240,十分里,新北市平溪區十分里十分街66巷1號,活動中心1樓,十分里、望古里、南山里、平湖里、新寮里,李碩軒,988560529.0,是,66.0,263,,是,是,是,否,是,121.775806,25.041931
545,是,是,是,SF226-0011,65000,薯榔市民活動中心,平溪區,65000240,薯榔里,新北市平溪區薯榔里靜安路二段63號,活動中心3樓,薯榔里、菁桐里、白石里,黃肯中,966665027.0,是,33.0,132,,是,是,是,否,是,121.71539,25.020783
546,是,是,否,SF227-001,65000,雙溪高中,雙溪區,65000250,平林里,新北市雙溪區平林里梅竹蹊3號,活動中心1樓、國中部教室、高中部教室、操場,平林里、雙溪里、新基里、共和里、魚行里、三港里、三貂里、牡丹里、泰平里,劉仲秋,919902562.0,是,1331.0,1724,7200.0,是,是,是,否,否,121.862106,25.037681
547,是,是,否,SF227-002,65000,雙溪國小,雙溪區,65000250,共和里,新北市雙溪區共和里東榮街54號1樓,活動中心、樂活運動站、操場,魚行里、共和里、雙溪里、新基里、泰平里,吳耀郎,975272585.0,是,546.0,1187,2000.0,否,是,是,否,否,121.866976,25.033523
548,是,是,否,SF227-003,65000,共和市民活動中心,雙溪區,65000250,共和里,新北市雙溪區共和里中山路41巷6號1樓,活動中心1樓,魚行里、共和里、雙溪里、新基里,張馨瑀,915502102.0,是,100.0,153,500.0,是,是,是,否,否,121.865662,25.031693
549,是,是,是,SF227-005,65000,中正市民活動中心,雙溪區,65000250,牡丹里,新北市雙溪區牡丹里中正路64號1樓,活動中心1樓,牡丹里、三貂里、新基里,張馨瑀,915502102.0,是,76.0,207.26,200.0,是,是,是,否,是,121.866204,25.04217
550,是,是,是,SF227-006,65000,長源市民活動中心,雙溪區,65000250,長源里,新北市雙溪區長源里柑腳路19號2樓,活動中心2樓,長源里、外柑里,張馨瑀,915502102.0,是,172.0,188.52,1000.0,是,是,是,否,是,121.801935,25.003788
551,是,是,否,SF227-007,65000,三港集會所,雙溪區,65000250,三港里,新北市雙溪區三港里三港7號,集會所2樓,三港里,張馨瑀,915502102.0,否,63.0,207,100.0,是,是,是,否,否,121.880115,25.052941
552,是,是,否,SF227-008,65000,泰平市民活動中心,雙溪區,65000250,泰平里,新北市雙溪區泰平里溪尾寮46號,活動中心1樓,泰平里,張馨瑀,915502102.0,是,101.0,204,400.0,是,是,是,否,否,121.82135,24.967448
553,是,是,否,SF227-009,65000,上林國小,雙溪區,65000250,上林里,新北市雙溪區上林里內平林60號1樓,視聽教室、圖書館、操場,上林里、平林里、外柑里、長源里,王儷珈 ,987728135.0,是,2594.0,290,20177.0,是,是,是,否,否,121.834225,25.028126
554,是,是,否,SF227-010,65000,牡丹國小,雙溪區,65000250,三貂里,新北市雙溪區三貂里政光路3號1樓,桌球室、禮堂、操場,三貂里、牡丹里,林明珊,928815392.0,是,554.0,282,3874.5,是,是,是,否,否,121.850883,25.06289
555,是,是,否,SF227-011,65000,平林市民活動中心,雙溪區,65000250,平林里,新北市雙溪區平林里外平林52號,平林市民活動中心,平林里、上林里、泰平里,張馨瑀,915502102.0,是,79.0,176,282.0,是,是,是,否,否,121.849581,25.035031
556,是,是,否,SF227-012,65000,外柑市民活動中心,雙溪區,65000250,外柑里,新北市雙溪區外柑里6鄰外柑腳49號,外柑市民活動中心,外柑里、長源里、上林里,張馨瑀,915502102.0,否,72.0,109,360.0,是,是,是,否,否,121.807895,25.018263
557,是,是,否,SF227-013,65000,柑林國小,雙溪區,65000250,長源里,新北市雙溪區長源里9鄰柑腳3號,多功能教室、視聽教室、會議室、籃球場,長源里、外柑里,康志偉,921884783.0,是,181.0,460,535.0,是,是,是,否,否,121.804632,25.015088
558,是,是,是,SF227-014,65000,牡丹市民活動中心,雙溪區,65000250,牡丹里,新北市雙溪區牡丹里下坑路36號,牡丹市民活動中心,牡丹里、三貂里,張馨瑀,915502102.0,是,121.0,287,400.0,是,是,是,否,是,121.850942,25.056276
559,是,是,否,SF228-0001,65000,貢寮市民活動中心,貢寮區,65000260,貢寮里,新北貢寮區貢寮里長泰路18-2號,1、2層,貢寮里、雙玉里、龍崗里、吉林里,吳淑珠(課長),938932666.0,是,176.0,656,100.0,是,是,是,是,是,121.898456,25.020518
560,是,是,否,SF228-0002,65000,福隆青少年活動中心,貢寮區,65000260,福隆里,新北市貢寮區福隆里福隆街60號,1、2、3層,福隆里,吳憲彰(里長),936818886.0,否,403.0,609,2010.0,否,是,是,否,是,121.945732,25.018379
561,是,是,否,SF228-0003,65000,昭惠廟,貢寮區,65000260,龍門里,新北市貢寮區龍門里龍門街74-1號,1樓,龍門里,吳世揚(里長),912276947.0,否,50.0,200,0.0,是,是,是,否,是,121.932538,25.026518
562,是,是,否,SF228-0004,65000,澳底國小,貢寮區,65000260,真理里,新北市貢寮區真理里延平街10號,大禮堂1樓,真理里、仁里里,周麗華(總務主任),937115836.0,是,557.0,330,3800.0,是,是,是,是,否,121.917452,25.055723
563,是,是,否,SF228-0005,65000,靈鷲山無生道場,貢寮區,65000260,福連里,新北市貢寮區福連里香蘭街7-1號,大殿1樓,福連里、福隆里,釋法藏(法師),938338222.0,否,100.0,400,0.0,是,是,是,是,否,121.978587,25.023586
564,是,是,否,SF228-0006,65000,福安廟,貢寮區,65000260,美豐里,新北市貢寮區美豐里雞母嶺街7號,1樓,美豐里、真理里、仁里里,陳哲雄(主委),910324724.0,否,40.0,160,0.0,是,是,是,是,否,121.901829,25.064214
565,是,是,否,SF228-0007,65000,和美國小,貢寮區,65000260,和美里,新北市貢寮區和美里龍洞街1-9號,視聽教室3樓,和美里,陳天和(警衛),989624995.0,是,118.0,126,700.0,否,是,是,否,否,121.916064,25.111631
566,是,是,否,SF228-0008,65000,福連國小,貢寮區,65000260,福連里,新北市貢寮區福連里福連街1號,1樓,福連里,吳家駒(警衛),911906060.0,否,590.0,160,4400.0,否,是,是,否,否,121.988471,25.016814
567,是,是,否,SF228-0009,65000,福隆國小,貢寮區,65000260,福隆里,新北市貢寮區福隆里東興街35號,禮堂1樓,福隆里,諶福連(警衛),937424680.0,是,278.0,364,1500.0,是,是,是,否,否,121.949134,25.017717
568,是,是,否,SF228-0010,65000,貢寮國小,貢寮區,65000260,雙玉里,新北市貢寮區貢寮里學苑街7號,禮堂1樓,貢寮里、雙玉里、龍崗里、吉林里,簡錫豪(警衛),912472763.0,是,605.0,299,4254.0,否,是,是,是,否,121.915086,25.022017
569,是,是,否,SF228-0011,65000,貢寮實驗中學,貢寮區,65000260,龍崗里,新北市貢寮區龍崗里嵩陽路42號,禮堂1樓,貢寮里、雙玉里、龍崗里、吉林里,林燕青(警衛),927634337.0,是,548.0,495,3400.0,是,是,是,是,否,121.905175,25.012885
570,否,是,否,SF228-0012,65000,虎子山,貢寮區,65000260,福隆里,新北市貢寮區福隆里虎子山街,戶外,福隆里,吳憲彰(里長),936818886.0,否,50.0,0,400.0,否,否,否,是,否,121.938029,25.014212
571,否,是,否,SF228-0013,65000,佛祖廟(西靈岩寺),貢寮區,65000260,和美里,新北市貢寮區和美里和美街49號,西靈岩寺,和美里,吳金發(里長),915855681.0,否,62.0,0,500.0,否,否,否,是,否,121.911992,25.081926
572,否,是,否,SF228-0014,65000,佛祖廟(西側高地),貢寮區,65000260,和美里,新北市貢寮區和美里和美街49號,西側高地,和美里,吳金發(里長),915855681.0,否,62.0,0,500.0,否,否,否,是,否,121.911992,25.081926
573,否,是,否,SF228-0015,65000,新北市立圖書館-貢寮分館,貢寮區,65000260,真理里,新北市貢寮區真理里仁愛路79號3樓,3樓,真理里、仁里里,胡麗珠(主任),973802859.0,否,157.0,630,0.0,否,否,否,是,否,121.926916,25.054775
574,否,是,否,SF228-0016,65000,仁和宮,貢寮區,65000260,仁里里,新北市貢寮區仁里里仁和路11號,3樓,真理里、仁里里,周鴻鏗(主委),910060524.0,否,125.0,500,0.0,否,否,否,是,否,121.923124,25.0496
575,否,是,否,SF228-0017,65000,慶安宮,貢寮區,65000260,真理里,新北市貢寮區真理里延平街13號,3樓,真理里、仁里里,許吳却(主委),922092650.0,否,12.0,50,0.0,否,否,否,是,否,121.923804,25.054921
576,是,是,否,SF228-0018,65000,豐珠中學,貢寮區,65000260,美豐里,新北市貢寮區美豐里雞母嶺街6-6號,2樓,美豐里、真理里、仁里里,王瑞哲(事務組長),922860286.0,否,301.0,205,2002.0,是,否,否,是,否,121.891323,25.069479
577,是,是,是,SF228-0019,65000,貢寮區公所,貢寮區,65000260,貢寮里,新北市貢寮區貢寮里長泰路20號,4樓,貢寮里、雙玉里、龍崗里、吉林里,吳淑珠(課長),938932666.0,是,370.0,480,2000.0,是,是,是,是,是,121.906245,25.020852
578,是,是,是,SF233-0001,65000,忠治活動中心,烏來區,65000290,忠治里,新北市烏來區忠治里忠治12號,1~2樓,忠治里、烏來里、孝義里,呂天祥,935225498.0,是,30.0,120,0.0,是,是,是,否,是,121.548554,24.883664
579,是,是,是,SF233-0002,65000,綜合活動中心,烏來區,65000290,烏來里,新北市烏來區烏來里烏來街34號,1樓,烏來里、忠治里、福山里、信賢里、孝義里,呂天祥,935225498.0,是,30.0,120,0.0,是,是,是,否,是,121.551198,24.863485
580,是,是,是,SF233-0004,65000,信賢活動中心,烏來區,65000290,信賢里,新北市烏來區信賢里信福路48號,1~2樓,福山里、信賢里,呂天祥,935225498.0,是,30.0,120,0.0,是,是,是,否,是,121.525417,24.835643
581,是,是,是,SF233-0005,65000,福山活動中心,烏來區,65000290,福山里,新北市烏來區福山里2鄰李茂岸51號,1樓,福山里,呂天祥,935225498.0,是,50.0,200,0.0,是,是,是,否,是,121.502755,24.777563
582,是,是,否,SF233-0006,65000,德拉楠民族實驗小學,烏來區,65000290,福山里,新北市烏來區福山里李茂岸55號,3樓風雨操場,福山里,莊玉林,953262133.0,是,50.0,225,0.0,是,是,是,否,否,121.502467,24.778032
583,是,是,否,SF233-0007,65000,烏來國民中小學,烏來區,65000290,烏來里,新北市烏來區烏來里啦卡路5號,1樓禮堂,烏來里、孝義里、信賢里、福山里,關善云,905367965.0,是,50.0,225,0.0,是,是,是,否,否,121.554224,24.863038
584,是,是,是,SF233-0008,65000,烏來區立圖書館,烏來區,65000290,烏來里,新北市烏來區烏來里環山路82巷98號,4樓,烏來里、忠治里、信賢里、孝義里,呂天祥,935225498.0,是,50.0,200,0.0,是,是,是,否,是,121.546944,24.863618
