LocationName,cityName,townName,address,lat,lon,單位
新北市政府消防局更寮分隊,新北市,五股區,中興路二段83巷26-6號,25.07827966,121.4616656,消防局
新北市政府消防局,新北市,板橋區,新北市板橋區南雅南路二段15號,25.00128015,121.4539346,消防局
新北市政府消防局第一救災救護大隊,新北市,板橋區,新北市板橋區莒光路161號3樓,25.02430234,121.4739266,消防局
新北市政府消防局南勢分隊,新北市,中和區,南山路236號,24.98970773,121.506699,消防局
新北市政府消防局國光分隊,新北市,中和區,新北市中和區莒光路160-1號,24.99965818,121.4725918,消防局
新北市政府消防局永利分隊,新北市,永和區,永利路72號之1,25.00427049,121.5201243,消防局
新北市政府消防局莒光分隊,新北市,板橋區,新北市板橋區莒光路161號1樓,25.02430234,121.4739266,消防局
新北市政府消防局板橋分隊,新北市,板橋區,重慶路293號,24.99911611,121.4633775,消防局
新北市政府消防局大觀分隊,新北市,板橋區,新北市板橋區大觀路一段38巷1-3號,25.00456104,121.4424718,消防局
新北市政府消防局海山分隊,新北市,板橋區,英士路151號,25.02404411,121.4599537,消防局
新北市政府消防局民生分隊,新北市,板橋區,民生路二段56之2號,25.01749716,121.4721718,消防局
新北市政府消防局溪崑分隊,新北市,板橋區,新北市板橋區篤行路2段135號,24.9887311,121.4303631,消防局
新北市政府消防局第二救災救護大隊,新北市,新莊區,新北市新莊區中正路170號5樓,25.03593676,121.4509918,消防局
新北市政府消防局五工分隊,新北市,新莊區,新北市新莊區五工路97巷5號,25.06326235,121.4567489,消防局
新北市政府消防局福營分隊,新北市,新莊區,新北市新莊區福營路279號,25.0294408,121.4276157,消防局
新北市政府消防局新莊分隊,新北市,新莊區,新北市新莊區中正路170號1樓,25.03593676,121.4509918,消防局
新北市政府消防局中港分隊,新北市,新莊區,新北市新莊區中原路512號,25.05453099,121.4462931,消防局
新北市政府消防局頭前分隊,新北市,新莊區,新北市新莊區幸福東路7號,25.04914775,121.4669952,消防局
新北市政府消防局五股分隊,新北市,五股區,工商路1號,25.08246747,121.4398174,消防局
新北市政府消防局德音分隊,新北市,五股區,新北市五股區明德路8號,25.07144405,121.4334403,消防局
新北市政府消防局泰山分隊,新北市,泰山區,明志路二段188號,25.05006028,121.4273914,消防局
新北市政府消防局林口分隊,新北市,林口區,新北市林口區中山路137號,25.07882439,121.3883893,消防局
新北市政府消防局第三救災救護大隊,新北市,蘆洲區,新北市蘆洲區長榮路792號6樓,25.09299073,121.461374,消防局
新北市政府消防局重陽分隊,新北市,三重區,新北市三重區重陽路一段123號,25.06113091,121.4869874,消防局
新北市政府消防局二重分隊,新北市,三重區,中興北街225號,25.05857224,121.4691143,消防局
新北市政府消防局蘆洲分隊,新北市,蘆洲區,新北市蘆洲區中山一路415號,25.07674732,121.4689773,消防局
新北市政府消防局龍源分隊,新北市,八里區,龍米路一段225號,25.13234959,121.4513626,消防局
新北市政府消防局八里分隊,新北市,八里區,新北市八里區中山路二段76號,25.15582955,121.4081685,消防局
新北市政府消防局淡水分隊,新北市,淡水區,新北市淡水區新生街29號,25.17491183,121.4397043,消防局
新北市政府消防局竹圍分隊,新北市,淡水區,新北市淡水區竿蓁里21鄰中正東路一段125號,25.159542,121.455617,消防局
新北市政府消防局三芝分隊,新北市,三芝區,新北市三芝區中山路一段10號,25.2585693,121.5004941,消防局
新北市政府消防局第四救災救護大隊,新北市,新店區,新北市新店區北新路1段98號5樓,24.96911189,121.5421976,消防局
新北市政府消防局新店分隊,新北市,新店區,新北市新店區北新路一段98號,24.96715628,121.542082,消防局
新北市政府消防局直潭分隊,新北市,新店區,新北市新店區直潭十街25號,24.93858772,121.5343116,消防局
新北市政府消防局安康分隊,新北市,新店區,安康路三段2號1樓,24.9538355,121.4937415,消防局
新北市政府消防局石碇分隊,新北市,石碇區,新北市石碇區碇坪路一段81號,24.99134885,121.6576101,消防局
新北市政府消防局坪林分隊,新北市,坪林區,新北市坪林區國中路1號,24.93664772,121.7125676,消防局
新北市政府消防局雪山分隊,新北市,坪林區,新北市坪林區坪雙路一段56號,24.9857787,121.6594766,消防局
新北市政府消防局烏來分隊,新北市,烏來區,新北市烏來區環山路51號,24.86396465,121.5485774,消防局
新北市政府消防局深坑分隊,新北市,深坑區,新北市深坑區文山路1段35號1樓,25.00264785,121.6281134,消防局
新北市政府消防局第五救災救護大隊,新北市,三峽區,新北市三峽區隆恩街247號,24.9406673,121.3571224,消防局
新北市政府消防局土城分隊,新北市,土城區,金城路一段90號,24.97333002,121.4451272,消防局
新北市政府消防局清水分隊,新北市,土城區,新北市土城區青雲路35號,24.98466996,121.4589257,消防局
新北市政府消防局頂埔分隊,新北市,土城區,新北市土城區中山路49號,24.96308925,121.4214342,消防局
新北市政府消防局樹林分隊,新北市,樹林區,新北市樹林區環漢路五段50號,24.97537235,121.4228948,消防局
新北市政府消防局樹潭分隊,新北市,樹林區,新北市樹林區俊保路160號,25.00865549,121.4229534,消防局
新北市政府消防局柑園分隊,新北市,樹林區,新北市樹林區柑園街一段60號,24.96045364,121.4029411,消防局
新北市政府消防局三峽分隊,新北市,三峽區,新北市三峽區中正路1段46號,24.93064299,121.3753482,消防局
新北市政府消防局隆恩分隊,新北市,三峽區,新北市三峽區隆恩街247號,24.9406673,121.3571224,消防局
新北市政府消防局鶯歌分隊,新北市,鶯歌區,新北市鶯歌區建國路420號,24.95138097,121.3416967,消防局
新北市政府消防局第六救災救護大隊,新北市,汐止區,新北市汐止區福德一路236號,25.0650883,121.6339258,消防局
新北市政府消防局社后分隊,新北市,汐止區,新北市汐止區中興里福德一路236號,25.06497128,121.6339523,消防局
新北市政府消防局汐止分隊,新北市,汐止區,新北市汐止區大同路二段447號,25.06773488,121.659539,消防局
新北市政府消防局秀峰分隊,新北市,汐止區,新北市汐止區忠孝東路1-1號,25.06413087,121.6570319,消防局
新北市政府消防局長青分隊,新北市,汐止區,永春一路4號,25.11279015,121.6035218,消防局
新北市政府消防局橫科分隊,新北市,汐止區,新北市汐止區橫科路119號,25.0505216,121.620148,消防局
新北市政府消防局瑞芳分隊,新北市,瑞芳區,新北市瑞芳區中正路30號,25.1073089,121.807531,消防局
新北市政府消防局瑞亭分隊,新北市,瑞芳區,新北市瑞芳區大埔路176號,25.10211938,121.7621892,消防局
新北市政府消防局金山分隊,新北市,金山區,新北市金山區南勢54號,25.2209637,121.6281881,消防局
新北市政府消防局石門分隊,新北市,石門區,新北市石門區尖鹿里3鄰中山路64之1號,25.29066547,121.5674716,消防局
新北市政府消防局萬里分隊,新北市,萬里區,新北市萬里區景美16號,25.17509982,121.6874595,消防局
新北市政府消防局雙溪分隊,新北市,雙溪區,新北市雙溪區中山路45號,25.03196,121.866587,消防局
新北市政府消防局貢寮分隊,新北市,貢寮區,新北市貢寮區朝陽街66號,25.02194503,121.9098881,消防局
新北市政府消防局平溪分隊,新北市,平溪區,新北市平溪區靜安路二段289號,25.02326451,121.7323258,消防局
新北市政府警察局板橋分局,新北市,板橋區,新北市板橋區挹秀里文化路1段52號,25.012394,121.4600769,分局
新北市政府警察局永和分局,新北市,永和區,竹林路198號,25.0095649,121.5203835,分局
錦和派出所,新北市,中和區,新北市中和區安邦街20號,24.997799,121.496024,派出所
國光派出所,新北市,中和區,新北市中和區自強里2鄰莒光路160號,24.999649,121.472616,派出所
員山派出所,新北市,中和區,新北市中和區員山路235巷1號,24.99825933,121.4809159,派出所
積穗派出所,新北市,中和區,新北市中和區員山路471號,25.00481981,121.4801504,派出所
新北市政府警察局新店分局,新北市,新店區,新北市新店區新店區寶橋路188號4樓,24.9676021,121.5417551,分局
新北市政府警察局新莊分局,新北市,新莊區,新北市新莊區中正路150號,25.0361659,121.4517365,分局
丹鳳派出所,新北市,新莊區,新北市新莊區雙鳳里4鄰雙鳳路75號,25.0276625,121.4148529,派出所
光華派出所,新北市,新莊區,光正里民安西路141號,25.0171737,121.4263551,派出所
福營派出所,新北市,新莊區,福營里福營路101號,25.0322146,121.4342801,派出所
頭前派出所,新北市,新莊區,化成里化成路312號,25.0481504,121.4658079,派出所
中港派出所,新北市,新莊區,中華里中港路352號,25.04663,121.4519024,派出所
新莊派出所,新北市,新莊區,新莊路212號,25.0346116,121.4533105,派出所
中平派出所,新北市,新莊區,中平里中平路286號,25.0512263,121.444763,派出所
新北市政府警察局樹林分局,新北市,樹林區,新北市樹林區保安街1段283號,24.9968903,121.4189258,分局
新北市政府警察局淡水分局,新北市,淡水區,新北市淡水區中正路229號,25.17253,121.4367122,分局
新北市政府警察局汐止分局,新北市,汐止區,新北市汐止區大同路二段459號,25.0771602,121.6401401,分局
東山派出所,新北市,汐止區,新北市汐止區汐平路二段68號,25.06069751,121.6989129,派出所
烘內派出所,新北市,汐止區,新北市汐止區汐萬路二段230號,25.0884,121.6467409,派出所
八連派出所,新北市,汐止區,新北市汐止區長青路一八八巷1之1號,25.1110988,121.6053654,派出所
橫科派出所,新北市,汐止區,新北市汐止區民權街二段87號,25.0476675,121.6191911,派出所
社后派出所,新北市,汐止區,新北市汐止區中興路108號,25.0637276,121.6335138,派出所
長安派出所,新北市,汐止區,新北市汐止區大同路三段99號,25.0775796,121.6680919,派出所
汐止派出所,新北市,汐止區,新北市汐止區民生路1號,25.0835261,121.6625939,派出所
新北市政府警察局蘆洲分局,新北市,蘆洲區,新北市蘆洲區三民路609號,25.0936309,121.4603145,分局
延平派出所,新北市,蘆洲區,新北市蘆洲區長安街108巷2號,25.0817354,121.4614035,派出所
更寮派出所,新北市,五股區,新北市五股區中興路二段147號,25.077896,121.4583813,派出所
成洲派出所,新北市,五股區,新北市五股區成泰路三段539號,25.095842,121.4485519,派出所
龍源派出所,新北市,八里區,新北市八里區龍米路一段225號,25.1323479,121.4513567,派出所
三民派出所,新北市,蘆洲區,新北市蘆洲區三民路609號,25.0936309,121.4603145,派出所
蘆洲派出所,新北市,蘆洲區,仁復里中山二路92號,25.0819604,121.472768,派出所
德音派出所,新北市,五股區,新北市五股區水碓二路1號,25.0718219,121.430125,派出所
集賢派出所,新北市,蘆洲區,集賢路245號,25.084842,121.4816873,派出所
新北市政府警察局金山分局,新北市,金山區,新北市金山區民生路65號,25.22033751,121.6406957,分局
海山派出所,新北市,板橋區,長安里漢生東路195號,25.0114339,121.4700726,派出所
新海派出所,新北市,板橋區,幸福里英士路151號,25.024047,121.4599471,派出所
埔墘派出所,新北市,板橋區,埔墘里中山路二段286號,25.0187107,121.4796239,派出所
江翠派出所,新北市,板橋區,大同街14號,25.0268401,121.4773353,派出所
新北市政府警察局土城分局,新北市,土城區,和平路22號,24.973286,121.4429322,分局
清水派出所,新北市,土城區,青雲路220號,24.9812931,121.4588751,派出所
新北市政府消防局安和分隊,新北市,新店區,新北市新店區安和路3段3號,24.9802841,121.5171262,消防局
新北市政府消防局九份分隊,新北市,瑞芳區,新北市瑞芳區崙頂路1-5號,25.10610183,121.8467977,消防局
新北市政府警察局中和分局,新北市,中和區,新北市中和區圓通路30號,24.99792857,121.5010176,分局
新北市政府消防局永平分隊,新北市,永和區,新北市永和區環河西路二段177-1號1樓,25.01331706,121.5050409,消防局
永和派出所,新北市,永和區,新北市永和區安樂路344號,25.0062518,121.5144973,派出所
秀朗派出所,新北市,永和區,永利路73號,25.0037669,121.5210451,派出所
中正橋派出所,新北市,永和區,永和路二段303號,25.0163694,121.5158288,派出所
新生派出所,新北市,永和區,仁愛路187號,25.0125961,121.5102178,派出所
得和派出所,新北市,永和區,民權路51號,24.9970676,121.5200534,派出所
新北市政府消防局三重分隊,新北市,三重區,新北市三重區正義南路107號2樓,25.058813,121.498536,消防局
新北市政府消防局裕民分隊,新北市,新莊區,新北市新莊區裕民街136號,25.0226157,121.4180864,消防局
水源派出所,新北市,淡水區,新北市淡水區北新路二段19號,25.1858101,121.4780766,派出所
興仁派出所,新北市,淡水區,新北市淡水區興仁路93號,25.2177987,121.4518809,派出所
中正路派出所,新北市,淡水區,新北市淡水區中正路318-1號,25.1727286,121.43679,派出所
竹圍派出所,新北市,淡水區,新北市淡水區民權路32號,25.1374492,121.4597957,派出所
水碓派出所,新北市,淡水區,新北市淡水區中山北路一段160號,25.1782853,121.4443604,派出所
賢孝派出所,新北市,淡水區,新北市淡水區淡金路五段72號,25.2334968,121.4548319,派出所
後厝派出所,新北市,三芝區,新北市三芝區北勢子45之32號,25.2466,121.47732,派出所
興華派出所,新北市,三芝區,新北市三芝區田心子1號,25.2366667,121.5252778,派出所
廣福派出所,新北市,土城區,學府路一段103號,24.9877522,121.456118,派出所
土城派出所,新北市,土城區,和平路22號,24.973286,121.4429322,派出所
頂埔派出所,新北市,土城區,新北市土城區中央路三段164號,24.96557766,121.431499,派出所
金城派出所,新北市,土城區,新北市土城區延吉街318號,24.98409407,121.4635214,派出所
新北市政府消防局永和分隊,新北市,永和區,新北市永和區警光街1-1號,25.00950347,121.519877,消防局
新北市政府消防局新板分隊,新北市,板橋區,民族路57號,25.00913781,121.4644159,消防局
新北市政府消防局五泰林中隊,新北市,泰山區,新北市泰山區明志路二段188號,25.0468232,121.4267876,消防局
新北市政府消防局新莊中隊,新北市,新莊區,新北市新莊區中原路512號,25.0541749,121.45254,消防局
新北市政府消防局永和中隊,新北市,永和區,新北市永和區永利路72-1號4樓,25.0132421,121.5049258,消防局
新北市政府消防局三重中隊,新北市,三重區,新北市三重區中興北街225號,25.0585525,121.4691841,消防局
新北市政府消防局淡水中隊,新北市,淡水區,新北市淡水區中正東路一段125號,25.1594851,121.4556043,消防局
新北市政府消防局樹林中隊,新北市,樹林區,新北市樹林區柑園街一段60號,24.960426,121.403021,消防局
新北市政府消防局土城中隊,新北市,土城區,新北市土城區金城路一段90號,24.9733766,121.445061,消防局
新北市政府消防局第七救災救護大隊,新北市,中和區,新北市中和區中山路二段64巷11號4樓,25.00562948,121.5032267,消防局
新北市政府消防局員山分隊,新北市,中和區,新北市中和區中正路1163號,25.0090329,121.4817796,消防局
新北市政府消防局慈福分隊,新北市,三重區,新北市三重區溪尾街301號,25.083421,121.487567,消防局
新北市政府消防局特搜大隊,新北市,板橋區,新北市板橋區南雅南路二段15號,25.00128015,121.4539346,消防局
新北市政府消防局板橋中隊,新北市,板橋區,新北市板橋區重慶路293號,24.99911611,121.4633775,消防局
新北市政府消防局瑞芳中隊,新北市,瑞芳區,新北市瑞芳區中正路30號,24.69561055,121.7695343,消防局
新北市政府消防局新店中隊,新北市,深坑區,新北市深坑區文山路一段35號,25.00264785,121.6281134,消防局
新北市政府消防局南雅分隊,新北市,板橋區,新北市板橋區南雅南路二段15號,25.00128015,121.4539346,消防局
新北市政府消防局中和分隊,新北市,中和區,新北市中和區中山路二段64巷11號,25.00562948,121.5032267,消防局
新北市政府消防局滬尾分隊,新北市,淡水區,新北市淡水區中正路15巷5號,25.17151123,121.4371263,消防局
新北市政府消防局民力運用科,新北市,板橋區,新北市板橋區南雅南路二段15號,25.00128015,121.4539346,消防局
新北市政府消防局減災規劃科,新北市,板橋區,新北市板橋區南雅南路二段15號,25.00128015,121.4539346,消防局
新北市政府消防局鷺江分隊,新北市,蘆洲區,新北市蘆洲區長榮路792號,25.09297494,121.4614288,消防局
新北市政府消防局文化分隊,新北市,林口區,新北市林口區 文化三路一段302號,25.06996371,121.3628777,消防局
秀山派出所,新北市,中和區,新北市中和區成功路139號,24.99047218,121.5259836,派出所
南勢派出所,新北市,中和區,新北市中和區南山路322號,24.98652295,121.5079361,派出所
安平派出所,新北市,中和區,新北市中和區中安街175號,25.0001972,121.5110933,派出所
景安派出所,新北市,中和區,新北市中和區復興路276號,24.99048206,121.5026784,派出所
新北市政府警察局中和分局民安駐地,新北市,中和區,新北市中和區民安街150號,25.00152861,121.4776686,分局
新北市政府警察局三重分局,新北市,三重區,新北市三重區重新路3段147號,25.05905427,121.4901334,分局
五工派出所,新北市,新莊區,新北市新莊區五工路95-1號,25.063317,121.457776,派出所
新樹派出所,新北市,新莊區,新北市新莊區,25.0358303,121.4367535,派出所
新店分局,新北市,新店區,新北市新店區,24.93039008,121.5316565,分局
新北市政府消防局重陽消防隊,新北市,三重區,新北市三重區過田里8鄰重陽路一段123號,25.06106103,121.4869452,消防局
新北市政府消防局特搜大隊大埔分隊,新北市,三峽區,新北市三峽區中正路2段492號,24.906941,121.362765,消防局
新北市政府消防局 蘆洲分隊,新北市,蘆洲區,新北市蘆洲區,25.08927173,121.4712461,消防局
文聖派出所,新北市,板橋區,新北市板橋區大同街14號,25.01186453,121.4579675,派出所
新北市政府警察局瑞芳分局,新北市,瑞芳區,新北市瑞芳區明燈路三段25號,25.10760545,121.8077273,分局
新北市政府警察局三峽分局,新北市,三峽區,新北市三峽區,24.88209766,121.4163094,分局
新北市政府消防局海山中隊,新北市,板橋區,新北市板橋區莒光路161號4樓,25.024301,121.473927,消防局
新北市政府消防局鳳鳴分隊,新北市,鶯歌區,新北市鶯歌區鳳鳴路162號,24.969141,121.333946,消防局
新北市政府消防局汐止中隊,新北市,汐止區,新北市汐止區忠孝東路1-1號,25.064131,121.657032,消防局
新北市政府消防局中和中隊,新北市,中和區,新北市中和區中山路二段64巷11號,25.005547,121.503305,消防局
新北市政府警察局林口分局,新北市,林口區,新北市林口區南勢里22鄰忠孝二路57號,25.07032549,121.3632945,分局
新北市政府警察局林口分局泰山分駐所,新北市,泰山區,新北市泰山區泰林路二段214號,25.061685,121.433049,分局
新北市政府警察局林口分局明志派出所,新北市,泰山區,新北市泰山區明志路2段426號,25.043811,121.424712,派出所
新北市政府警察局林口分局林口派出所,新北市,林口區,新北市林口區中正路102號,25.077324,121.393784,派出所
新北市政府警察局林口分局文化派出所,新北市,林口區,新北市林口區麗園一街5號,25.1000868,121.3527235,派出所
新北市政府警察局林口分局忠孝派出所,新北市,林口區,新北市林口區忠孝二路57號,25.070114,121.36357,派出所
新北市政府警察局林口分局文林派出所,新北市,林口區,新北市林口區文化三路2段600號,25.087584,121.379935,派出所
新北市政府警察局林口分局下福派出所,新北市,林口區,新北市林口區下福里下福99之1號,25.11701,121.289709,派出所
新北市政府警察局林口分局瑞平派出所,新北市,林口區,新北市林口區瑞平里10鄰44號,25.122653,121.335843,派出所
新北市政府警察局林口分局警備隊,新北市,林口區,新北市林口區忠孝二路57號,25.070114,121.36357,分局